# STATION: KSBA,,,,,,,,,,,,,,,,,,,,,,,,,,,,,,,,,,
# STATION NAME: Santa Barbara, Santa Barbara Municipal Airport,,,,,,,,,,,,,,,,,,,,,,,,,,,,,,,,,
# LATITUDE: 34.42611,,,,,,,,,,,,,,,,,,,,,,,,,,,,,,,,,,
# LONGITUDE: -119.84361,,,,,,,,,,,,,,,,,,,,,,,,,,,,,,,,,,
# ELEVATION [ft]: 10,,,,,,,,,,,,,,,,,,,,,,,,,,,,,,,,,,
# STATE: CA,,,,,,,,,,,,,,,,,,,,,,,,,,,,,,,,,,
Station_ID,Date_Time,altimeter_set_1,air_temp_set_1,dew_point_temperature_set_1,relative_humidity_set_1,wind_speed_set_1,wind_direction_set_1,wind_gust_set_1,sea_level_pressure_set_1,weather_cond_code_set_1,cloud_layer_3_code_set_1,pressure_tendency_set_1,precip_accum_one_hour_set_1,precip_accum_three_hour_set_1,cloud_layer_1_code_set_1,cloud_layer_2_code_set_1,precip_accum_six_hour_set_1,precip_accum_24_hour_set_1,visibility_set_1,metar_remark_set_1,metar_set_1,air_temp_high_6_hour_set_1,air_temp_low_6_hour_set_1,peak_wind_speed_set_1,ceiling_set_1,pressure_change_code_set_1,air_temp_high_24_hour_set_1,air_temp_low_24_hour_set_1,peak_wind_direction_set_1,dew_point_temperature_set_1d,wind_chill_set_1d,wind_cardinal_direction_set_1d,pressure_set_1d,sea_level_pressure_set_1d
,,Pascals,Celsius,Celsius,%,m/s,Degrees,m/s,Pascals,code,code,code,Millimeters,Millimeters,code,code,Millimeters,Millimeters,Statute miles,text,text,Celsius,Celsius,m/s,Meters,code,Celsius,Celsius,Degrees,Celsius,Celsius,Code,Pascals,Pascals
KSBA,03/30/2019 23:00 UTC,101659.34,22,,26.74,5.14,250,,,,,,,,1,,,,10,,METAR KSBA 302300Z AUTO 25010KT 10SM CLR 22/02 A3002,,,,,,,,,1.97,,WSW,101623.42,101659.28
KSBA,03/30/2019 23:05 UTC,101659.34,22,,26.74,4.12,260,,,,,,,,1,,,,10,,METAR KSBA 302305Z AUTO 26008KT 10SM CLR 22/02 A3002,,,,,,,,,1.97,,W,101623.42,101659.28
KSBA,03/30/2019 23:10 UTC,101659.34,22,,28.72,4.63,260,,,,,,,,1,,,,10,,METAR KSBA 302310Z AUTO 26009KT 10SM CLR 22/03 A3002,,,,,,,,,2.97,,W,101623.42,101659.28
KSBA,03/30/2019 23:15 UTC,101625.47,22,,26.74,4.63,260,,,,,,,,1,,,,10,,METAR KSBA 302315Z AUTO 26009KT 10SM CLR 22/02 A3001,,,,,,,,,1.97,,W,101589.56,101625.4
KSBA,03/30/2019 23:20 UTC,101625.47,22,,28.72,4.12,270,,,,,,,,1,,,,10,,METAR KSBA 302320Z AUTO 27008KT 10SM CLR 22/03 A3001,,,,,,,,,2.97,,W,101589.56,101625.4
KSBA,03/30/2019 23:25 UTC,101625.47,22,,28.72,5.14,260,,,,,,,,1,,,,10,,METAR KSBA 302325Z AUTO 26010KT 10SM CLR 22/03 A3001,,,,,,,,,2.97,,W,101589.56,101625.4
KSBA,03/30/2019 23:30 UTC,101625.47,22,,24.89,4.63,270,,,,,,,,1,,,,10,,METAR KSBA 302330Z AUTO 27009KT 10SM CLR 22/01 A3001,,,,,,,,,0.97,,W,101589.56,101625.4
KSBA,03/30/2019 23:35 UTC,101625.47,22,,26.74,4.12,250,,,,,,,,1,,,,10,,METAR KSBA 302335Z AUTO 25008KT 10SM CLR 22/02 A3001,,,,,,,,,1.97,,WSW,101589.56,101625.4
KSBA,03/30/2019 23:40 UTC,101625.47,22,,28.72,4.63,260,,,,,,,,1,,,,10,,METAR KSBA 302340Z AUTO 26009KT 10SM CLR 22/03 A3001,,,,,,,,,2.97,,W,101589.56,101625.4
KSBA,03/30/2019 23:45 UTC,101625.47,22,,33.05,5.14,260,,,,,,,,1,,,,10,,METAR KSBA 302345Z AUTO 26010KT 10SM CLR 22/05 A3001,,,,,,,,,4.97,,W,101589.56,101625.4
KSBA,03/30/2019 23:50 UTC,101625.47,22,,33.05,5.14,260,,,,,,,,1,,,,10,,METAR KSBA 302350Z AUTO 26010KT 10SM CLR 22/05 A3001,,,,,,,,,4.97,,W,101589.56,101625.4
KSBA,03/30/2019 23:53 UTC,101625.47,21.7,5.6,35.09,5.14,260,,101620,,,6018,,,1,,,,10,,METAR KSBA 302353Z 26010KT 10SM CLR 22/06 A3001 RMK AO2 SLP162 T02170056  10228 20172 56018,22.8,17.2,,,,,,,5.56,,W,101589.56,101625.44
KSBA,03/30/2019 23:55 UTC,101625.47,22,,35.42,4.63,260,,,,,,,,1,,,,10,,METAR KSBA 302355Z AUTO 26009KT 10SM CLR 22/06 A3001,,,,,,,,,5.96,,W,101589.56,101625.4
KSBA,03/31/2019 00:00 UTC,101625.47,22,,35.42,4.63,260,,,,,,,,1,,,,10,,METAR KSBA 310000Z AUTO 26009KT 10SM CLR 22/06 A3001,,,,,,,,,5.96,,W,101589.56,101625.4
KSBA,03/31/2019 00:05 UTC,101625.47,21,,40.34,5.14,260,,,,,,,,1,,,,10,,METAR KSBA 310005Z AUTO 26010KT 10SM CLR 21/07 A3001,,,,,,,,,6.96,,W,101589.56,101625.52
KSBA,03/31/2019 00:10 UTC,101591.61,21,,40.34,3.6,260,,,,,,,,1,,,,10,,METAR KSBA 310010Z AUTO 26007KT 10SM CLR 21/07 A3000,,,,,,,,,6.96,,W,101555.71,101591.66
KSBA,03/31/2019 00:15 UTC,101591.61,22,,37.95,4.12,260,,,,,,,,1,,,,10,,METAR KSBA 310015Z AUTO 26008KT 10SM CLR 22/07 A3000,,,,,,,,,6.97,,W,101555.71,101591.54
KSBA,03/31/2019 00:20 UTC,101625.47,22,,37.95,4.63,260,,,,,,,,1,,,,10,,METAR KSBA 310020Z AUTO 26009KT 10SM CLR 22/07 A3001,,,,,,,,,6.97,,W,101589.56,101625.4
KSBA,03/31/2019 00:25 UTC,101625.47,22,,40.63,4.12,260,,,,,,,,1,,,,10,,METAR KSBA 310025Z AUTO 26008KT 10SM CLR 22/08 A3001,,,,,,,,,7.97,,W,101589.56,101625.4
KSBA,03/31/2019 00:30 UTC,101591.61,22,,40.63,3.6,260,,,,,,,,1,,,,10,,METAR KSBA 310030Z AUTO 26007KT 10SM CLR 22/08 A3000,,,,,,,,,7.97,,W,101555.71,101591.54
KSBA,03/31/2019 00:35 UTC,101591.61,22,,40.63,3.6,260,,,,,,,,1,,,,10,,METAR KSBA 310035Z AUTO 26007KT 10SM CLR 22/08 A3000,,,,,,,,,7.97,,W,101555.71,101591.54
KSBA,03/31/2019 00:40 UTC,101625.47,22,,40.63,4.12,260,,,,,,,,1,,,,10,,METAR KSBA 310040Z AUTO 26008KT 10SM CLR 22/08 A3001,,,,,,,,,7.97,,W,101589.56,101625.4
KSBA,03/31/2019 00:45 UTC,101625.47,21,,43.19,4.12,260,,,,,,,,1,,,,10,,METAR KSBA 310045Z AUTO 26008KT 10SM CLR 21/08 A3001,,,,,,,,,7.96,,W,101589.56,101625.52
KSBA,03/31/2019 00:50 UTC,101625.47,21,,43.19,3.6,260,,,,,,,,1,,,,10,,METAR KSBA 310050Z AUTO 26007KT 10SM CLR 21/08 A3001,,,,,,,,,7.96,,W,101589.56,101625.52
KSBA,03/31/2019 00:53 UTC,101625.47,20.6,7.8,43.67,3.6,260,,101610,,,,,,1,,,,10,,METAR KSBA 310053Z 26007KT 10SM CLR 21/08 A3001 RMK AO2 SLP161 T02060078,,,,,,,,,7.76,,W,101589.56,101625.57
KSBA,03/31/2019 00:55 UTC,101625.47,21,,43.19,3.09,270,,,,,,,,1,,,,10,,METAR KSBA 310055Z AUTO 27006KT 10SM CLR 21/08 A3001,,,,,,,,,7.96,,W,101589.56,101625.52
KSBA,03/31/2019 01:00 UTC,101625.47,21,,43.19,2.57,260,,,,,,,,1,,,,10,,METAR KSBA 310100Z AUTO 26005KT 10SM CLR 21/08 A3001,,,,,,,,,7.96,,W,101589.56,101625.52
KSBA,03/31/2019 01:05 UTC,101625.47,21,,43.19,2.57,260,,,,,,,,1,,,,10,,METAR KSBA 310105Z AUTO 26005KT 10SM CLR 21/08 A3001,,,,,,,,,7.96,,W,101589.56,101625.52
KSBA,03/31/2019 01:10 UTC,101625.47,21,,43.19,2.57,260,,,,,,,,1,,,,10,,METAR KSBA 310110Z AUTO 26005KT 10SM CLR 21/08 A3001,,,,,,,,,7.96,,W,101589.56,101625.52
KSBA,03/31/2019 01:15 UTC,101625.47,21,,43.19,2.06,260,,,,,,,,1,,,,10,,METAR KSBA 310115Z AUTO 26004KT 10SM CLR 21/08 A3001,,,,,,,,,7.96,,W,101589.56,101625.52
KSBA,03/31/2019 01:20 UTC,101625.47,21,,43.19,2.06,260,,,,,,,,1,,,,10,,METAR KSBA 310120Z AUTO 26004KT 10SM CLR 21/08 A3001,,,,,,,,,7.96,,W,101589.56,101625.52
KSBA,03/31/2019 01:25 UTC,101625.47,22,,43.48,2.06,300,,,,,,,,1,,,,10,,METAR KSBA 310125Z AUTO 30004KT 10SM CLR 22/09 A3001,,,,,,,,,8.97,,WNW,101589.56,101625.4
KSBA,03/31/2019 01:30 UTC,101625.47,22,,43.48,1.54,280,,,,,,,,1,,,,10,,METAR KSBA 310130Z AUTO 28003KT 10SM CLR 22/09 A3001,,,,,,,,,8.97,,W,101589.56,101625.4
KSBA,03/31/2019 01:35 UTC,101625.47,22,,43.48,2.57,280,,,,,,,,1,,,,10,,METAR KSBA 310135Z AUTO 28005KT 10SM CLR 22/09 A3001,,,,,,,,,8.97,,W,101589.56,101625.4
KSBA,03/31/2019 01:40 UTC,101591.61,22,,43.48,1.54,300,,,,,,,,1,,,,10,,METAR KSBA 310140Z AUTO 30003KT 10SM CLR 22/09 A3000,,,,,,,,,8.97,,WNW,101555.71,101591.54
KSBA,03/31/2019 01:45 UTC,101591.61,22,,43.48,2.06,330,,,,,,,,1,,,,10,,METAR KSBA 310145Z AUTO 33004KT 10SM CLR 22/09 A3000,,,,,,,,,8.97,,NNW,101555.71,101591.54
KSBA,03/31/2019 01:50 UTC,101591.61,22,,40.63,1.54,310,,,,,,,,1,,,,10,,METAR KSBA 310150Z AUTO 31003KT 10SM CLR 22/08 A3000,,,,,,,,,7.97,,NW,101555.71,101591.54
KSBA,03/31/2019 01:53 UTC,101591.61,22.2,8.3,40.97,3.6,330,,101580,,,,,,1,,,,10,,METAR KSBA 310153Z 33007KT 10SM CLR 22/08 A3000 RMK AO2 SLP158 T02220083,,,,,,,,,8.27,,NNW,101555.71,101591.52
KSBA,03/31/2019 01:55 UTC,101591.61,22,,40.63,3.09,330,,,,,,,,1,,,,10,,METAR KSBA 310155Z AUTO 33006KT 10SM CLR 22/08 A3000,,,,,,,,,7.97,,NNW,101555.71,101591.54
KSBA,03/31/2019 02:00 UTC,101591.61,21,,43.19,3.09,330,,,,,,,,1,,,,10,,METAR KSBA 310200Z AUTO 33006KT 10SM CLR 21/08 A3000,,,,,,,,,7.96,,NNW,101555.71,101591.66
KSBA,03/31/2019 02:05 UTC,101591.61,21,,43.19,4.12,310,,,,,,,,1,,,,10,,METAR KSBA 310205Z AUTO 31008KT 10SM CLR 21/08 A3000,,,,,,,,,7.96,,NW,101555.71,101591.66
KSBA,03/31/2019 02:10 UTC,101591.61,21,,43.19,2.57,330,,,,,,,,1,,,,10,,METAR KSBA 310210Z AUTO 33005KT 10SM CLR 21/08 A3000,,,,,,,,,7.96,,NNW,101555.71,101591.66
KSBA,03/31/2019 02:15 UTC,101591.61,21,,43.19,3.6,10,,,,,,,,1,,,,10,,METAR KSBA 310215Z AUTO 01007KT 10SM CLR 21/08 A3000,,,,,,,,,7.96,,N,101555.71,101591.66
KSBA,03/31/2019 02:20 UTC,101591.61,21,,43.19,4.63,20,,,,,,,,1,,,,10,,METAR KSBA 310220Z AUTO 02009KT 10SM CLR 21/08 A3000,,,,,,,,,7.96,,NNE,101555.71,101591.66
KSBA,03/31/2019 02:25 UTC,101591.61,21,,43.19,2.57,40,,,,,,,,1,,,,10,,METAR KSBA 310225Z AUTO 04005KT 10SM CLR 21/08 A3000,,,,,,,,,7.96,,NE,101555.71,101591.66
KSBA,03/31/2019 02:30 UTC,101591.61,20,,45.93,2.57,40,,,,,,,,1,,,,10,,METAR KSBA 310230Z AUTO 04005KT 10SM CLR 20/08 A3000,,,,,,,,,7.95,,NE,101555.71,101591.79
KSBA,03/31/2019 02:35 UTC,101591.61,19,,48.87,3.09,30,,,,,,,,1,,,,10,,METAR KSBA 310235Z AUTO 03006KT 10SM CLR 19/08 A3000,,,,,,,,,7.95,,NNE,101555.71,101591.91
KSBA,03/31/2019 02:40 UTC,101557.75,19,,48.87,2.57,40,,,,,,,,1,,,,10,,METAR KSBA 310240Z AUTO 04005KT 10SM CLR 19/08 A2999,,,,,,,,,7.95,,NE,101521.86,101558.05
KSBA,03/31/2019 02:45 UTC,101591.61,19,,48.87,1.54,70,,,,,,,,1,,,,10,,METAR KSBA 310245Z AUTO 07003KT 10SM CLR 19/08 A3000,,,,,,,,,7.95,,ENE,101555.71,101591.91
KSBA,03/31/2019 02:50 UTC,101591.61,19,,48.87,2.06,80,,,,,,,,1,,,,10,,METAR KSBA 310250Z AUTO 08004KT 10SM CLR 19/08 A3000,,,,,,,,,7.95,,E,101555.71,101591.91
KSBA,03/31/2019 02:53 UTC,101591.61,19.4,8.3,48.65,1.54,70,,101580,,,7004,,,1,,,,10,,METAR KSBA 310253Z 07003KT 10SM CLR 19/08 A3000 RMK AO2 SLP158 T01940083  57004,,,,,,,,,8.25,,ENE,101555.71,101591.86
KSBA,03/31/2019 02:55 UTC,101591.61,19,,48.87,1.54,70,,,,,,,,1,,,,10,,METAR KSBA 310255Z AUTO 07003KT 10SM CLR 19/08 A3000,,,,,,,,,7.95,,ENE,101555.71,101591.91
KSBA,03/31/2019 03:00 UTC,101557.75,19,,48.87,3.09,60,,,,,,,,1,,,,10,,METAR KSBA 310300Z AUTO 06006KT 10SM CLR 19/08 A2999,,,,,,,,,7.95,,ENE,101521.86,101558.05
KSBA,03/31/2019 03:05 UTC,101557.75,18,,52.03,3.6,50,,,,,,,,1,,,,10,,METAR KSBA 310305Z AUTO 05007KT 10SM CLR 18/08 A2999,,,,,,,,,7.95,,NE,101521.86,101558.17
KSBA,03/31/2019 03:10 UTC,101557.75,18,,52.03,5.14,30,,,,,,,,1,,,,10,,METAR KSBA 310310Z AUTO 03010KT 10SM CLR 18/08 A2999,,,,,,,,,7.95,,NNE,101521.86,101558.17
KSBA,03/31/2019 03:15 UTC,101557.75,19,,48.87,4.12,30,,,,,,,,1,,,,10,,METAR KSBA 310315Z AUTO 03008KT 10SM CLR 19/08 A2999,,,,,,,,,7.95,,NNE,101521.86,101558.05
KSBA,03/31/2019 03:20 UTC,101557.75,19,,48.87,3.6,20,,,,,,,,1,,,,10,,METAR KSBA 310320Z AUTO 02007KT 10SM CLR 19/08 A2999,,,,,,,,,7.95,,NNE,101521.86,101558.05
KSBA,03/31/2019 03:25 UTC,101557.75,19,,48.87,3.09,30,,,,,,,,1,,,,10,,METAR KSBA 310325Z AUTO 03006KT 10SM CLR 19/08 A2999,,,,,,,,,7.95,,NNE,101521.86,101558.05
KSBA,03/31/2019 03:30 UTC,101591.61,19,,48.87,4.63,40,,,,,,,,1,,,,10,,METAR KSBA 310330Z AUTO 04009KT 10SM CLR 19/08 A3000,,,,,,,,,7.95,,NE,101555.71,101591.91
KSBA,03/31/2019 03:35 UTC,101591.61,19,,48.87,4.12,40,,,,,,,,1,,,,10,,METAR KSBA 310335Z AUTO 04008KT 10SM CLR 19/08 A3000,,,,,,,,,7.95,,NE,101555.71,101591.91
KSBA,03/31/2019 03:40 UTC,101591.61,19,,48.87,2.57,40,,,,,,,,1,,,,10,,METAR KSBA 310340Z AUTO 04005KT 10SM CLR 19/08 A3000,,,,,,,,,7.95,,NE,101555.71,101591.91
KSBA,03/31/2019 03:45 UTC,101625.47,19,,48.87,2.57,40,,,,,,,,1,,,,10,,METAR KSBA 310345Z AUTO 04005KT 10SM CLR 19/08 A3001,,,,,,,,,7.95,,NE,101589.56,101625.77
KSBA,03/31/2019 03:50 UTC,101625.47,18,,52.03,3.09,40,,,,,,,,1,,,,10,,METAR KSBA 310350Z AUTO 04006KT 10SM CLR 18/08 A3001,,,,,,,,,7.95,,NE,101589.56,101625.9
KSBA,03/31/2019 03:53 UTC,101625.47,18.3,8.3,52.11,2.57,50,,101620,,,,,,1,,,,10,,METAR KSBA 310353Z 05005KT 10SM CLR 18/08 A3001 RMK AO2 SLP162 T01830083,,,,,,,,,8.25,,NE,101589.56,101625.86
KSBA,03/31/2019 03:55 UTC,101625.47,18,,52.03,2.06,60,,,,,,,,1,,,,10,,METAR KSBA 310355Z AUTO 06004KT 10SM CLR 18/08 A3001,,,,,,,,,7.95,,ENE,101589.56,101625.9
KSBA,03/31/2019 04:00 UTC,101625.47,18,,52.03,1.54,90,,,,,,,,1,,,,10,,METAR KSBA 310400Z AUTO 09003KT 10SM CLR 18/08 A3001,,,,,,,,,7.95,,E,101589.56,101625.9
KSBA,03/31/2019 04:05 UTC,101625.47,18,,52.03,1.54,90,,,,,,,,1,,,,10,,METAR KSBA 310405Z AUTO 09003KT 10SM CLR 18/08 A3001,,,,,,,,,7.95,,E,101589.56,101625.9
KSBA,03/31/2019 04:10 UTC,101625.47,18,,48.59,2.57,40,,,,,,,,1,,,,10,,METAR KSBA 310410Z AUTO 04005KT 10SM CLR 18/07 A3001,,,,,,,,,6.94,,NE,101589.56,101625.9
KSBA,03/31/2019 04:15 UTC,101625.47,18,,48.59,1.54,40,,,,,,,,1,,,,10,,METAR KSBA 310415Z AUTO 04003KT 10SM CLR 18/07 A3001,,,,,,,,,6.94,,NE,101589.56,101625.9
KSBA,03/31/2019 04:20 UTC,101659.34,18,,48.59,1.54,150,,,,,,,,1,,,,10,,METAR KSBA 310420Z AUTO 15003KT 10SM CLR 18/07 A3002,,,,,,,,,6.94,,SSE,101623.42,101659.77
KSBA,03/31/2019 04:25 UTC,101659.34,16,,67.57,2.06,170,,,,,,,,1,,,,10,,METAR KSBA 310425Z AUTO 17004KT 10SM CLR 16/10 A3002,,,,,,,,,9.96,,S,101623.42,101660.02
KSBA,03/31/2019 04:30 UTC,101693.2,16,,72.23,2.57,140,,,,,,,,1,,,,10,,METAR KSBA 310430Z AUTO 14005KT 10SM CLR 16/11 A3003,,,,,,,,,10.96,,SE,101657.26,101693.87
KSBA,03/31/2019 04:35 UTC,101693.2,16,,72.23,2.06,140,,,,,,,,1,,,,10,,METAR KSBA 310435Z AUTO 14004KT 10SM CLR 16/11 A3003,,,,,,,,,10.96,,SE,101657.26,101693.87
KSBA,03/31/2019 04:40 UTC,101659.34,15,,77.01,3.09,130,,,,,,,,1,,,,10,,METAR KSBA 310440Z AUTO 13006KT 10SM CLR 15/11 A3002,,,,,,,,,10.97,,SE,101623.42,101660.15
KSBA,03/31/2019 04:45 UTC,101659.34,15,,77.01,2.57,110,,,,,,,,1,,,,10,,METAR KSBA 310445Z AUTO 11005KT 10SM CLR 15/11 A3002,,,,,,,,,10.97,,ESE,101623.42,101660.15
KSBA,03/31/2019 04:50 UTC,101659.34,17,,67.79,2.06,110,,,,,,,,1,,,,10,,METAR KSBA 310450Z AUTO 11004KT 10SM CLR 17/11 A3002,,,,,,,,,10.96,,ESE,101623.42,101659.89
KSBA,03/31/2019 04:53 UTC,101659.34,15.6,10,69.32,2.06,140,,101660,,,,,,1,,,,10,,METAR KSBA 310453Z 14004KT 10SM CLR 16/10 A3002 RMK AO2 SLP166 T01560100,,,,,,,,,9.96,,SE,101623.42,101660.07
KSBA,03/31/2019 04:55 UTC,101693.2,14,,76.85,2.57,140,,,,,,,,1,,,,10,,METAR KSBA 310455Z AUTO 14005KT 10SM CLR 14/10 A3003,,,,,,,,,9.97,,SE,101657.26,101694.13
KSBA,03/31/2019 05:00 UTC,101693.2,14,,76.85,1.54,120,,,,,,,,1,,,,10,,METAR KSBA 310500Z AUTO 12003KT 10SM CLR 14/10 A3003,,,,,,,,,9.97,,ESE,101657.26,101694.13
KSBA,03/31/2019 05:05 UTC,101693.2,14,,82.14,2.57,150,,,,,,,,1,,,,10,,METAR KSBA 310505Z AUTO 15005KT 10SM CLR 14/11 A3003,,,,,,,,,10.97,,SSE,101657.26,101694.13
KSBA,03/31/2019 05:10 UTC,101693.2,14,,87.75,1.54,160,,,,,,,,1,,,,10,,METAR KSBA 310510Z AUTO 16003KT 10SM CLR 14/12 A3003,,,,,,,,,11.98,,SSE,101657.26,101694.13
KSBA,03/31/2019 05:15 UTC,101693.2,14,,82.14,0,0,,,,,,,,1,,,,10,,METAR KSBA 310515Z AUTO 00000KT 10SM CLR 14/11 A3003,,,,,,,,,10.97,,N,101657.26,101694.13
KSBA,03/31/2019 05:20 UTC,101693.2,14,,82.14,2.06,120,,,,,,,,1,,,,10,,METAR KSBA 310520Z AUTO 12004KT 10SM CLR 14/11 A3003,,,,,,,,,10.97,,ESE,101657.26,101694.13
KSBA,03/31/2019 05:25 UTC,101693.2,14,,87.75,0,0,,,,,,,,1,,,,10,,METAR KSBA 310525Z AUTO 00000KT 10SM CLR 14/12 A3003,,,,,,,,,11.98,,N,101657.26,101694.13
KSBA,03/31/2019 05:30 UTC,101693.2,14,,87.75,0,0,,,,,,,,1,,,,10,,METAR KSBA 310530Z AUTO 00000KT 10SM CLR 14/12 A3003,,,,,,,,,11.98,,N,101657.26,101694.13
KSBA,03/31/2019 05:35 UTC,101693.2,14,,87.75,0,0,,,,,,,,1,,,,10,,METAR KSBA 310535Z AUTO 00000KT 10SM CLR 14/12 A3003,,,,,,,,,11.98,,N,101657.26,101694.13
KSBA,03/31/2019 05:40 UTC,101693.2,14,,87.75,1.54,90,,,,,,,,1,,,,10,,METAR KSBA 310540Z AUTO 09003KT 10SM CLR 14/12 A3003,,,,,,,,,11.98,,E,101657.26,101694.13
KSBA,03/31/2019 05:45 UTC,101693.2,14,,87.75,1.54,50,,,,,,,,1,,,,10,,METAR KSBA 310545Z AUTO 05003KT 10SM CLR 14/12 A3003,,,,,,,,,11.98,,NE,101657.26,101694.13
KSBA,03/31/2019 05:50 UTC,101693.2,14,,87.75,2.06,70,,,,,,,,1,,,,10,,METAR KSBA 310550Z AUTO 07004KT 10SM CLR 14/12 A3003,,,,,,,,,11.98,,ENE,101657.26,101694.13
KSBA,03/31/2019 05:53 UTC,101693.2,13.9,11.7,86.6,2.57,60,,101690,,,1011,,,1,,,,10,,METAR KSBA 310553Z 06005KT 10SM CLR 14/12 A3003 RMK AO2 SLP169 T01390117  10222 20139 51011,22.2,13.9,,,,,,,11.68,,ENE,101657.26,101694.14
KSBA,03/31/2019 05:55 UTC,101693.2,14,,82.14,2.06,60,,,,,,,,1,,,,10,,METAR KSBA 310555Z AUTO 06004KT 10SM CLR 14/11 A3003,,,,,,,,,10.97,,ENE,101657.26,101694.13
KSBA,03/31/2019 06:00 UTC,101693.2,14,,82.14,2.06,50,,,,,,,,1,,,,10,,METAR KSBA 310600Z AUTO 05004KT 10SM CLR 14/11 A3003,,,,,,,,,10.97,,NE,101657.26,101694.13
KSBA,03/31/2019 06:05 UTC,101693.2,13,,87.66,1.54,50,,,,,,,,1,,,,10,,METAR KSBA 310605Z AUTO 05003KT 10SM CLR 13/11 A3003,,,,,,,,,10.98,,NE,101657.26,101694.25
KSBA,03/31/2019 06:10 UTC,101693.2,13,,87.66,0,0,,,,,,,,1,,,,10,,METAR KSBA 310610Z AUTO 00000KT 10SM CLR 13/11 A3003,,,,,,,,,10.98,,N,101657.26,101694.25
KSBA,03/31/2019 06:15 UTC,101693.2,13,,87.66,0,0,,,,,,,,1,,,,10,,METAR KSBA 310615Z AUTO 00000KT 10SM CLR 13/11 A3003,,,,,,,,,10.98,,N,101657.26,101694.25
KSBA,03/31/2019 06:20 UTC,101693.2,13,,87.66,0,0,,,,,,,,1,,,,10,,METAR KSBA 310620Z AUTO 00000KT 10SM CLR 13/11 A3003,,,,,,,,,10.98,,N,101657.26,101694.25
KSBA,03/31/2019 06:25 UTC,101693.2,14,,82.14,0,0,,,,,,,,1,,,,10,,METAR KSBA 310625Z AUTO 00000KT 10SM CLR 14/11 A3003,,,,,,,,,10.97,,N,101657.26,101694.13
KSBA,03/31/2019 06:30 UTC,101693.2,14,,82.14,0,0,,,,,,,,1,,,,10,,METAR KSBA 310630Z AUTO 00000KT 10SM CLR 14/11 A3003,,,,,,,,,10.97,,N,101657.26,101694.13
KSBA,03/31/2019 06:35 UTC,101693.2,14,,82.14,1.54,40,,,,,,,,1,,,,10,,METAR KSBA 310635Z AUTO 04003KT 10SM CLR 14/11 A3003,,,,,,,,,10.97,,NE,101657.26,101694.13
KSBA,03/31/2019 06:40 UTC,101693.2,14,,82.14,1.54,50,,,,,,,,1,,,,10,,METAR KSBA 310640Z AUTO 05003KT 10SM CLR 14/11 A3003,,,,,,,,,10.97,,NE,101657.26,101694.13
KSBA,03/31/2019 06:45 UTC,101659.34,13,,87.66,0,0,,,,,,,,1,,,,10,,METAR KSBA 310645Z AUTO 00000KT 10SM CLR 13/11 A3002,,,,,,,,,10.98,,N,101623.42,101660.4
KSBA,03/31/2019 06:50 UTC,101693.2,13,,87.66,0,0,,,,,,,,1,,,,10,,METAR KSBA 310650Z AUTO 00000KT 10SM CLR 13/11 A3003,,,,,,,,,10.98,,N,101657.26,101694.25
KSBA,03/31/2019 06:53 UTC,101693.2,13.3,10.6,83.71,0,0,,101670,,,,,,1,,,,10,,METAR KSBA 310653Z AUTO 00000KT 10SM CLR 13/11 A3003 RMK AO2 SLP167  T01330106,,,,,,,,,10.57,,N,101657.26,101694.22
KSBA,03/31/2019 06:55 UTC,101693.2,13,,87.66,0,0,,,,,,,,1,,,,10,,METAR KSBA 310655Z AUTO 00000KT 10SM CLR 13/11 A3003,,,,,,,,,10.98,,N,101657.26,101694.25
KSBA,03/31/2019 07:00 UTC,101693.2,13,,87.66,1.54,60,,,,,,,,1,,,,10,,METAR KSBA 310700Z AUTO 06003KT 10SM CLR 13/11 A3003,,,,,,,,,10.98,,ENE,101657.26,101694.25
KSBA,03/31/2019 07:05 UTC,101693.2,13,,87.66,0,0,,,,,,,,1,,,,10,,METAR KSBA 310705Z AUTO 00000KT 10SM CLR 13/11 A3003,,,,,,,,,10.98,,N,101657.26,101694.25
KSBA,03/31/2019 07:10 UTC,101693.2,12,,87.57,0,0,,,,,,,,1,,,,10,,METAR KSBA 310710Z AUTO 00000KT 10SM CLR 12/10 A3003,,,,,,,,,9.98,,N,101657.26,101694.38
KSBA,03/31/2019 07:15 UTC,101693.2,12,,87.57,0,0,,,,,,,,1,,,,10,,METAR KSBA 310715Z AUTO 00000KT 10SM CLR 12/10 A3003,,,,,,,,,9.98,,N,101657.26,101694.38
KSBA,03/31/2019 07:20 UTC,101659.34,12,,93.6,0,0,,,,,,,,1,,,,10,,METAR KSBA 310720Z AUTO 00000KT 10SM CLR 12/11 A3002,,,,,,,,,10.99,,N,101623.42,101660.53
KSBA,03/31/2019 07:25 UTC,101659.34,12,,93.6,0,0,,,,,,,,1,,,,10,,METAR KSBA 310725Z AUTO 00000KT 10SM CLR 12/11 A3002,,,,,,,,,10.99,,N,101623.42,101660.53
KSBA,03/31/2019 07:30 UTC,101659.34,13,,87.66,0,0,,,,,,,,1,,,,10,,METAR KSBA 310730Z AUTO 00000KT 10SM CLR 13/11 A3002,,,,,,,,,10.98,,N,101623.42,101660.4
KSBA,03/31/2019 07:35 UTC,101693.2,13,,82.01,1.54,70,,,,,,,,1,,,,10,,METAR KSBA 310735Z AUTO 07003KT 10SM CLR 13/10 A3003,,,,,,,,,9.97,,ENE,101657.26,101694.25
KSBA,03/31/2019 07:40 UTC,101693.2,13,,82.01,1.54,70,,,,,,,,1,,,,10,,METAR KSBA 310740Z AUTO 07003KT 10SM CLR 13/10 A3003,,,,,,,,,9.97,,ENE,101657.26,101694.25
KSBA,03/31/2019 07:45 UTC,101659.34,12,,81.88,2.06,90,,,,,,,,1,,,,10,,METAR KSBA 310745Z AUTO 09004KT 10SM CLR 12/09 A3002,,,,,,,,,8.97,,E,101623.42,101660.53
KSBA,03/31/2019 07:50 UTC,101659.34,12,,81.88,1.54,100,,,,,,,,1,,,,10,,METAR KSBA 310750Z AUTO 10003KT 10SM CLR 12/09 A3002,,,,,,,,,8.97,,E,101623.42,101660.53
KSBA,03/31/2019 07:53 UTC,101659.34,11.7,9.4,85.8,0,0,,101670,,,,,,1,,,,10,,METAR KSBA 310753Z AUTO 00000KT 10SM CLR 12/09 A3002 RMK AO2 SLP167  T01170094 402280067,,,,,,22.8,6.7,,9.38,,N,101623.42,101660.57
KSBA,03/31/2019 07:55 UTC,101659.34,12,,81.88,0,0,,,,,,,,1,,,,10,,METAR KSBA 310755Z AUTO 00000KT 10SM CLR 12/09 A3002,,,,,,,,,8.97,,N,101623.42,101660.53
KSBA,03/31/2019 08:00 UTC,101659.34,12,,81.88,0,0,,,,,,,,1,,,,10,,METAR KSBA 310800Z AUTO 00000KT 10SM CLR 12/09 A3002,,,,,,,,,8.97,,N,101623.42,101660.53
KSBA,03/31/2019 08:05 UTC,101659.34,12,,81.88,0,0,,,,,,,,1,,,,10,,METAR KSBA 310805Z AUTO 00000KT 10SM CLR 12/09 A3002,,,,,,,,,8.97,,N,101623.42,101660.53
KSBA,03/31/2019 08:10 UTC,101693.2,13,,76.68,0,0,,,,,,,,1,,,,10,,METAR KSBA 310810Z AUTO 00000KT 10SM CLR 13/09 A3003,,,,,,,,,8.96,,N,101657.26,101694.25
KSBA,03/31/2019 08:15 UTC,101659.34,12,,81.88,0,0,,,,,,,,1,,,,10,,METAR KSBA 310815Z AUTO 00000KT 10SM CLR 12/09 A3002,,,,,,,,,8.97,,N,101623.42,101660.53
KSBA,03/31/2019 08:20 UTC,101659.34,12,,81.88,0,0,,,,,,,,1,,,,10,,METAR KSBA 310820Z AUTO 00000KT 10SM CLR 12/09 A3002,,,,,,,,,8.97,,N,101623.42,101660.53
KSBA,03/31/2019 08:25 UTC,101659.34,12,,81.88,0,0,,,,,,,,1,,,,10,,METAR KSBA 310825Z AUTO 00000KT 10SM CLR 12/09 A3002,,,,,,,,,8.97,,N,101623.42,101660.53
KSBA,03/31/2019 08:30 UTC,101659.34,12,,81.88,1.54,10,,,,,,,,1,,,,10,,METAR KSBA 310830Z AUTO 01003KT 10SM CLR 12/09 A3002,,,,,,,,,8.97,,N,101623.42,101660.53
KSBA,03/31/2019 08:35 UTC,101659.34,12,,81.88,0,0,,,,,,,,1,,,,10,,METAR KSBA 310835Z AUTO 00000KT 10SM CLR 12/09 A3002,,,,,,,,,8.97,,N,101623.42,101660.53
KSBA,03/31/2019 08:40 UTC,101659.34,12,,81.88,0,0,,,,,,,,1,,,,10,,METAR KSBA 310840Z AUTO 00000KT 10SM CLR 12/09 A3002,,,,,,,,,8.97,,N,101623.42,101660.53
KSBA,03/31/2019 08:45 UTC,101659.34,12,,81.88,0,0,,,,,,,,1,,,,10,,METAR KSBA 310845Z AUTO 00000KT 10SM CLR 12/09 A3002,,,,,,,,,8.97,,N,101623.42,101660.53
KSBA,03/31/2019 08:50 UTC,101625.47,12,,76.52,0,0,,,,,,,,1,,,,10,,METAR KSBA 310850Z AUTO 00000KT 10SM CLR 12/08 A3001,,,,,,,,,7.96,,N,101589.56,101626.66
KSBA,03/31/2019 08:53 UTC,101625.47,11.7,8.3,79.65,1.54,40,,101630,,,8006,,,1,,,,10,,KSBA 310853Z AUTO 04003KT 10SM CLR 12/08 A3001 RMK AO2 SLP163  T01170083 58006,,,,,,,,,8.26,,NE,101589.56,101626.7
KSBA,03/31/2019 08:55 UTC,101625.47,12,,76.52,1.54,40,,,,,,,,1,,,,10,,METAR KSBA 310855Z AUTO 04003KT 10SM CLR 12/08 A3001,,,,,,,,,7.96,,NE,101589.56,101626.66
KSBA,03/31/2019 09:00 UTC,101625.47,12,,76.52,1.54,20,,,,,,,,1,,,,10,,METAR KSBA 310900Z AUTO 02003KT 10SM CLR 12/08 A3001,,,,,,,,,7.96,,NNE,101589.56,101626.66
KSBA,03/31/2019 09:05 UTC,101625.47,12,,76.52,2.06,20,,,,,,,,1,,,,10,,METAR KSBA 310905Z AUTO 02004KT 10SM CLR 12/08 A3001,,,,,,,,,7.96,,NNE,101589.56,101626.66
KSBA,03/31/2019 09:10 UTC,101625.47,12,,76.52,1.54,20,,,,,,,,1,,,,10,,METAR KSBA 310910Z AUTO 02003KT 10SM CLR 12/08 A3001,,,,,,,,,7.96,,NNE,101589.56,101626.66
KSBA,03/31/2019 09:15 UTC,101625.47,12,,76.52,0,0,,,,,,,,1,,,,10,,METAR KSBA 310915Z AUTO 00000KT 10SM CLR 12/08 A3001,,,,,,,,,7.96,,N,101589.56,101626.66
KSBA,03/31/2019 09:20 UTC,101625.47,11,,81.75,0,0,,,,,,,,1,,,,10,,METAR KSBA 310920Z AUTO 00000KT 10SM CLR 11/08 A3001,,,,,,,,,7.97,,N,101589.56,101626.79
KSBA,03/31/2019 09:25 UTC,101625.47,11,,81.75,0,0,,,,,,,,1,,,,10,,METAR KSBA 310925Z AUTO 00000KT 10SM CLR 11/08 A3001,,,,,,,,,7.97,,N,101589.56,101626.79
KSBA,03/31/2019 09:30 UTC,101625.47,12,,76.52,0,0,,,,,,,,1,,,,10,,METAR KSBA 310930Z AUTO 00000KT 10SM CLR 12/08 A3001,,,,,,,,,7.96,,N,101589.56,101626.66
KSBA,03/31/2019 09:35 UTC,101625.47,11,,81.75,0,0,,,,,,,,1,,,,10,,METAR KSBA 310935Z AUTO 00000KT 10SM CLR 11/08 A3001,,,,,,,,,7.97,,N,101589.56,101626.79
KSBA,03/31/2019 09:40 UTC,101625.47,11,,81.75,0,0,,,,,,,,1,,,,10,,METAR KSBA 310940Z AUTO 00000KT 10SM CLR 11/08 A3001,,,,,,,,,7.97,,N,101589.56,101626.79
KSBA,03/31/2019 09:45 UTC,101625.47,11,,81.75,0,0,,,,,,,,1,,,,10,,METAR KSBA 310945Z AUTO 00000KT 10SM CLR 11/08 A3001,,,,,,,,,7.97,,N,101589.56,101626.79
KSBA,03/31/2019 09:50 UTC,101625.47,11,,81.75,0,0,,,,,,,,1,,,,10,,METAR KSBA 310950Z AUTO 00000KT 10SM CLR 11/08 A3001,,,,,,,,,7.97,,N,101589.56,101626.79
KSBA,03/31/2019 09:53 UTC,101625.47,11.1,8.3,82.88,0,0,,101610,,,,,,1,,,,10,,METAR KSBA 310953Z AUTO 00000KT 10SM CLR 11/08 A3001 RMK AO2 SLP161  T01110083,,,,,,,,,8.27,,N,101589.56,101626.78
KSBA,03/31/2019 09:55 UTC,101625.47,11,,81.75,0,0,,,,,,,,1,,,,10,,METAR KSBA 310955Z AUTO 00000KT 10SM CLR 11/08 A3001,,,,,,,,,7.97,,N,101589.56,101626.79
KSBA,03/31/2019 10:00 UTC,101625.47,11,,81.75,0,0,,,,,,,,1,,,,10,,METAR KSBA 311000Z AUTO 00000KT 10SM CLR 11/08 A3001,,,,,,,,,7.97,,N,101589.56,101626.79
KSBA,03/31/2019 10:05 UTC,101591.61,10,,87.38,0,0,,,,,,,,1,,,,10,,METAR KSBA 311005Z AUTO 00000KT 10SM CLR 10/08 A3000,,,,,,,,,7.98,,N,101555.71,101593.06
KSBA,03/31/2019 10:10 UTC,101591.61,11,,81.75,1.54,40,,,,,,,,1,,,,10,,METAR KSBA 311010Z AUTO 04003KT 10SM CLR 11/08 A3000,,,,,,,,,7.97,,NE,101555.71,101592.93
KSBA,03/31/2019 10:15 UTC,101591.61,11,,81.75,0,0,,,,,,,,1,,,,10,,METAR KSBA 311015Z AUTO 00000KT 10SM CLR 11/08 A3000,,,,,,,,,7.97,,N,101555.71,101592.93
KSBA,03/31/2019 10:20 UTC,101591.61,9,,87.28,0,0,,,,,,,,1,,,,10,,METAR KSBA 311020Z AUTO 00000KT 10SM CLR 09/07 A3000,,,,,,,,,6.97,,N,101555.71,101593.19
KSBA,03/31/2019 10:25 UTC,101591.61,9,,87.28,1.54,10,,,,,,,,1,,,,10,,METAR KSBA 311025Z AUTO 01003KT 10SM CLR 09/07 A3000,,,,,,,,,6.97,,N,101555.71,101593.19
KSBA,03/31/2019 10:30 UTC,101591.61,9,,87.28,0,0,,,,,,,,1,,,,10,,METAR KSBA 311030Z AUTO 00000KT 10SM CLR 09/07 A3000,,,,,,,,,6.97,,N,101555.71,101593.19
KSBA,03/31/2019 10:35 UTC,101591.61,10,,81.61,0,0,,,,,,,,1,,,,10,,METAR KSBA 311035Z AUTO 00000KT 10SM CLR 10/07 A3000,,,,,,,,,6.97,,N,101555.71,101593.06
KSBA,03/31/2019 10:40 UTC,101557.75,10,,81.61,0,0,,,,,,,,1,,,,10,,METAR KSBA 311040Z AUTO 00000KT 10SM CLR 10/07 A2999,,,,,,,,,6.97,,N,101521.86,101559.2
KSBA,03/31/2019 10:45 UTC,101557.75,11,,76.35,0,0,,,,,,,,1,,,,10,,METAR KSBA 311045Z AUTO 00000KT 10SM CLR 11/07 A2999,,,,,,,,,6.96,,N,101521.86,101559.07
KSBA,03/31/2019 10:50 UTC,101557.75,11,,76.35,0,0,,,,,,,,1,,,,10,,METAR KSBA 311050Z AUTO 00000KT 10SM CLR 11/07 A2999,,,,,,,,,6.96,,N,101521.86,101559.07
KSBA,03/31/2019 10:53 UTC,101557.75,10,7.2,82.74,0,0,,101560,,,,,,1,,,,10,,METAR KSBA 311053Z AUTO 00000KT 10SM CLR 10/07 A2999 RMK AO2 SLP156  T01000072,,,,,,,,,7.17,,N,101521.86,101559.2
KSBA,03/31/2019 10:55 UTC,101557.75,9,,87.28,0,0,,,,,,,,1,,,,10,,METAR KSBA 311055Z AUTO 00000KT 10SM CLR 09/07 A2999,,,,,,,,,6.97,,N,101521.86,101559.33
KSBA,03/31/2019 11:00 UTC,101591.61,10,,81.61,0,0,,,,,,,,1,,,,10,,METAR KSBA 311100Z AUTO 00000KT 10SM CLR 10/07 A3000,,,,,,,,,6.97,,N,101555.71,101593.06
KSBA,03/31/2019 11:05 UTC,101591.61,10,,81.61,0,0,,,,,,,,1,,,,10,,METAR KSBA 311105Z AUTO 00000KT 10SM CLR 10/07 A3000,,,,,,,,,6.97,,N,101555.71,101593.06
KSBA,03/31/2019 11:10 UTC,101591.61,10,,81.61,0,0,,,,,,,,1,,,,10,,METAR KSBA 311110Z AUTO 00000KT 10SM CLR 10/07 A3000,,,,,,,,,6.97,,N,101555.71,101593.06
KSBA,03/31/2019 11:15 UTC,101591.61,9,,87.28,0,0,,,,,,,,1,,,,10,,METAR KSBA 311115Z AUTO 00000KT 10SM CLR 09/07 A3000,,,,,,,,,6.97,,N,101555.71,101593.19
KSBA,03/31/2019 11:20 UTC,101591.61,9,,87.28,0,0,,,,,,,,1,,,,10,,METAR KSBA 311120Z AUTO 00000KT 10SM CLR 09/07 A3000,,,,,,,,,6.97,,N,101555.71,101593.19
KSBA,03/31/2019 11:25 UTC,101591.61,10,,81.61,0,0,,,,,,,,1,,,,10,,METAR KSBA 311125Z AUTO 00000KT 10SM CLR 10/07 A3000,,,,,,,,,6.97,,N,101555.71,101593.06
KSBA,03/31/2019 11:30 UTC,101591.61,11,,76.35,0,0,,,,,,,,1,,,,10,,METAR KSBA 311130Z AUTO 00000KT 10SM CLR 11/07 A3000,,,,,,,,,6.96,,N,101555.71,101592.93
KSBA,03/31/2019 11:35 UTC,101591.61,11,,76.35,1.54,50,,,,,,,,1,,,,10,,METAR KSBA 311135Z AUTO 05003KT 10SM CLR 11/07 A3000,,,,,,,,,6.96,,NE,101555.71,101592.93
KSBA,03/31/2019 11:40 UTC,101591.61,10,,81.61,0,0,,,,,,,,1,,,,10,,METAR KSBA 311140Z AUTO 00000KT 10SM CLR 10/07 A3000,,,,,,,,,6.97,,N,101555.71,101593.06
KSBA,03/31/2019 11:45 UTC,101591.61,9,,87.28,0,0,,,,,,,,1,,,,10,,METAR KSBA 311145Z AUTO 00000KT 10SM CLR 09/07 A3000,,,,,,,,,6.97,,N,101555.71,101593.19
KSBA,03/31/2019 11:50 UTC,101591.61,9,,87.28,0,0,,,,,,,,1,,,,10,,METAR KSBA 311150Z AUTO 00000KT 10SM CLR 09/07 A3000,,,,,,,,,6.97,,N,101555.71,101593.19
KSBA,03/31/2019 11:53 UTC,101591.61,10,6.7,79.95,0,0,,101600,,,5003,,,1,,,,10,,METAR KSBA 311153Z AUTO 00000KT 10SM CLR 10/07 A3000 RMK AO2 SLP160  T01000067 10144 20089 55003,14.4,8.9,,,,,,,6.66,,N,101555.71,101593.06
KSBA,03/31/2019 11:55 UTC,101591.61,10,,81.61,0,0,,,,,,,,1,,,,10,,METAR KSBA 311155Z AUTO 00000KT 10SM CLR 10/07 A3000,,,,,,,,,6.97,,N,101555.71,101593.06
KSBA,03/31/2019 12:00 UTC,101591.61,9,,87.28,0,0,,,,,,,,1,,,,10,,METAR KSBA 311200Z AUTO 00000KT 10SM CLR 09/07 A3000,,,,,,,,,6.97,,N,101555.71,101593.19
KSBA,03/31/2019 12:05 UTC,101591.61,9,,81.48,0,0,,,,,,,,1,,,,10,,METAR KSBA 311205Z AUTO 00000KT 10SM CLR 09/06 A3000,,,,,,,,,5.96,,N,101555.71,101593.19
KSBA,03/31/2019 12:10 UTC,101625.47,9,,81.48,0,0,,,,,,,,1,,,,10,,METAR KSBA 311210Z AUTO 00000KT 10SM CLR 09/06 A3001,,,,,,,,,5.96,,N,101589.56,101627.05
KSBA,03/31/2019 12:15 UTC,101591.61,10,,81.61,1.54,20,,,,,,,,1,,,,10,,METAR KSBA 311215Z AUTO 02003KT 10SM CLR 10/07 A3000,,,,,,,,,6.97,,NNE,101555.71,101593.06
KSBA,03/31/2019 12:20 UTC,101591.61,10,,81.61,0,0,,,,,,,,1,,,,10,,METAR KSBA 311220Z AUTO 00000KT 10SM CLR 10/07 A3000,,,,,,,,,6.97,,N,101555.71,101593.06
KSBA,03/31/2019 12:25 UTC,101591.61,9,,81.48,0,0,,,,,,,,1,,,,10,,METAR KSBA 311225Z AUTO 00000KT 10SM CLR 09/06 A3000,,,,,,,,,5.96,,N,101555.71,101593.19
KSBA,03/31/2019 12:30 UTC,101591.61,9,,87.28,0,0,,,,,,,,1,,,,10,,METAR KSBA 311230Z AUTO 00000KT 10SM CLR 09/07 A3000,,,,,,,,,6.97,,N,101555.71,101593.19
KSBA,03/31/2019 12:35 UTC,101591.61,10,,81.61,0,0,,,,,,,,1,,,,10,,METAR KSBA 311235Z AUTO 00000KT 10SM CLR 10/07 A3000,,,,,,,,,6.97,,N,101555.71,101593.06
KSBA,03/31/2019 12:40 UTC,101591.61,10,,81.61,0,0,,,,,,,,1,,,,10,,METAR KSBA 311240Z AUTO 00000KT 10SM CLR 10/07 A3000,,,,,,,,,6.97,,N,101555.71,101593.06
KSBA,03/31/2019 12:45 UTC,101591.61,9,,81.48,1.54,60,,,,,,,,1,,,,10,,METAR KSBA 311245Z AUTO 06003KT 10SM CLR 09/06 A3000,,,,,,,,,5.96,,ENE,101555.71,101593.19
KSBA,03/31/2019 12:50 UTC,101625.47,9,,81.48,0,0,,,,,,,,1,,,,10,,METAR KSBA 311250Z AUTO 00000KT 10SM CLR 09/06 A3001,,,,,,,,,5.96,,N,101589.56,101627.05
KSBA,03/31/2019 12:53 UTC,101625.47,9.4,6.7,83.23,1.54,70,,101610,,,,,,1,,,,10,,METAR KSBA 311253Z AUTO 07003KT 10SM CLR 09/07 A3001 RMK AO2 SLP161  T00940067,,,,,,,,,6.67,,ENE,101589.56,101627
KSBA,03/31/2019 12:55 UTC,101625.47,9,,87.28,1.54,60,,,,,,,,1,,,,10,,METAR KSBA 311255Z AUTO 06003KT 10SM CLR 09/07 A3001,,,,,,,,,6.97,,ENE,101589.56,101627.05
KSBA,03/31/2019 13:00 UTC,101625.47,9,,81.48,0,0,,,,,,,,1,,,,10,,METAR KSBA 311300Z AUTO 00000KT 10SM CLR 09/06 A3001,,,,,,,,,5.96,,N,101589.56,101627.05
KSBA,03/31/2019 13:05 UTC,101625.47,9,,81.48,0,0,,,,,,,,1,,,,10,,METAR KSBA 311305Z AUTO 00000KT 10SM CLR 09/06 A3001,,,,,,,,,5.96,,N,101589.56,101627.05
KSBA,03/31/2019 13:10 UTC,101625.47,9,,81.48,0,0,,,,,,,,1,,,,10,,METAR KSBA 311310Z AUTO 00000KT 10SM CLR 09/06 A3001,,,,,,,,,5.96,,N,101589.56,101627.05
KSBA,03/31/2019 13:15 UTC,101625.47,9,,81.48,0,0,,,,,,,,1,,,,10,,METAR KSBA 311315Z AUTO 00000KT 10SM CLR 09/06 A3001,,,,,,,,,5.96,,N,101589.56,101627.05
KSBA,03/31/2019 13:20 UTC,101625.47,10,,81.61,0,0,,,,,,,,1,,,,10,,METAR KSBA 311320Z AUTO 00000KT 10SM CLR 10/07 A3001,,,,,,,,,6.97,,N,101589.56,101626.92
KSBA,03/31/2019 13:25 UTC,101625.47,10,,81.61,0,0,,,,,,,,1,,,,10,,METAR KSBA 311325Z AUTO 00000KT 10SM CLR 10/07 A3001,,,,,,,,,6.97,,N,101589.56,101626.92
KSBA,03/31/2019 13:30 UTC,101625.47,10,,76.18,0,0,,,,,,,,1,,,,10,,METAR KSBA 311330Z AUTO 00000KT 10SM CLR 10/06 A3001,,,,,,,,,5.95,,N,101589.56,101626.92
KSBA,03/31/2019 13:35 UTC,101625.47,10,,76.18,0,0,,,,,,,,1,,,,10,,METAR KSBA 311335Z AUTO 00000KT 10SM CLR 10/06 A3001,,,,,,,,,5.95,,N,101589.56,101626.92
KSBA,03/31/2019 13:40 UTC,101625.47,9,,81.48,0,0,,,,,,,,1,,,,10,,METAR KSBA 311340Z AUTO 00000KT 10SM CLR 09/06 A3001,,,,,,,,,5.96,,N,101589.56,101627.05
KSBA,03/31/2019 13:45 UTC,101659.34,9,,81.48,0,0,,,,,,,,1,,,,10,,METAR KSBA 311345Z AUTO 00000KT 10SM CLR 09/06 A3002,,,,,,,,,5.96,,N,101623.42,101660.93
KSBA,03/31/2019 13:50 UTC,101659.34,10,,76.18,0,0,,,,,,,,1,,,,10,,METAR KSBA 311350Z AUTO 00000KT 10SM CLR 10/06 A3002,,,,,,,,,5.95,,N,101623.42,101660.79
KSBA,03/31/2019 13:53 UTC,101659.34,10,6.1,76.71,0,0,,101650,,,,,,1,,,,10,,METAR KSBA 311353Z 00000KT 10SM CLR 10/06 A3002 RMK AO2 SLP165 T01000061,,,,,,,,,6.06,,N,101623.42,101660.79
KSBA,03/31/2019 13:55 UTC,101659.34,10,,76.18,0,0,,,,,,,,1,,,,10,,METAR KSBA 311355Z AUTO 00000KT 10SM CLR 10/06 A3002,,,,,,,,,5.95,,N,101623.42,101660.79
KSBA,03/31/2019 14:00 UTC,101659.34,9,,81.48,0,0,,,,,,,,1,,,,10,,METAR KSBA 311400Z AUTO 00000KT 10SM CLR 09/06 A3002,,,,,,,,,5.96,,N,101623.42,101660.93
KSBA,03/31/2019 14:05 UTC,101693.2,9,,81.48,0,0,,,,,,,,1,,,,10,,METAR KSBA 311405Z AUTO 00000KT 10SM CLR 09/06 A3003,,,,,,,,,5.96,,N,101657.26,101694.78
KSBA,03/31/2019 14:10 UTC,101693.2,9,,81.48,0,0,,,,,,,,1,,,,10,,METAR KSBA 311410Z AUTO 00000KT 10SM CLR 09/06 A3003,,,,,,,,,5.96,,N,101657.26,101694.78
KSBA,03/31/2019 14:15 UTC,101693.2,9,,87.28,0,0,,,,,,,,1,,,,10,,METAR KSBA 311415Z AUTO 00000KT 10SM CLR 09/07 A3003,,,,,,,,,6.97,,N,101657.26,101694.78
KSBA,03/31/2019 14:20 UTC,101693.2,9,,87.28,0,0,,,,,,,,1,,,,10,,METAR KSBA 311420Z AUTO 00000KT 10SM CLR 09/07 A3003,,,,,,,,,6.97,,N,101657.26,101694.78
KSBA,03/31/2019 14:25 UTC,101693.2,9,,81.48,0,0,,,,,,,,1,,,,10,,METAR KSBA 311425Z AUTO 00000KT 10SM CLR 09/06 A3003,,,,,,,,,5.96,,N,101657.26,101694.78
KSBA,03/31/2019 14:30 UTC,101727.07,9,,81.48,0,0,,,,,,,,1,,,,10,,METAR KSBA 311430Z AUTO 00000KT 10SM CLR 09/06 A3004,,,,,,,,,5.96,,N,101691.12,101728.65
KSBA,03/31/2019 14:35 UTC,101727.07,9,,87.28,0,0,,,,,,,,1,,,,10,,METAR KSBA 311435Z AUTO 00000KT 10SM CLR 09/07 A3004,,,,,,,,,6.97,,N,101691.12,101728.65
KSBA,03/31/2019 14:40 UTC,101727.07,10,,81.61,0,0,,,,,,,,1,,,,10,,METAR KSBA 311440Z AUTO 00000KT 10SM CLR 10/07 A3004,,,,,,,,,6.97,,N,101691.12,101728.52
KSBA,03/31/2019 14:45 UTC,101727.07,11,,76.35,0,0,,,,,,,,1,,,,10,,METAR KSBA 311445Z AUTO 00000KT 10SM CLR 11/07 A3004,,,,,,,,,6.96,,N,101691.12,101728.39
KSBA,03/31/2019 14:50 UTC,101727.07,11,,76.35,0,0,,,,,,,,1,,,,10,,METAR KSBA 311450Z AUTO 00000KT 10SM CLR 11/07 A3004,,,,,,,,,6.96,,N,101691.12,101728.39
KSBA,03/31/2019 14:53 UTC,101727.07,11.7,7.8,76.99,1.54,50,,101720,,,3013,,,1,,,,10,,METAR KSBA 311453Z 05003KT 10SM CLR 12/08 A3004 RMK AO2 SLP172 T01170078  53013,,,,,,,,,7.76,,NE,101691.12,101728.3
KSBA,03/31/2019 14:55 UTC,101727.07,12,,76.52,0,0,,,,,,,,1,,,,10,,METAR KSBA 311455Z AUTO 00000KT 10SM CLR 12/08 A3004,,,,,,,,,7.96,,N,101691.12,101728.26
KSBA,03/31/2019 15:00 UTC,101727.07,12,,76.52,1.54,60,,,,,,,,1,,,,10,,METAR KSBA 311500Z AUTO 06003KT 10SM CLR 12/08 A3004,,,,,,,,,7.96,,ENE,101691.12,101728.26
KSBA,03/31/2019 15:05 UTC,101727.07,13,,71.66,0,0,,,,,,,,1,,,,10,,METAR KSBA 311505Z AUTO 00000KT 10SM CLR 13/08 A3004,,,,,,,,,7.95,,N,101691.12,101728.13
KSBA,03/31/2019 15:10 UTC,101727.07,13,,71.66,0,0,,,,,,,,1,,,,10,,METAR KSBA 311510Z AUTO 00000KT 10SM CLR 13/08 A3004,,,,,,,,,7.95,,N,101691.12,101728.13
KSBA,03/31/2019 15:15 UTC,101727.07,13,,71.66,0,0,,,,,,,,1,,,,10,,METAR KSBA 311515Z AUTO 00000KT 10SM CLR 13/08 A3004,,,,,,,,,7.95,,N,101691.12,101728.13
KSBA,03/31/2019 15:20 UTC,101727.07,13,,71.66,0,0,,,,,,,,1,,,,10,,METAR KSBA 311520Z AUTO 00000KT 10SM CLR 13/08 A3004,,,,,,,,,7.95,,N,101691.12,101728.13
KSBA,03/31/2019 15:25 UTC,101727.07,14,,67.15,0,0,,,,,,,,1,,,,10,,METAR KSBA 311525Z AUTO 00000KT 10SM CLR 14/08 A3004,,,,,,,,,7.95,,N,101691.12,101728
KSBA,03/31/2019 15:30 UTC,101727.07,14,,71.85,1.54,100,,,,,,,,1,,,,10,,METAR KSBA 311530Z AUTO 10003KT 10SM CLR 14/09 A3004,,,,,,,,,8.96,,E,101691.12,101728
KSBA,03/31/2019 15:35 UTC,101727.07,14,,76.85,0,0,,,,,,,,1,,,,10,,METAR KSBA 311535Z AUTO 00000KT 10SM CLR 14/10 A3004,,,,,,,,,9.97,,N,101691.12,101728
KSBA,03/31/2019 15:40 UTC,101727.07,15,,77.01,1.54,130,,,,,,,,1,,,,10,,METAR KSBA 311540Z AUTO 13003KT 10SM CLR 15/11 A3004,,,,,,,,,10.97,,SE,101691.12,101727.87
KSBA,03/31/2019 15:45 UTC,101727.07,15,,77.01,1.54,130,,,,,,,,1,,,,10,,METAR KSBA 311545Z AUTO 13003KT 10SM CLR 15/11 A3004,,,,,,,,,10.97,,SE,101691.12,101727.87
KSBA,03/31/2019 15:50 UTC,101727.07,16,,72.23,3.09,130,,,,,,,,1,,,,10,,METAR KSBA 311550Z AUTO 13006KT 10SM CLR 16/11 A3004,,,,,,,,,10.96,,SE,101691.12,101727.74
KSBA,03/31/2019 15:53 UTC,101727.07,15.6,11.1,74.59,3.09,140,,101720,,,,,,1,,,,10,,METAR KSBA 311553Z 14006KT 10SM CLR 16/11 A3004 RMK AO2 SLP172 T01560111,,,,,,,,,11.06,,SE,101691.12,101727.79
KSBA,03/31/2019 15:55 UTC,101727.07,16,,72.23,3.09,140,,,,,,,,1,,,,10,,METAR KSBA 311555Z AUTO 14006KT 10SM CLR 16/11 A3004,,,,,,,,,10.96,,SE,101691.12,101727.74
KSBA,03/31/2019 16:00 UTC,101727.07,16,,77.17,3.09,140,,,,,,,,1,,,,10,,METAR KSBA 311600Z AUTO 14006KT 10SM CLR 16/12 A3004,,,,,,,,,11.97,,SE,101691.12,101727.74
KSBA,03/31/2019 16:05 UTC,101727.07,16,,77.17,3.09,130,,,,,,,,36,,,,10,,METAR KSBA 311605Z AUTO 13006KT 10SM FEW003 16/12 A3004,,,,,,,,,11.97,,SE,101691.12,101727.74
KSBA,03/31/2019 16:10 UTC,101727.07,16,,77.17,3.09,140,,,,,,,,1,,,,10,,METAR KSBA 311610Z AUTO 14006KT 10SM CLR 16/12 A3004,,,,,,,,,11.97,,SE,101691.12,101727.74
KSBA,03/31/2019 16:15 UTC,101727.07,16,,77.17,3.09,150,,,,,,,,1,,,,10,,METAR KSBA 311615Z AUTO 15006KT 10SM CLR 16/12 A3004,,,,,,,,,11.97,,SSE,101691.12,101727.74
KSBA,03/31/2019 16:20 UTC,101727.07,16,,77.17,3.09,130,,,,,,,,1,,,,10,,METAR KSBA 311620Z AUTO 13006KT 10SM CLR 16/12 A3004,,,,,,,,,11.97,,SE,101691.12,101727.74
KSBA,03/31/2019 16:25 UTC,101727.07,16,,77.17,2.57,130,,,,,,,,1,,,,10,,METAR KSBA 311625Z AUTO 13005KT 10SM CLR 16/12 A3004,,,,,,,,,11.97,,SE,101691.12,101727.74
KSBA,03/31/2019 16:30 UTC,101727.07,16,,77.17,3.6,150,,,,,,,,1,,,,10,,METAR KSBA 311630Z AUTO 15007KT 10SM CLR 16/12 A3004,,,,,,,,,11.97,,SSE,101691.12,101727.74
KSBA,03/31/2019 16:35 UTC,101760.93,16,,77.17,3.09,130,,,,,,,,1,,,,10,,METAR KSBA 311635Z AUTO 13006KT 10SM CLR 16/12 A3005,,,,,,,,,11.97,,SE,101724.97,101761.6
KSBA,03/31/2019 16:40 UTC,101760.93,16,,72.23,3.09,140,,,,,,,,1,,,,10,,METAR KSBA 311640Z AUTO 14006KT 10SM CLR 16/11 A3005,,,,,,,,,10.96,,SE,101724.97,101761.6
KSBA,03/31/2019 16:45 UTC,101760.93,17,,67.79,3.6,140,,,,,,,,1,,,,10,,METAR KSBA 311645Z AUTO 14007KT 10SM CLR 17/11 A3005,,,,,,,,,10.96,,SE,101724.97,101761.48
KSBA,03/31/2019 16:50 UTC,101760.93,17,,63.42,3.09,130,,,,,,,,1,,,,10,,METAR KSBA 311650Z AUTO 13006KT 10SM CLR 17/10 A3005,,,,,,,,,9.96,,SE,101724.97,101761.48
KSBA,03/31/2019 16:53 UTC,101760.93,17.2,10,62.62,3.09,140,,101750,,,,,,1,,,,10,,METAR KSBA 311653Z 14006KT 10SM CLR 17/10 A3005 RMK AO2 SLP175 T01720100,,,,,,,,,9.96,,SE,101724.97,101761.45
KSBA,03/31/2019 16:55 UTC,101760.93,17,,63.42,3.6,140,,,,,,,,1,,,,10,,METAR KSBA 311655Z AUTO 14007KT 10SM CLR 17/10 A3005,,,,,,,,,9.96,,SE,101724.97,101761.48
KSBA,03/31/2019 17:00 UTC,101760.93,17,,67.79,2.57,140,,,,,,,,1,,,,10,,METAR KSBA 311700Z AUTO 14005KT 10SM CLR 17/11 A3005,,,,,,,,,10.96,,SE,101724.97,101761.48
KSBA,03/31/2019 17:05 UTC,101760.93,17,,67.79,2.57,140,,,,,,,,1,,,,10,,METAR KSBA 311705Z AUTO 14005KT 10SM CLR 17/11 A3005,,,,,,,,,10.96,,SE,101724.97,101761.48
KSBA,03/31/2019 17:10 UTC,101760.93,17,,67.79,2.57,140,,,,,,,,1,,,,10,,METAR KSBA 311710Z AUTO 14005KT 10SM CLR 17/11 A3005,,,,,,,,,10.96,,SE,101724.97,101761.48
KSBA,03/31/2019 17:15 UTC,101760.93,17,,67.79,2.06,130,,,,,,,,1,,,,10,,METAR KSBA 311715Z AUTO 13004KT 10SM CLR 17/11 A3005,,,,,,,,,10.96,,SE,101724.97,101761.48
KSBA,03/31/2019 17:20 UTC,101794.79,18,,63.64,2.06,140,,,,,,,,1,,,,10,,METAR KSBA 311720Z AUTO 14004KT 10SM CLR 18/11 A3006,,,,,,,,,10.96,,SE,101758.82,101795.22
KSBA,03/31/2019 17:25 UTC,101794.79,18,,63.64,2.06,150,,,,,,,,1,,,,10,,METAR KSBA 311725Z AUTO 15004KT 10SM CLR 18/11 A3006,,,,,,,,,10.96,,SSE,101758.82,101795.22
KSBA,03/31/2019 17:30 UTC,101760.93,18,,63.64,2.06,130,,,,,,,,1,,,,10,,METAR KSBA 311730Z AUTO 13004KT 10SM CLR 18/11 A3005,,,,,,,,,10.96,,SE,101724.97,101761.35
KSBA,03/31/2019 17:35 UTC,101794.79,18,,63.64,3.09,140,,,,,,,,1,,,,10,,METAR KSBA 311735Z AUTO 14006KT 10SM CLR 18/11 A3006,,,,,,,,,10.96,,SE,101758.82,101795.22
KSBA,03/31/2019 17:40 UTC,101794.79,18,,63.64,2.57,140,,,,,,,,1,,,,10,,METAR KSBA 311740Z AUTO 14005KT 10SM CLR 18/11 A3006,,,,,,,,,10.96,,SE,101758.82,101795.22
KSBA,03/31/2019 17:45 UTC,101794.79,18,,59.54,3.09,140,,,,,,,,1,,,,10,,METAR KSBA 311745Z AUTO 14006KT 10SM CLR 18/10 A3006,,,,,,,,,9.95,,SE,101758.82,101795.22
KSBA,03/31/2019 17:50 UTC,101794.79,18,,55.67,3.09,140,,,,,,,,1,,,,10,,METAR KSBA 311750Z AUTO 14006KT 10SM CLR 18/09 A3006,,,,,,,,,8.95,,SE,101758.82,101795.22
KSBA,03/31/2019 17:53 UTC,101794.79,18.3,9.4,56.13,3.6,140,,101790,,,3006,,,1,,,,10,,METAR KSBA 311753Z 14007KT 10SM CLR 18/09 A3006 RMK AO2 SLP179 T01830094  10183 20089 53006,18.3,8.9,,,,,,,9.35,,SE,101758.82,101795.18
KSBA,03/31/2019 17:55 UTC,101794.79,19,,52.3,3.09,140,,,,,,,,1,,,,10,,METAR KSBA 311755Z AUTO 14006KT 10SM CLR 19/09 A3006,,,,,,,,,8.95,,SE,101758.82,101795.09
KSBA,03/31/2019 18:00 UTC,101794.79,19,,52.3,3.09,140,,,,,,,,1,,,,10,,METAR KSBA 311800Z AUTO 14006KT 10SM CLR 19/09 A3006,,,,,,,,,8.95,,SE,101758.82,101795.09
KSBA,03/31/2019 18:05 UTC,101794.79,19,,55.93,2.57,140,,,,,,,,1,,,,10,,METAR KSBA 311805Z AUTO 14005KT 10SM CLR 19/10 A3006,,,,,,,,,9.96,,SE,101758.82,101795.09
KSBA,03/31/2019 18:10 UTC,101794.79,19,,59.79,3.09,160,,,,,,,,1,,,,10,,METAR KSBA 311810Z AUTO 16006KT 10SM CLR 19/11 A3006,,,,,,,,,10.96,,SSE,101758.82,101795.09
KSBA,03/31/2019 18:15 UTC,101794.79,19,,55.93,3.6,150,,,,,,,,1,,,,10,,METAR KSBA 311815Z AUTO 15007KT 10SM CLR 19/10 A3006,,,,,,,,,9.96,,SSE,101758.82,101795.09
KSBA,03/31/2019 18:20 UTC,101794.79,19,,55.93,4.12,150,,,,,,,,1,,,,10,,METAR KSBA 311820Z AUTO 15008KT 10SM CLR 19/10 A3006,,,,,,,,,9.96,,SSE,101758.82,101795.09
KSBA,03/31/2019 18:25 UTC,101794.79,19,,55.93,3.6,170,,,,,,,,1,,,,10,,METAR KSBA 311825Z AUTO 17007KT 10SM CLR 19/10 A3006,,,,,,,,,9.96,,S,101758.82,101795.09
KSBA,03/31/2019 18:30 UTC,101794.79,19,,59.79,3.6,160,,,,,,,,1,,,,10,,METAR KSBA 311830Z AUTO 16007KT 10SM CLR 19/11 A3006,,,,,,,,,10.96,,SSE,101758.82,101795.09
KSBA,03/31/2019 18:35 UTC,101794.79,19,,63.87,3.6,150,,,,,,,,1,,,,10,,METAR KSBA 311835Z AUTO 15007KT 10SM CLR 19/12 A3006,,,,,,,,,11.96,,SSE,101758.82,101795.09
KSBA,03/31/2019 18:40 UTC,101794.79,18,,67.99,4.12,150,,,,,,,,1,,,,10,,METAR KSBA 311840Z AUTO 15008KT 10SM CLR 18/12 A3006,,,,,,,,,11.96,,SSE,101758.82,101795.22
KSBA,03/31/2019 18:45 UTC,101794.79,18,,67.99,4.12,150,,,,,,,,1,,,,10,,METAR KSBA 311845Z AUTO 15008KT 10SM CLR 18/12 A3006,,,,,,,,,11.96,,SSE,101758.82,101795.22
KSBA,03/31/2019 18:50 UTC,101794.79,18,,67.99,3.6,140,,,,,,,,1,,,,10,,METAR KSBA 311850Z AUTO 14007KT 10SM CLR 18/12 A3006,,,,,,,,,11.96,,SE,101758.82,101795.22
KSBA,03/31/2019 18:53 UTC,101794.79,18.9,12.2,65.12,3.6,150,,101770,,,,,,1,,,,10,,METAR KSBA 311853Z 15007KT 10SM CLR 19/12 A3006 RMK AO2 SLP177 T01890122,,,,,,,,,12.17,,SSE,101758.82,101795.1
KSBA,03/31/2019 18:55 UTC,101760.93,19,,63.87,3.6,140,,,,,,,,1,,,,10,,METAR KSBA 311855Z AUTO 14007KT 10SM CLR 19/12 A3005,,,,,,,,,11.96,,SE,101724.97,101761.23
KSBA,03/31/2019 19:00 UTC,101794.79,19,,63.87,4.12,150,,,,,,,,1,,,,10,,METAR KSBA 311900Z AUTO 15008KT 10SM CLR 19/12 A3006,,,,,,,,,11.96,,SSE,101758.82,101795.09
KSBA,03/31/2019 19:05 UTC,101794.79,18,,72.6,3.6,150,,,,,,,,1,,,,10,,METAR KSBA 311905Z AUTO 15007KT 10SM CLR 18/13 A3006,,,,,,,,,12.97,,SSE,101758.82,101795.21
KSBA,03/31/2019 19:10 UTC,101794.79,19,,68.2,3.6,160,,,,,,,,1,,,,10,,METAR KSBA 311910Z AUTO 16007KT 10SM CLR 19/13 A3006,,,,,,,,,12.97,,SSE,101758.82,101795.09
KSBA,03/31/2019 19:15 UTC,101760.93,19,,59.79,3.6,150,,,,,,,,1,,,,10,,METAR KSBA 311915Z AUTO 15007KT 10SM CLR 19/11 A3005,,,,,,,,,10.96,,SSE,101724.97,101761.23
KSBA,03/31/2019 19:20 UTC,101760.93,21,,46.22,2.57,150,,,,,,,,1,,,,10,,METAR KSBA 311920Z AUTO 15005KT 10SM CLR 21/09 A3005,,,,,,,,,8.96,,SSE,101724.97,101760.98
KSBA,03/31/2019 19:25 UTC,101760.93,21,,46.22,2.57,150,,,,,,,,1,,,,10,,METAR KSBA 311925Z AUTO 15005KT 10SM CLR 21/09 A3005,,,,,,,,,8.96,,SSE,101724.97,101760.98
KSBA,03/31/2019 19:30 UTC,101760.93,21,,40.34,3.09,150,,,,,,,,1,,,,10,,METAR KSBA 311930Z AUTO 15006KT 10SM CLR 21/07 A3005,,,,,,,,,6.96,,SSE,101724.97,101760.98
KSBA,03/31/2019 19:35 UTC,101760.93,22,,35.42,2.06,160,,,,,,,,1,,,,10,,METAR KSBA 311935Z AUTO 16004KT 10SM CLR 22/06 A3005,,,,,,,,,5.96,,SSE,101724.97,101760.86
KSBA,03/31/2019 19:40 UTC,101727.07,22,,37.95,2.06,240,,,,,,,,1,,,,10,,METAR KSBA 311940Z AUTO 24004KT 10SM CLR 22/07 A3004,,,,,,,,,6.97,,WSW,101691.12,101727
KSBA,03/31/2019 19:45 UTC,101727.07,22,,37.95,2.06,250,,,,,,,,1,,,,10,,METAR KSBA 311945Z AUTO 25004KT 10SM CLR 22/07 A3004,,,,,,,,,6.97,,WSW,101691.12,101727
KSBA,03/31/2019 19:50 UTC,101727.07,22,,37.95,2.06,250,,,,,,,,1,,,,10,,METAR KSBA 311950Z AUTO 25004KT 10SM CLR 22/07 A3004,,,,,,,,,6.97,,WSW,101691.12,101727
KSBA,03/31/2019 19:53 UTC,101727.07,22.8,7.2,36.65,2.06,240,,101710,,,,,,1,,,,10,,KSBA 311953Z 24004KT 10SM CLR 23/07 A3004 RMK AO2 SLP171  T02280072,,,,,,,,,7.17,,WSW,101691.12,101726.9
KSBA,03/31/2019 19:55 UTC,101727.07,23,,35.72,0,0,,,,,,,,1,,,,10,,METAR KSBA 311955Z AUTO 00000KT 10SM CLR 23/07 A3004,,,,,,,,,6.98,,N,101691.12,101726.88
KSBA,03/31/2019 20:00 UTC,101693.2,23,,35.72,2.06,250,,,,,,,,1,,,,10,,METAR KSBA 312000Z AUTO 25004KT 10SM CLR 23/07 A3003,,,,,,,,,6.98,,WSW,101657.26,101693.01
KSBA,03/31/2019 20:05 UTC,101693.2,24,,31.39,2.06,250,,,,,,,,1,,,,10,,METAR KSBA 312005Z AUTO 25004KT 10SM CLR 24/06 A3003,,,,,,,,,5.99,,WSW,101657.26,101692.89
KSBA,03/31/2019 20:10 UTC,101693.2,24,,33.63,2.06,260,,,,,,,,1,,,,10,,METAR KSBA 312010Z AUTO 26004KT 10SM CLR 24/07 A3003,,,,,,,,,6.99,,W,101657.26,101692.89
KSBA,03/31/2019 20:15 UTC,101693.2,24,,31.39,2.06,240,,,,,,,,1,,,,10,,METAR KSBA 312015Z AUTO 24004KT 10SM CLR 24/06 A3003,,,,,,,,,5.99,,WSW,101657.26,101692.89
KSBA,03/31/2019 20:20 UTC,101659.34,25,,29.57,2.06,260,,,,,,,,1,,,,10,,METAR KSBA 312020Z AUTO 26004KT 10SM CLR 25/06 A3002,,,,,,,,,6,,W,101623.42,101658.91
KSBA,03/31/2019 20:25 UTC,101659.34,25,,31.68,2.57,260,,,,,,,,1,,,,10,,METAR KSBA 312025Z AUTO 26005KT 10SM CLR 25/07 A3002,,,,,,,,,7,,W,101623.42,101658.91
KSBA,03/31/2019 20:30 UTC,101659.34,24,,33.63,2.06,270,,,,,,,,1,,,,10,,METAR KSBA 312030Z AUTO 27004KT 10SM CLR 24/07 A3002,,,,,,,,,6.99,,W,101623.42,101659.03
KSBA,03/31/2019 20:35 UTC,101659.34,24,,31.39,1.54,290,,,,,,,,1,,,,10,,METAR KSBA 312035Z AUTO 29003KT 10SM CLR 24/06 A3002,,,,,,,,,5.99,,WNW,101623.42,101659.03
KSBA,03/31/2019 20:40 UTC,101659.34,25,,25.73,2.06,250,,,,,,,,1,,,,10,,METAR KSBA 312040Z AUTO 25004KT 10SM CLR 25/04 A3002,,,,,,,,,4.01,,WSW,101623.42,101658.91
KSBA,03/31/2019 20:45 UTC,101625.47,26,,24.25,1.54,260,,,,,,,,1,,,,10,,METAR KSBA 312045Z AUTO 26003KT 10SM CLR 26/04 A3001,,,,,,,,,4.02,,W,101589.56,101624.92
KSBA,03/31/2019 20:50 UTC,101625.47,26,,22.59,2.06,250,,,,,,,,1,,,,10,,METAR KSBA 312050Z AUTO 25004KT 10SM CLR 26/03 A3001,,,,,,,,,3.02,,WSW,101589.56,101624.92
KSBA,03/31/2019 20:53 UTC,101625.47,25.6,2.2,21.86,1.54,,,101610,,,8017,,,1,,,,10,,METAR KSBA 312053Z VRB03KT 10SM CLR 26/02 A3001 RMK AO2 SLP161 T02560022  58017,,,,,,,,,2.23,,,101589.56,101624.97
KSBA,03/31/2019 20:55 UTC,101625.47,26,,21.04,0,0,,,,,,,,1,,,,10,,METAR KSBA 312055Z AUTO 00000KT 10SM CLR 26/02 A3001,,,,,,,,,2.03,,N,101589.56,101624.92
KSBA,03/31/2019 21:00 UTC,101591.61,26,,21.04,1.54,270,,,,,,,,1,,,,10,,METAR KSBA 312100Z AUTO 27003KT 10SM CLR 26/02 A3000,,,,,,,,,2.03,,W,101555.71,101591.06
KSBA,03/31/2019 21:05 UTC,101591.61,26,,21.04,1.54,220,,,,,,,,1,,,,10,,METAR KSBA 312105Z AUTO 22003KT 10SM CLR 26/02 A3000,,,,,,,,,2.03,,SW,101555.71,101591.06
KSBA,03/31/2019 21:10 UTC,101591.61,27,,21.3,1.54,280,,,,,,,,1,,,,10,,METAR KSBA 312110Z AUTO 28003KT 10SM CLR 27/03 A3000,,,,,,,,,3.04,,W,101555.71,101590.94
KSBA,03/31/2019 21:15 UTC,101591.61,26,,22.59,2.06,250,,,,,,,,1,,,,10,,METAR KSBA 312115Z AUTO 25004KT 10SM CLR 26/03 A3000,,,,,,,,,3.02,,WSW,101555.71,101591.06
KSBA,03/31/2019 21:20 UTC,101591.61,26,,22.59,2.57,250,,,,,,,,1,,,,10,,METAR KSBA 312120Z AUTO 25005KT 10SM CLR 26/03 A3000,,,,,,,,,3.02,,WSW,101555.71,101591.06
KSBA,03/31/2019 21:25 UTC,101591.61,26,,22.59,3.09,260,,,,,,,,1,,,,10,,METAR KSBA 312125Z AUTO 26006KT 10SM CLR 26/03 A3000,,,,,,,,,3.02,,W,101555.71,101591.06
KSBA,03/31/2019 21:30 UTC,101591.61,26,,22.59,3.09,260,,,,,,,,1,,,,10,,METAR KSBA 312130Z AUTO 26006KT 10SM CLR 26/03 A3000,,,,,,,,,3.02,,W,101555.71,101591.06
KSBA,03/31/2019 21:35 UTC,101591.61,26,,22.59,2.57,280,,,,,,,,1,,,,10,,METAR KSBA 312135Z AUTO 28005KT 10SM CLR 26/03 A3000,,,,,,,,,3.02,,W,101555.71,101591.06
KSBA,03/31/2019 21:40 UTC,101557.75,26,,21.04,2.57,260,,,,,,,,1,,,,10,,METAR KSBA 312140Z AUTO 26005KT 10SM CLR 26/02 A2999,,,,,,,,,2.03,,W,101521.86,101557.2
KSBA,03/31/2019 21:45 UTC,101557.75,26,,21.04,2.57,230,,,,,,,,1,,,,10,,METAR KSBA 312145Z AUTO 23005KT 10SM CLR 26/02 A2999,,,,,,,,,2.03,,SW,101521.86,101557.2
KSBA,03/31/2019 21:50 UTC,101557.75,27,,18.47,2.57,250,,,,,,,,1,,,,10,,METAR KSBA 312150Z AUTO 25005KT 10SM CLR 27/01 A2999,,,,,,,,,1.06,,WSW,101521.86,101557.08
KSBA,03/31/2019 21:53 UTC,101557.75,26.7,1.1,18.93,2.06,250,,101550,,,,,,1,,,,10,,METAR KSBA 312153Z 25004KT 10SM CLR 27/01 A2999 RMK AO2 SLP155 T02670011,,,,,,,,,1.15,,WSW,101521.86,101557.12
KSBA,03/31/2019 21:55 UTC,101557.75,26,,19.59,2.06,270,,,,,,,,1,,,,10,,METAR KSBA 312155Z AUTO 27004KT 10SM CLR 26/01 A2999,,,,,,,,,1.04,,W,101521.86,101557.2
KSBA,03/31/2019 22:00 UTC,101557.75,27,,19.84,2.57,260,,,,,,,,1,,,,10,,METAR KSBA 312200Z AUTO 26005KT 10SM CLR 27/02 A2999,,,,,,,,,2.05,,W,101521.86,101557.08
KSBA,03/31/2019 22:05 UTC,101557.75,27,,18.47,3.09,250,,,,,,,,1,,,,10,,METAR KSBA 312205Z AUTO 25006KT 10SM CLR 27/01 A2999,,,,,,,,,1.06,,WSW,101521.86,101557.08
KSBA,03/31/2019 22:10 UTC,101557.75,27,,19.84,2.57,240,,,,,,,,1,,,,10,,METAR KSBA 312210Z AUTO 24005KT 10SM CLR 27/02 A2999,,,,,,,,,2.05,,WSW,101521.86,101557.08
KSBA,03/31/2019 22:15 UTC,101557.75,27,,18.47,3.6,240,,,,,,,,1,,,,10,,METAR KSBA 312215Z AUTO 24007KT 10SM CLR 27/01 A2999,,,,,,,,,1.06,,WSW,101521.86,101557.08
KSBA,03/31/2019 22:20 UTC,101557.75,27,,18.47,3.6,250,,,,,,,,1,,,,10,,METAR KSBA 312220Z AUTO 25007KT 10SM CLR 27/01 A2999,,,,,,,,,1.06,,WSW,101521.86,101557.08
KSBA,03/31/2019 22:25 UTC,101557.75,26,,19.59,4.12,260,,,,,,,,1,,,,10,,METAR KSBA 312225Z AUTO 26008KT 10SM CLR 26/01 A2999,,,,,,,,,1.04,,W,101521.86,101557.2
KSBA,03/31/2019 22:30 UTC,101557.75,26,,21.04,5.14,250,,,,,,,,1,,,,10,,METAR KSBA 312230Z AUTO 25010KT 10SM CLR 26/02 A2999,,,,,,,,,2.03,,WSW,101521.86,101557.2
KSBA,03/31/2019 22:35 UTC,101523.88,26,,24.25,4.63,250,,,,,,,,1,,,,10,,METAR KSBA 312235Z AUTO 25009KT 10SM CLR 26/04 A2998,,,,,,,,,4.02,,WSW,101488,101523.33
KSBA,03/31/2019 22:40 UTC,101523.88,25,,23.97,5.14,250,,,,,,,,1,,,,10,,METAR KSBA 312240Z AUTO 25010KT 10SM CLR 25/03 A2998,,,,,,,,,3.01,,WSW,101488,101523.45
KSBA,03/31/2019 22:45 UTC,101523.88,24,,29.29,4.12,260,,,,,,,,1,,,,10,,METAR KSBA 312245Z AUTO 26008KT 10SM CLR 24/05 A2998,,,,,,,,,4.99,,W,101488,101523.57
KSBA,03/31/2019 22:50 UTC,101523.88,25,,25.73,4.63,260,,,,,,,,1,,,,10,,METAR KSBA 312250Z AUTO 26009KT 10SM CLR 25/04 A2998,,,,,,,,,4.01,,W,101488,101523.45
KSBA,03/31/2019 22:53 UTC,101523.88,24.4,4.4,27.42,4.63,250,,101520,,,,,,1,,,,10,,METAR KSBA 312253Z 25009KT 10SM CLR 24/04 A2998 RMK AO2 SLP152 T02440044,,,,,,,,,4.4,,WSW,101488,101523.52
KSBA,03/31/2019 22:55 UTC,101523.88,24,,27.31,5.14,250,,,,,,,,1,,,,10,,METAR KSBA 312255Z AUTO 25010KT 10SM CLR 24/04 A2998,,,,,,,,,3.99,,WSW,101488,101523.57
KSBA,03/31/2019 23:00 UTC,101523.88,24,,29.29,6.17,250,,,,,,,,1,,,,10,,METAR KSBA 312300Z AUTO 25012KT 10SM CLR 24/05 A2998,,,,,,,,,4.99,,WSW,101488,101523.57
KSBA,03/31/2019 23:05 UTC,101523.88,23,,35.72,5.14,260,,,,,,,,1,,,,10,,METAR KSBA 312305Z AUTO 26010KT 10SM CLR 23/07 A2998,,,,,,,,,6.98,,W,101488,101523.69
KSBA,03/31/2019 23:10 UTC,101523.88,23,,38.24,5.14,260,,,,,,,,1,,,,10,,METAR KSBA 312310Z AUTO 26010KT 10SM CLR 23/08 A2998,,,,,,,,,7.98,,W,101488,101523.69
KSBA,03/31/2019 23:15 UTC,101523.88,23,,38.24,4.63,250,,,,,,,,1,,,,10,,METAR KSBA 312315Z AUTO 25009KT 10SM CLR 23/08 A2998,,,,,,,,,7.98,,WSW,101488,101523.69
KSBA,03/31/2019 23:20 UTC,101523.88,23,,38.24,4.63,260,,,,,,,,1,,,,10,,METAR KSBA 312320Z AUTO 26009KT 10SM CLR 23/08 A2998,,,,,,,,,7.98,,W,101488,101523.69
KSBA,03/31/2019 23:25 UTC,101523.88,22,,40.63,5.14,260,,,,,,,,1,,,,10,,METAR KSBA 312325Z AUTO 26010KT 10SM CLR 22/08 A2998,,,,,,,,,7.97,,W,101488,101523.81
KSBA,03/31/2019 23:30 UTC,101523.88,22,,40.63,4.63,260,,,,,,,,1,,,,10,,METAR KSBA 312330Z AUTO 26009KT 10SM CLR 22/08 A2998,,,,,,,,,7.97,,W,101488,101523.81
KSBA,03/31/2019 23:35 UTC,101490.02,22,,40.63,4.63,250,,,,,,,,1,,,,10,,METAR KSBA 312335Z AUTO 25009KT 10SM CLR 22/08 A2997,,,,,,,,,7.97,,WSW,101454.16,101489.95
KSBA,03/31/2019 23:40 UTC,101490.02,22,,40.63,4.12,260,,,,,,,,1,,,,10,,METAR KSBA 312340Z AUTO 26008KT 10SM CLR 22/08 A2997,,,,,,,,,7.97,,W,101454.16,101489.95
KSBA,03/31/2019 23:45 UTC,101490.02,22,,37.95,3.6,260,,,,,,,,1,,,,10,,METAR KSBA 312345Z AUTO 26007KT 10SM CLR 22/07 A2997,,,,,,,,,6.97,,W,101454.16,101489.96
KSBA,03/31/2019 23:50 UTC,101490.02,22,,40.63,4.12,260,,,,,,,,1,,,,10,,METAR KSBA 312350Z AUTO 26008KT 10SM CLR 22/08 A2997,,,,,,,,,7.97,,W,101454.16,101489.95
KSBA,03/31/2019 23:53 UTC,101490.02,22.2,7.2,38.01,4.63,260,,101490,,,6012,,,1,,,,10,,METAR KSBA 312353Z 26009KT 10SM CLR 22/07 A2997 RMK AO2 SLP149 T02220072  10267 20178 56012,26.7,17.8,,,,,,,7.17,,W,101454.16,101489.93
KSBA,03/31/2019 23:55 UTC,101490.02,22,,37.95,4.12,250,,,,,,,,1,,,,10,,METAR KSBA 312355Z AUTO 25008KT 10SM CLR 22/07 A2997,,,,,,,,,6.97,,WSW,101454.16,101489.96
KSBA,04/01/2019 00:00 UTC,101490.02,22,,40.63,4.63,260,,,,,,,,1,,,,10,,METAR KSBA 010000Z AUTO 26009KT 10SM CLR 22/08 A2997,,,,,,,,,7.97,,W,101454.16,101489.95
KSBA,04/01/2019 00:05 UTC,101490.02,22,,37.95,4.12,260,,,,,,,,1,,,,10,,METAR KSBA 010005Z AUTO 26008KT 10SM CLR 22/07 A2997,,,,,,,,,6.97,,W,101454.16,101489.96
KSBA,04/01/2019 00:10 UTC,101490.02,21,,40.34,4.63,260,,,,,,,,1,,,,10,,METAR KSBA 010010Z AUTO 26009KT 10SM CLR 21/07 A2997,,,,,,,,,6.96,,W,101454.16,101490.08
KSBA,04/01/2019 00:15 UTC,101490.02,22,,37.95,4.63,270,,,,,,,,1,,,,10,,METAR KSBA 010015Z AUTO 27009KT 10SM CLR 22/07 A2997,,,,,,,,,6.97,,W,101454.16,101489.96
KSBA,04/01/2019 00:20 UTC,101490.02,22,,35.42,4.63,270,,,,,,,,1,,,,10,,METAR KSBA 010020Z AUTO 27009KT 10SM CLR 22/06 A2997,,,,,,,,,5.96,,W,101454.16,101489.96
KSBA,04/01/2019 00:25 UTC,101490.02,22,,35.42,4.63,270,,,,,,,,1,,,,10,,METAR KSBA 010025Z AUTO 27009KT 10SM CLR 22/06 A2997,,,,,,,,,5.96,,W,101454.16,101489.96
KSBA,04/01/2019 00:30 UTC,101490.02,22,,33.05,4.12,260,,,,,,,,1,,,,10,,METAR KSBA 010030Z AUTO 26008KT 10SM CLR 22/05 A2997,,,,,,,,,4.97,,W,101454.16,101489.96
KSBA,04/01/2019 00:35 UTC,101490.02,22,,30.82,4.12,260,,,,,,,,1,,,,10,,METAR KSBA 010035Z AUTO 26008KT 10SM CLR 22/04 A2997,,,,,,,,,3.97,,W,101454.16,101489.96
KSBA,04/01/2019 00:40 UTC,101490.02,22,,30.82,5.14,270,,,,,,,,1,,,,10,,METAR KSBA 010040Z AUTO 27010KT 10SM CLR 22/04 A2997,,,,,,,,,3.97,,W,101454.16,101489.96
KSBA,04/01/2019 00:45 UTC,101490.02,22,,30.82,4.63,270,,,,,,,,1,,,,10,,METAR KSBA 010045Z AUTO 27009KT 10SM CLR 22/04 A2997,,,,,,,,,3.97,,W,101454.16,101489.96
KSBA,04/01/2019 00:50 UTC,101490.02,22,,30.82,4.12,260,,,,,,,,1,,,,10,,METAR KSBA 010050Z AUTO 26008KT 10SM CLR 22/04 A2997,,,,,,,,,3.97,,W,101454.16,101489.96
KSBA,04/01/2019 00:53 UTC,101490.02,21.7,4.4,32.28,4.12,260,,101480,,,,,,2804,,,,10,,METAR KSBA 010053Z 26008KT 10SM OVC280 22/04 A2997 RMK AO2 SLP148 T02170044,,,,8534.4,,,,,4.36,,W,101454.16,101489.99
KSBA,04/01/2019 00:55 UTC,101490.02,22,,30.82,4.12,260,,,,,,,,1,,,,10,,METAR KSBA 010055Z AUTO 26008KT 10SM CLR 22/04 A2997,,,,,,,,,3.97,,W,101454.16,101489.96
KSBA,04/01/2019 01:00 UTC,101490.02,22,,30.82,4.12,260,,,,,,,,1,,,,10,,METAR KSBA 010100Z AUTO 26008KT 10SM CLR 22/04 A2997,,,,,,,,,3.97,,W,101454.16,101489.96
KSBA,04/01/2019 01:05 UTC,101490.02,22,,28.72,4.12,260,,,,,,,,1,,,,10,,METAR KSBA 010105Z AUTO 26008KT 10SM CLR 22/03 A2997,,,,,,,,,2.97,,W,101454.16,101489.96
KSBA,04/01/2019 01:10 UTC,101490.02,22,,28.72,3.6,270,,,,,,,,1,,,,10,,METAR KSBA 010110Z AUTO 27007KT 10SM CLR 22/03 A2997,,,,,,,,,2.97,,W,101454.16,101489.96
KSBA,04/01/2019 01:15 UTC,101490.02,22,,28.72,4.12,270,,,,,,,,1,,,,10,,METAR KSBA 010115Z AUTO 27008KT 10SM CLR 22/03 A2997,,,,,,,,,2.97,,W,101454.16,101489.96
KSBA,04/01/2019 01:20 UTC,101490.02,22,,28.72,3.6,280,,,,,,,,1,,,,10,,METAR KSBA 010120Z AUTO 28007KT 10SM CLR 22/03 A2997,,,,,,,,,2.97,,W,101454.16,101489.96
KSBA,04/01/2019 01:25 UTC,101490.02,22,,28.72,3.6,280,,,,,,,,1,,,,10,,METAR KSBA 010125Z AUTO 28007KT 10SM CLR 22/03 A2997,,,,,,,,,2.97,,W,101454.16,101489.96
KSBA,04/01/2019 01:30 UTC,101490.02,22,,26.74,4.63,280,,,,,,,,1,,,,10,,METAR KSBA 010130Z AUTO 28009KT 10SM CLR 22/02 A2997,,,,,,,,,1.97,,W,101454.16,101489.96
KSBA,04/01/2019 01:35 UTC,101490.02,22,,26.74,3.6,280,,,,,,,,1,,,,10,,METAR KSBA 010135Z AUTO 28007KT 10SM CLR 22/02 A2997,,,,,,,,,1.97,,W,101454.16,101489.96
KSBA,04/01/2019 01:40 UTC,101490.02,22,,26.74,3.6,270,,,,,,,,1,,,,10,,METAR KSBA 010140Z AUTO 27007KT 10SM CLR 22/02 A2997,,,,,,,,,1.97,,W,101454.16,101489.96
KSBA,04/01/2019 01:45 UTC,101490.02,22,,28.72,3.09,270,,,,,,,,1,,,,10,,METAR KSBA 010145Z AUTO 27006KT 10SM CLR 22/03 A2997,,,,,,,,,2.97,,W,101454.16,101489.96
KSBA,04/01/2019 01:50 UTC,101490.02,22,,28.72,3.09,270,,,,,,,,1,,,,10,,METAR KSBA 010150Z AUTO 27006KT 10SM CLR 22/03 A2997,,,,,,,,,2.97,,W,101454.16,101489.96
KSBA,04/01/2019 01:53 UTC,101490.02,21.1,3.3,30.99,3.09,280,,101480,,,,,,1,,,,10,,METAR KSBA 010153Z 28006KT 10SM CLR 21/03 A2997 RMK AO2 SLP148 T02110033,,,,,,,,,3.26,,W,101454.16,101490.07
KSBA,04/01/2019 01:55 UTC,101490.02,21,,30.53,3.09,280,,,,,,,,1,,,,10,,METAR KSBA 010155Z AUTO 28006KT 10SM CLR 21/03 A2997,,,,,,,,,2.96,,W,101454.16,101490.08
KSBA,04/01/2019 02:00 UTC,101490.02,21,,30.53,2.57,280,,,,,,,,1,,,,10,,METAR KSBA 010200Z AUTO 28005KT 10SM CLR 21/03 A2997,,,,,,,,,2.96,,W,101454.16,101490.08
KSBA,04/01/2019 02:05 UTC,101490.02,21,,30.53,2.57,270,,,,,,,,1,,,,10,,METAR KSBA 010205Z AUTO 27005KT 10SM CLR 21/03 A2997,,,,,,,,,2.96,,W,101454.16,101490.08
KSBA,04/01/2019 02:10 UTC,101490.02,21,,30.53,2.06,280,,,,,,,,1,,,,10,,METAR KSBA 010210Z AUTO 28004KT 10SM CLR 21/03 A2997,,,,,,,,,2.96,,W,101454.16,101490.08
KSBA,04/01/2019 02:15 UTC,101490.02,21,,30.53,2.06,270,,,,,,,,1,,,,10,,METAR KSBA 010215Z AUTO 27004KT 10SM CLR 21/03 A2997,,,,,,,,,2.96,,W,101454.16,101490.08
KSBA,04/01/2019 02:20 UTC,101490.02,21,,32.76,1.54,260,,,,,,,,1,,,,10,,METAR KSBA 010220Z AUTO 26003KT 10SM CLR 21/04 A2997,,,,,,,,,3.96,,W,101454.16,101490.08
KSBA,04/01/2019 02:25 UTC,101523.88,20,,40.05,0,0,,,,,,,,1,,,,10,,METAR KSBA 010225Z AUTO 00000KT 10SM CLR 20/06 A2998,,,,,,,,,5.95,,N,101488,101524.05
KSBA,04/01/2019 02:30 UTC,101523.88,20,,37.36,0,0,,,,,,,,1,,,,10,,METAR KSBA 010230Z AUTO 00000KT 10SM CLR 20/05 A2998,,,,,,,,,4.95,,N,101488,101524.05
KSBA,04/01/2019 02:35 UTC,101523.88,21,,30.53,0,0,,,,,,,,1,,,,10,,METAR KSBA 010235Z AUTO 00000KT 10SM CLR 21/03 A2998,,,,,,,,,2.96,,N,101488,101523.93
KSBA,04/01/2019 02:40 UTC,101523.88,22,,28.72,0,0,,,,,,,,1,,,,10,,METAR KSBA 010240Z AUTO 00000KT 10SM CLR 22/03 A2998,,,,,,,,,2.97,,N,101488,101523.81
KSBA,04/01/2019 02:45 UTC,101523.88,19,,42.61,0,0,,,,,,,,1,,,,10,,METAR KSBA 010245Z AUTO 00000KT 10SM CLR 19/06 A2998,,,,,,,,,5.94,,N,101488,101524.17
KSBA,04/01/2019 02:50 UTC,101523.88,19,,42.61,0,0,,,,,,,,1,,,,10,,METAR KSBA 010250Z AUTO 00000KT 10SM CLR 19/06 A2998,,,,,,,,,5.94,,N,101488,101524.17
KSBA,04/01/2019 02:53 UTC,101523.88,19.4,5.6,40.43,0,0,,101510,,,3002,,,1,,,,10,,METAR KSBA 010253Z 00000KT 10SM CLR 19/06 A2998 RMK AO2 SLP151 T01940056  53002,,,,,,,,,5.54,,N,101488,101524.13
KSBA,04/01/2019 02:55 UTC,101523.88,20,,40.05,0,0,,,,,,,,1,,,,10,,METAR KSBA 010255Z AUTO 00000KT 10SM CLR 20/06 A2998,,,,,,,,,5.95,,N,101488,101524.05
KSBA,04/01/2019 03:00 UTC,101523.88,20,,42.9,2.06,270,,,,,,,,1,,,,10,,METAR KSBA 010300Z AUTO 27004KT 10SM CLR 20/07 A2998,,,,,,,,,6.95,,W,101488,101524.05
KSBA,04/01/2019 03:05 UTC,101523.88,19,,48.87,0,0,,,,,,,,1,,,,10,,METAR KSBA 010305Z AUTO 00000KT 10SM CLR 19/08 A2998,,,,,,,,,7.95,,N,101488,101524.17
KSBA,04/01/2019 03:10 UTC,101523.88,19,,48.87,0,0,,,,,,,,1,,,,10,,METAR KSBA 010310Z AUTO 00000KT 10SM CLR 19/08 A2998,,,,,,,,,7.95,,N,101488,101524.17
KSBA,04/01/2019 03:15 UTC,101490.02,18,,55.67,0,0,,,,,,,,1,,,,10,,METAR KSBA 010315Z AUTO 00000KT 10SM CLR 18/09 A2997,,,,,,,,,8.95,,N,101454.16,101490.45
KSBA,04/01/2019 03:20 UTC,101523.88,17,,59.3,0,0,,,,,,,,1,,,,10,,METAR KSBA 010320Z AUTO 00000KT 10SM CLR 17/09 A2998,,,,,,,,,8.95,,N,101488,101524.42
KSBA,04/01/2019 03:25 UTC,101523.88,18,,55.67,0,0,,,,,,,,1,,,,10,,METAR KSBA 010325Z AUTO 00000KT 10SM CLR 18/09 A2998,,,,,,,,,8.95,,N,101488,101524.3
KSBA,04/01/2019 03:30 UTC,101523.88,19,,45.65,1.54,130,,,,,,,,1,,,,10,,METAR KSBA 010330Z AUTO 13003KT 10SM CLR 19/07 A2998,,,,,,,,,6.95,,SE,101488,101524.17
KSBA,04/01/2019 03:35 UTC,101523.88,17,,59.3,3.6,150,,,,,,,,1,,,,10,,METAR KSBA 010335Z AUTO 15007KT 10SM CLR 17/09 A2998,,,,,,,,,8.95,,SSE,101488,101524.42
KSBA,04/01/2019 03:40 UTC,101523.88,16,,72.23,3.09,150,,,,,,,,1,,,,10,,METAR KSBA 010340Z AUTO 15006KT 10SM CLR 16/11 A2998,,,,,,,,,10.96,,SSE,101488,101524.55
KSBA,04/01/2019 03:45 UTC,101523.88,16,,72.23,2.06,190,,,,,,,,1,,,,10,,METAR KSBA 010345Z AUTO 19004KT 10SM CLR 16/11 A2998,,,,,,,,,10.96,,S,101488,101524.55
KSBA,04/01/2019 03:50 UTC,101557.75,17,,59.3,1.54,200,,,,,,,,1,,,,10,,METAR KSBA 010350Z AUTO 20003KT 10SM CLR 17/09 A2999,,,,,,,,,8.95,,SSW,101521.86,101558.3
KSBA,04/01/2019 03:53 UTC,101557.75,18.3,8.9,54.27,1.54,,,101540,,,,,,1,,,,10,,METAR KSBA 010353Z VRB03KT 10SM CLR 18/09 A2999 RMK AO2 SLP154 T01830089,,,,,,,,,8.85,,,101521.86,101558.13
KSBA,04/01/2019 03:55 UTC,101557.75,18,,55.67,0,0,,,,,,,,1,,,,10,,METAR KSBA 010355Z AUTO 00000KT 10SM CLR 18/09 A2999,,,,,,,,,8.95,,N,101521.86,101558.17
KSBA,04/01/2019 04:00 UTC,101557.75,19,,55.93,0,0,,,,,,,,1,,,,10,,METAR KSBA 010400Z AUTO 00000KT 10SM CLR 19/10 A2999,,,,,,,,,9.96,,N,101521.86,101558.05
KSBA,04/01/2019 04:05 UTC,101557.75,17,,63.42,1.54,260,,,,,,,,1,,,,10,,METAR KSBA 010405Z AUTO 26003KT 10SM CLR 17/10 A2999,,,,,,,,,9.96,,W,101521.86,101558.3
KSBA,04/01/2019 04:10 UTC,101557.75,17,,63.42,0,0,,,,,,,,1,,,,10,,METAR KSBA 010410Z AUTO 00000KT 10SM CLR 17/10 A2999,,,,,,,,,9.96,,N,101521.86,101558.3
KSBA,04/01/2019 04:15 UTC,101557.75,17,,63.42,1.54,310,,,,,,,,1,,,,10,,METAR KSBA 010415Z AUTO 31003KT 10SM CLR 17/10 A2999,,,,,,,,,9.96,,NW,101521.86,101558.3
KSBA,04/01/2019 04:20 UTC,101557.75,18,,55.67,1.54,320,,,,,,,,1,,,,10,,METAR KSBA 010420Z AUTO 32003KT 10SM CLR 18/09 A2999,,,,,,,,,8.95,,NW,101521.86,101558.17
KSBA,04/01/2019 04:25 UTC,101557.75,18,,55.67,2.06,320,,,,,,,,1,,,,10,,METAR KSBA 010425Z AUTO 32004KT 10SM CLR 18/09 A2999,,,,,,,,,8.95,,NW,101521.86,101558.17
KSBA,04/01/2019 04:30 UTC,101557.75,18,,52.03,2.06,320,,,,,,,,1,,,,10,,METAR KSBA 010430Z AUTO 32004KT 10SM CLR 18/08 A2999,,,,,,,,,7.95,,NW,101521.86,101558.17
KSBA,04/01/2019 04:35 UTC,101557.75,18,,52.03,1.54,320,,,,,,,,1,,,,10,,METAR KSBA 010435Z AUTO 32003KT 10SM CLR 18/08 A2999,,,,,,,,,7.95,,NW,101521.86,101558.17
KSBA,04/01/2019 04:40 UTC,101557.75,17,,55.41,0,0,,,,,,,,1,,,,10,,METAR KSBA 010440Z AUTO 00000KT 10SM CLR 17/08 A2999,,,,,,,,,7.94,,N,101521.86,101558.3
KSBA,04/01/2019 04:45 UTC,101557.75,17,,55.41,0,0,,,,,,,,1,,,,10,,METAR KSBA 010445Z AUTO 00000KT 10SM CLR 17/08 A2999,,,,,,,,,7.94,,N,101521.86,101558.3
KSBA,04/01/2019 04:50 UTC,101557.75,17,,55.41,0,0,,,,,,,,1,,,,10,,METAR KSBA 010450Z AUTO 00000KT 10SM CLR 17/08 A2999,,,,,,,,,7.94,,N,101521.86,101558.3
KSBA,04/01/2019 04:53 UTC,101557.75,18.3,7.8,50.37,0,0,,101560,,,,,,1,,,,10,,METAR KSBA 010453Z 00000KT 10SM CLR 18/08 A2999 RMK AO2 SLP156 T01830078,,,,,,,,,7.75,,N,101521.86,101558.13
KSBA,04/01/2019 04:55 UTC,101557.75,18,,52.03,1.54,70,,,,,,,,1,,,,10,,METAR KSBA 010455Z AUTO 07003KT 10SM CLR 18/08 A2999,,,,,,,,,7.95,,ENE,101521.86,101558.17
KSBA,04/01/2019 05:00 UTC,101557.75,18,,52.03,1.54,60,,,,,,,,1,,,,10,,METAR KSBA 010500Z AUTO 06003KT 10SM CLR 18/08 A2999,,,,,,,,,7.95,,ENE,101521.86,101558.17
KSBA,04/01/2019 05:05 UTC,101557.75,17,,59.3,0,0,,,,,,,,1,,,,10,,METAR KSBA 010505Z AUTO 00000KT 10SM CLR 17/09 A2999,,,,,,,,,8.95,,N,101521.86,101558.3
KSBA,04/01/2019 05:10 UTC,101557.75,16,,63.18,0,0,,,,,,,,1,,,,10,,METAR KSBA 010510Z AUTO 00000KT 10SM CLR 16/09 A2999,,,,,,,,,8.95,,N,101521.86,101558.42
KSBA,04/01/2019 05:15 UTC,101557.75,18,,52.03,0,0,,,,,,,,1,,,,10,,METAR KSBA 010515Z AUTO 00000KT 10SM CLR 18/08 A2999,,,,,,,,,7.95,,N,101521.86,101558.17
KSBA,04/01/2019 05:20 UTC,101523.88,18,,55.67,0,0,,,,,,,,1,,,,10,,METAR KSBA 010520Z AUTO 00000KT 10SM CLR 18/09 A2998,,,,,,,,,8.95,,N,101488,101524.3
KSBA,04/01/2019 05:25 UTC,101523.88,16,,63.18,1.54,250,,,,,,,,1,,,,10,,METAR KSBA 010525Z AUTO 25003KT 10SM CLR 16/09 A2998,,,,,,,,,8.95,,WSW,101488,101524.55
KSBA,04/01/2019 05:30 UTC,101523.88,17,,63.42,1.54,260,,,,,,,,1,,,,10,,METAR KSBA 010530Z AUTO 26003KT 10SM CLR 17/10 A2998,,,,,,,,,9.96,,W,101488,101524.42
KSBA,04/01/2019 05:35 UTC,101523.88,16,,67.57,2.57,210,,,,,,,,1,,,,10,,METAR KSBA 010535Z AUTO 21005KT 10SM CLR 16/10 A2998,,,,,,,,,9.96,,SSW,101488,101524.55
KSBA,04/01/2019 05:40 UTC,101523.88,16,,67.57,1.54,250,,,,,,,,1,,,,10,,METAR KSBA 010540Z AUTO 25003KT 10SM CLR 16/10 A2998,,,,,,,,,9.96,,WSW,101488,101524.55
KSBA,04/01/2019 05:45 UTC,101523.88,16,,72.23,2.06,240,,,,,,,,1,,,,10,,METAR KSBA 010545Z AUTO 24004KT 10SM CLR 16/11 A2998,,,,,,,,,10.96,,WSW,101488,101524.55
KSBA,04/01/2019 05:50 UTC,101523.88,16,,72.23,1.54,280,,,,,,,,1,,,,10,,METAR KSBA 010550Z AUTO 28003KT 10SM CLR 16/11 A2998,,,,,,,,,10.96,,W,101488,101524.55
KSBA,04/01/2019 05:53 UTC,101523.88,16.1,10.6,69.89,1.54,290,,101520,,,1,,,1,,,,10,,METAR KSBA 010553Z 29003KT 10SM CLR 16/11 A2998 RMK AO2 SLP152 T01610106  10222 20156 50001,22.2,15.6,,,,,,,10.56,,WNW,101488,101524.54
KSBA,04/01/2019 05:55 UTC,101523.88,16,,72.23,1.54,280,,,,,,,,1,,,,10,,METAR KSBA 010555Z AUTO 28003KT 10SM CLR 16/11 A2998,,,,,,,,,10.96,,W,101488,101524.55
KSBA,04/01/2019 06:00 UTC,101523.88,16,,72.23,1.54,320,,,,,,,,1,,,,10,,METAR KSBA 010600Z AUTO 32003KT 10SM CLR 16/11 A2998,,,,,,,,,10.96,,NW,101488,101524.55
KSBA,04/01/2019 06:05 UTC,101523.88,17,,63.42,0,0,,,,,,,,1,,,,10,,METAR KSBA 010605Z AUTO 00000KT 10SM CLR 17/10 A2998,,,,,,,,,9.96,,N,101488,101524.42
KSBA,04/01/2019 06:10 UTC,101523.88,17,,63.42,0,0,,,,,,,,1,,,,10,,METAR KSBA 010610Z AUTO 00000KT 10SM CLR 17/10 A2998,,,,,,,,,9.96,,N,101488,101524.42
KSBA,04/01/2019 06:15 UTC,101523.88,17,,59.3,0,0,,,,,,,,1,,,,10,,METAR KSBA 010615Z AUTO 00000KT 10SM CLR 17/09 A2998,,,,,,,,,8.95,,N,101488,101524.42
KSBA,04/01/2019 06:20 UTC,101523.88,16,,67.57,0,0,,,,,,,,1,,,,10,,METAR KSBA 010620Z AUTO 00000KT 10SM CLR 16/10 A2998,,,,,,,,,9.96,,N,101488,101524.55
KSBA,04/01/2019 06:25 UTC,101523.88,15,,72.04,3.09,140,,,,,,,,1,,,,10,,METAR KSBA 010625Z AUTO 14006KT 10SM CLR 15/10 A2998,,,,,,,,,9.96,,SE,101488,101524.68
KSBA,04/01/2019 06:30 UTC,101523.88,15,,82.27,3.09,130,,,,,,,,1,,,,10,,METAR KSBA 010630Z AUTO 13006KT 10SM CLR 15/12 A2998,,,,,,,,,11.98,,SE,101488,101524.68
KSBA,04/01/2019 06:35 UTC,101523.88,15,,82.27,2.57,120,,,,,,,,1,,,,10,,METAR KSBA 010635Z AUTO 12005KT 10SM CLR 15/12 A2998,,,,,,,,,11.98,,ESE,101488,101524.68
KSBA,04/01/2019 06:40 UTC,101523.88,15,,82.27,2.57,130,,,,,,,,1,,,,10,,METAR KSBA 010640Z AUTO 13005KT 10SM CLR 15/12 A2998,,,,,,,,,11.98,,SE,101488,101524.68
KSBA,04/01/2019 06:45 UTC,101523.88,15,,82.27,3.09,120,,,,,,,,1,,,,10,,METAR KSBA 010645Z AUTO 12006KT 10SM CLR 15/12 A2998,,,,,,,,,11.98,,ESE,101488,101524.68
KSBA,04/01/2019 06:50 UTC,101523.88,16,,77.17,2.06,70,,,,,,,,1,,,,10,,METAR KSBA 010650Z AUTO 07004KT 10SM CLR 16/12 A2998,,,,,,,,,11.97,,ENE,101488,101524.55
KSBA,04/01/2019 06:53 UTC,101523.88,15.6,11.7,77.61,1.54,100,,101510,,,,,,1,,,,10,,METAR KSBA 010653Z AUTO 10003KT 10SM CLR 16/12 A2998 RMK AO2 SLP151  T01560117,,,,,,,,,11.67,,E,101488,101524.6
KSBA,04/01/2019 06:55 UTC,101523.88,15,,82.27,1.54,110,,,,,,,,1,,,,10,,METAR KSBA 010655Z AUTO 11003KT 10SM CLR 15/12 A2998,,,,,,,,,11.98,,ESE,101488,101524.68
KSBA,04/01/2019 07:00 UTC,101523.88,16,,77.17,2.06,110,,,,,,,,1,,,,10,,METAR KSBA 010700Z AUTO 11004KT 10SM CLR 16/12 A2998,,,,,,,,,11.97,,ESE,101488,101524.55
KSBA,04/01/2019 07:05 UTC,101523.88,15,,82.27,2.57,150,,,,,,,,1,,,,10,,METAR KSBA 010705Z AUTO 15005KT 10SM CLR 15/12 A2998,,,,,,,,,11.98,,SSE,101488,101524.68
KSBA,04/01/2019 07:10 UTC,101523.88,14,,87.75,3.09,130,,,,,,,,1,,,,10,,METAR KSBA 010710Z AUTO 13006KT 10SM CLR 14/12 A2998,,,,,,,,,11.98,,SE,101488,101524.8
KSBA,04/01/2019 07:15 UTC,101523.88,14,,93.7,2.57,130,,,,,,,,1,,,,10,,METAR KSBA 010715Z AUTO 13005KT 10SM CLR 14/13 A2998,,,,,,,,,12.99,,SE,101488,101524.8
KSBA,04/01/2019 07:20 UTC,101523.88,14,,93.7,2.57,150,,,,,,,,1,,,,10,,METAR KSBA 010720Z AUTO 15005KT 10SM CLR 14/13 A2998,,,,,,,,,12.99,,SSE,101488,101524.8
KSBA,04/01/2019 07:25 UTC,101523.88,14,,93.7,1.54,100,,,,,,,,1,,,,10,,METAR KSBA 010725Z AUTO 10003KT 10SM CLR 14/13 A2998,,,,,,,,,12.99,,E,101488,101524.8
KSBA,04/01/2019 07:30 UTC,101490.02,14,,93.7,1.54,120,,,,,,,,1,,,,10,,METAR KSBA 010730Z AUTO 12003KT 10SM CLR 14/13 A2997,,,,,,,,,12.99,,ESE,101454.16,101490.95
KSBA,04/01/2019 07:35 UTC,101490.02,14,,93.7,1.54,90,,,,,,,,1,,,,10,,METAR KSBA 010735Z AUTO 09003KT 10SM CLR 14/13 A2997,,,,,,,,,12.99,,E,101454.16,101490.95
KSBA,04/01/2019 07:40 UTC,101490.02,14,,93.7,0,0,,,,,,,,1,,,,10,,METAR KSBA 010740Z AUTO 00000KT 10SM CLR 14/13 A2997,,,,,,,,,12.99,,N,101454.16,101490.95
KSBA,04/01/2019 07:45 UTC,101490.02,14,,93.7,0,0,,,,,,,,1,,,,10,,METAR KSBA 010745Z AUTO 00000KT 10SM CLR 14/13 A2997,,,,,,,,,12.99,,N,101454.16,101490.95
KSBA,04/01/2019 07:50 UTC,101490.02,14,,93.7,0,0,,,,,,,,1,,,,10,,METAR KSBA 010750Z AUTO 00000KT 10SM CLR 14/13 A2997,,,,,,,,,12.99,,N,101454.16,101490.95
KSBA,04/01/2019 07:53 UTC,101490.02,13.9,12.2,89.49,0,0,,101480,,,,,,1,,,,10,,METAR KSBA 010753Z AUTO 00000KT 10SM CLR 14/12 A2997 RMK AO2 SLP148  T01390122 402670089,,,,,,26.7,8.9,,12.18,,N,101454.16,101490.96
KSBA,04/01/2019 07:55 UTC,101490.02,14,,87.75,0,0,,,,,,,,1,,,,10,,METAR KSBA 010755Z AUTO 00000KT 10SM CLR 14/12 A2997,,,,,,,,,11.98,,N,101454.16,101490.95
KSBA,04/01/2019 08:00 UTC,101490.02,14,,87.75,0,0,,,,,,,,1,,,,10,,METAR KSBA 010800Z AUTO 00000KT 10SM CLR 14/12 A2997,,,,,,,,,11.98,,N,101454.16,101490.95
KSBA,04/01/2019 08:05 UTC,101490.02,14,,87.75,0,0,,,,,,,,1,,,,10,,METAR KSBA 010805Z AUTO 00000KT 10SM CLR 14/12 A2997,,,,,,,,,11.98,,N,101454.16,101490.95
KSBA,04/01/2019 08:10 UTC,101490.02,14,,87.75,2.06,170,,,,,,,,1,,,,10,,METAR KSBA 010810Z AUTO 17004KT 10SM CLR 14/12 A2997,,,,,,,,,11.98,,S,101454.16,101490.95
KSBA,04/01/2019 08:15 UTC,101490.02,14,,87.75,2.06,160,,,,,,,,1,,,,10,,METAR KSBA 010815Z AUTO 16004KT 10SM CLR 14/12 A2997,,,,,,,,,11.98,,SSE,101454.16,101490.95
KSBA,04/01/2019 08:20 UTC,101490.02,14,,87.75,3.09,170,,,,,,,,1,,,,10,,METAR KSBA 010820Z AUTO 17006KT 10SM CLR 14/12 A2997,,,,,,,,,11.98,,S,101454.16,101490.95
KSBA,04/01/2019 08:25 UTC,101490.02,14,,93.7,2.57,170,,,,,,,,1,,,,10,,METAR KSBA 010825Z AUTO 17005KT 10SM CLR 14/13 A2997,,,,,,,,,12.99,,S,101454.16,101490.95
KSBA,04/01/2019 08:30 UTC,101490.02,14,,93.7,2.57,140,,,,,,,,1,,,,10,,METAR KSBA 010830Z AUTO 14005KT 10SM CLR 14/13 A2997,,,,,,,,,12.99,,SE,101454.16,101490.95
KSBA,04/01/2019 08:35 UTC,101456.15,14,,93.7,2.06,130,,,,,,,,1,,,,10,,METAR KSBA 010835Z AUTO 13004KT 10SM CLR 14/13 A2996,,,,,,,,,12.99,,SE,101420.3,101457.08
KSBA,04/01/2019 08:40 UTC,101456.15,14,,93.7,1.54,120,,,,,,,,1,,,,10,,METAR KSBA 010840Z AUTO 12003KT 10SM CLR 14/13 A2996,,,,,,,,,12.99,,ESE,101420.3,101457.08
KSBA,04/01/2019 08:45 UTC,101456.15,14,,93.7,1.54,140,,,,,,,,1,,,,10,,METAR KSBA 010845Z AUTO 14003KT 10SM CLR 14/13 A2996,,,,,,,,,12.99,,SE,101420.3,101457.08
KSBA,04/01/2019 08:50 UTC,101456.15,14,,93.7,1.54,130,,,,,,,,1,,,,10,,METAR KSBA 010850Z AUTO 13003KT 10SM CLR 14/13 A2996,,,,,,,,,12.99,,SE,101420.3,101457.08
KSBA,04/01/2019 08:53 UTC,101456.15,13.9,12.8,93.09,1.54,140,,101450,,,8008,,,1,,,,10,,METAR KSBA 010853Z AUTO 14003KT 10SM CLR 14/13 A2996 RMK AO2 SLP145  T01390128 58008,,,,,,,,,12.79,,SE,101420.3,101457.09
KSBA,04/01/2019 08:55 UTC,101456.15,14,,93.7,1.54,110,,,,,,,,1,,,,10,,METAR KSBA 010855Z AUTO 11003KT 10SM CLR 14/13 A2996,,,,,,,,,12.99,,ESE,101420.3,101457.08
KSBA,04/01/2019 09:00 UTC,101456.15,14,,93.7,0,0,,,,,,,,1,,,,10,,METAR KSBA 010900Z AUTO 00000KT 10SM CLR 14/13 A2996,,,,,,,,,12.99,,N,101420.3,101457.08
KSBA,04/01/2019 09:05 UTC,101456.15,14,,93.7,1.54,130,,,,,,,,1,,,,10,,METAR KSBA 010905Z AUTO 13003KT 10SM CLR 14/13 A2996,,,,,,,,,12.99,,SE,101420.3,101457.08
KSBA,04/01/2019 09:10 UTC,101422.29,13,,100,0,0,,,,,,,,1,,,,10,,METAR KSBA 010910Z AUTO 00000KT 10SM CLR 13/13 A2995,,,,,,,,,13,,N,101386.45,101423.35
KSBA,04/01/2019 09:15 UTC,101422.29,14,,93.7,0,0,,,,,,,,1,,,,9,,METAR KSBA 010915Z AUTO 00000KT 9SM CLR 14/13 A2995,,,,,,,,,12.99,,N,101386.45,101423.22
KSBA,04/01/2019 09:20 UTC,101422.29,13,,100,0,0,,,,,,,,1,,,,9,,METAR KSBA 010920Z AUTO 00000KT 9SM CLR 13/13 A2995,,,,,,,,,13,,N,101386.45,101423.35
KSBA,04/01/2019 09:25 UTC,101422.29,13,,93.65,1.54,160,,,,,,,,1,,,,8,,METAR KSBA 010925Z AUTO 16003KT 8SM CLR 13/12 A2995,,,,,,,,,11.99,,SSE,101386.45,101423.35
KSBA,04/01/2019 09:30 UTC,101422.29,13,,93.65,2.06,160,,,,,,,,1,,,,8,,METAR KSBA 010930Z AUTO 16004KT 8SM CLR 13/12 A2995,,,,,,,,,11.99,,SSE,101386.45,101423.35
KSBA,04/01/2019 09:35 UTC,101422.29,13,,93.65,2.06,160,,,,,,,,1,,,,8,,METAR KSBA 010935Z AUTO 16004KT 8SM CLR 13/12 A2995,,,,,,,,,11.99,,SSE,101386.45,101423.35
KSBA,04/01/2019 09:40 UTC,101422.29,13,,93.65,2.06,150,,,,,,,,1,,,,9,,METAR KSBA 010940Z AUTO 15004KT 9SM CLR 13/12 A2995,,,,,,,,,11.99,,SSE,101386.45,101423.35
KSBA,04/01/2019 09:45 UTC,101422.29,13,,93.65,1.54,130,,,,,,,,1,,,,9,,METAR KSBA 010945Z AUTO 13003KT 9SM CLR 13/12 A2995,,,,,,,,,11.99,,SE,101386.45,101423.35
KSBA,04/01/2019 09:50 UTC,101422.29,13,,93.65,1.54,130,,,,,,,,1,,,,9,,METAR KSBA 010950Z AUTO 13003KT 9SM CLR 13/12 A2995,,,,,,,,,11.99,,SE,101386.45,101423.35
KSBA,04/01/2019 09:53 UTC,101422.29,13.3,12.8,96.79,1.54,140,,101410,,,,,,1,,,,9,,METAR KSBA 010953Z AUTO 14003KT 9SM CLR 13/13 A2995 RMK AO2 SLP141  T01330128,,,,,,,,,12.8,,SE,101386.45,101423.31
KSBA,04/01/2019 09:55 UTC,101422.29,13,,93.65,1.54,140,,,,,,,,1,,,,9,,METAR KSBA 010955Z AUTO 14003KT 9SM CLR 13/12 A2995,,,,,,,,,11.99,,SE,101386.45,101423.35
KSBA,04/01/2019 10:00 UTC,101422.29,13,,93.65,0,0,,,,,,,,1,,,,9,,METAR KSBA 011000Z AUTO 00000KT 9SM CLR 13/12 A2995,,,,,,,,,11.99,,N,101386.45,101423.35
KSBA,04/01/2019 10:05 UTC,101422.29,13,,93.65,1.54,140,,,,,,,,1,,,,9,,METAR KSBA 011005Z AUTO 14003KT 9SM CLR 13/12 A2995,,,,,,,,,11.99,,SE,101386.45,101423.35
KSBA,04/01/2019 10:10 UTC,101422.29,13,,93.65,1.54,130,,,,,,,,1,,,,9,,METAR KSBA 011010Z AUTO 13003KT 9SM CLR 13/12 A2995,,,,,,,,,11.99,,SE,101386.45,101423.35
KSBA,04/01/2019 10:15 UTC,101388.43,13,,100,1.54,130,,,,,,,,1,,,,9,,METAR KSBA 011015Z AUTO 13003KT 9SM CLR 13/13 A2994,,,,,,,,,13,,SE,101352.6,101389.48
KSBA,04/01/2019 10:20 UTC,101388.43,13,,100,0,0,,,,,,,,1,,,,9,,METAR KSBA 011020Z AUTO 00000KT 9SM CLR 13/13 A2994,,,,,,,,,13,,N,101352.6,101389.48
KSBA,04/01/2019 10:25 UTC,101388.43,13,,100,0,0,,,,,,,,1,,,,9,,METAR KSBA 011025Z AUTO 00000KT 9SM CLR 13/13 A2994,,,,,,,,,13,,N,101352.6,101389.48
KSBA,04/01/2019 10:30 UTC,101388.43,13,,100,0,0,,,,,,,,1,,,,9,,METAR KSBA 011030Z AUTO 00000KT 9SM CLR 13/13 A2994,,,,,,,,,13,,N,101352.6,101389.48
KSBA,04/01/2019 10:35 UTC,101388.43,13,,93.65,0,0,,,,,,,,1,,,,10,,METAR KSBA 011035Z AUTO 00000KT 10SM CLR 13/12 A2994,,,,,,,,,11.99,,N,101352.6,101389.48
KSBA,04/01/2019 10:40 UTC,101388.43,13,,93.65,0,0,,,,,,,,1,,,,10,,METAR KSBA 011040Z AUTO 00000KT 10SM CLR 13/12 A2994,,,,,,,,,11.99,,N,101352.6,101389.48
KSBA,04/01/2019 10:45 UTC,101388.43,13,,93.65,0,0,,,,,,,,1,,,,10,,METAR KSBA 011045Z AUTO 00000KT 10SM CLR 13/12 A2994,,,,,,,,,11.99,,N,101352.6,101389.48
KSBA,04/01/2019 10:50 UTC,101388.43,12,,100,0,0,,,,,,,,1,,,,10,,METAR KSBA 011050Z AUTO 00000KT 10SM CLR 12/12 A2994,,,,,,,,,12,,N,101352.6,101389.61
KSBA,04/01/2019 10:53 UTC,101388.43,12.8,11.1,89.41,0,0,,101380,,,,,,1,,,,10,,METAR KSBA 011053Z AUTO 00000KT 10SM CLR 13/11 A2994 RMK AO2 SLP138  T01280111,,,,,,,,,11.08,,N,101352.6,101389.51
KSBA,04/01/2019 10:55 UTC,101388.43,13,,87.66,1.54,20,,,,,,,,1,,,,10,,METAR KSBA 011055Z AUTO 02003KT 10SM CLR 13/11 A2994,,,,,,,,,10.98,,NNE,101352.6,101389.48
KSBA,04/01/2019 11:00 UTC,101388.43,13,,82.01,1.54,30,,,,,,,,1,,,,10,,METAR KSBA 011100Z AUTO 03003KT 10SM CLR 13/10 A2994,,,,,,,,,9.97,,NNE,101352.6,101389.48
KSBA,04/01/2019 11:05 UTC,101354.56,13,,82.01,1.54,30,,,,,,,,1,,,,10,,METAR KSBA 011105Z AUTO 03003KT 10SM CLR 13/10 A2993,,,,,,,,,9.97,,NNE,101318.74,101355.61
KSBA,04/01/2019 11:10 UTC,101354.56,12,,87.57,1.54,10,,,,,,,,1,,,,10,,METAR KSBA 011110Z AUTO 01003KT 10SM CLR 12/10 A2993,,,,,,,,,9.98,,N,101318.74,101355.74
KSBA,04/01/2019 11:15 UTC,101354.56,12,,81.88,0,0,,,,,,,,1,,,,10,,METAR KSBA 011115Z AUTO 00000KT 10SM CLR 12/09 A2993,,,,,,,,,8.97,,N,101318.74,101355.74
KSBA,04/01/2019 11:20 UTC,101354.56,12,,81.88,0,0,,,,,,,,1,,,,10,,METAR KSBA 011120Z AUTO 00000KT 10SM CLR 12/09 A2993,,,,,,,,,8.97,,N,101318.74,101355.74
KSBA,04/01/2019 11:25 UTC,101354.56,12,,81.88,0,0,,,,,,,,1,,,,10,,METAR KSBA 011125Z AUTO 00000KT 10SM CLR 12/09 A2993,,,,,,,,,8.97,,N,101318.74,101355.74
KSBA,04/01/2019 11:30 UTC,101354.56,13,,76.68,0,0,,,,,,,,1,,,,10,,METAR KSBA 011130Z AUTO 00000KT 10SM CLR 13/09 A2993,,,,,,,,,8.96,,N,101318.74,101355.61
KSBA,04/01/2019 11:35 UTC,101354.56,13,,76.68,0,0,,,,,,,,1,,,,10,,METAR KSBA 011135Z AUTO 00000KT 10SM CLR 13/09 A2993,,,,,,,,,8.96,,N,101318.74,101355.61
KSBA,04/01/2019 11:40 UTC,101354.56,13,,76.68,1.54,30,,,,,,,,1,,,,10,,METAR KSBA 011140Z AUTO 03003KT 10SM CLR 13/09 A2993,,,,,,,,,8.96,,NNE,101318.74,101355.61
KSBA,04/01/2019 11:45 UTC,101354.56,12,,81.88,0,0,,,,,,,,1,,,,10,,METAR KSBA 011145Z AUTO 00000KT 10SM CLR 12/09 A2993,,,,,,,,,8.97,,N,101318.74,101355.74
KSBA,04/01/2019 11:50 UTC,101354.56,11,,87.48,0,0,,,,,,,,1,,,,10,,METAR KSBA 011150Z AUTO 00000KT 10SM CLR 11/09 A2993,,,,,,,,,8.98,,N,101318.74,101355.87
KSBA,04/01/2019 11:53 UTC,101354.56,11.1,8.9,86.31,0,0,,101360,,,6009,,,1,,,,10,,METAR KSBA 011153Z AUTO 00000KT 10SM CLR 11/09 A2993 RMK AO2 SLP136  T01110089 10172 20111 56009,17.2,11.1,,,,,,,8.88,,N,101318.74,101355.86
KSBA,04/01/2019 11:55 UTC,101354.56,12,,81.88,0,0,,,,,,,,1,,,,10,,METAR KSBA 011155Z AUTO 00000KT 10SM CLR 12/09 A2993,,,,,,,,,8.97,,N,101318.74,101355.74
KSBA,04/01/2019 12:00 UTC,101354.56,12,,81.88,0,0,,,,,,,,1,,,,10,,METAR KSBA 011200Z AUTO 00000KT 10SM CLR 12/09 A2993,,,,,,,,,8.97,,N,101318.74,101355.74
KSBA,04/01/2019 12:05 UTC,101354.56,12,,81.88,1.54,340,,,,,,,,1,,,,10,,METAR KSBA 011205Z AUTO 34003KT 10SM CLR 12/09 A2993,,,,,,,,,8.97,,NNW,101318.74,101355.74
KSBA,04/01/2019 12:10 UTC,101354.56,11,,81.75,0,0,,,,,,,,1,,,,10,,METAR KSBA 011210Z AUTO 00000KT 10SM CLR 11/08 A2993,,,,,,,,,7.97,,N,101318.74,101355.87
KSBA,04/01/2019 12:15 UTC,101354.56,11,,81.75,0,0,,,,,,,,1,,,,10,,METAR KSBA 011215Z AUTO 00000KT 10SM CLR 11/08 A2993,,,,,,,,,7.97,,N,101318.74,101355.87
KSBA,04/01/2019 12:20 UTC,101354.56,12,,81.88,0,0,,,,,,,,1,,,,10,,METAR KSBA 011220Z AUTO 00000KT 10SM CLR 12/09 A2993,,,,,,,,,8.97,,N,101318.74,101355.74
KSBA,04/01/2019 12:25 UTC,101354.56,12,,76.52,0,0,,,,,,,,1,,,,10,,METAR KSBA 011225Z AUTO 00000KT 10SM CLR 12/08 A2993,,,,,,,,,7.96,,N,101318.74,101355.74
KSBA,04/01/2019 12:30 UTC,101354.56,12,,76.52,0,0,,,,,,,,1,,,,10,,METAR KSBA 011230Z AUTO 00000KT 10SM CLR 12/08 A2993,,,,,,,,,7.96,,N,101318.74,101355.74
KSBA,04/01/2019 12:35 UTC,101354.56,12,,76.52,0,0,,,,,,,,1,,,,10,,METAR KSBA 011235Z AUTO 00000KT 10SM CLR 12/08 A2993,,,,,,,,,7.96,,N,101318.74,101355.74
KSBA,04/01/2019 12:40 UTC,101354.56,11,,81.75,0,0,,,,,,,,1,,,,10,,METAR KSBA 011240Z AUTO 00000KT 10SM CLR 11/08 A2993,,,,,,,,,7.97,,N,101318.74,101355.87
KSBA,04/01/2019 12:45 UTC,101354.56,12,,76.52,0,0,,,,,,,,1,,,,10,,METAR KSBA 011245Z AUTO 00000KT 10SM CLR 12/08 A2993,,,,,,,,,7.96,,N,101318.74,101355.74
KSBA,04/01/2019 12:50 UTC,101388.43,12,,76.52,0,0,,,,,,,,1,,,,10,,METAR KSBA 011250Z AUTO 00000KT 10SM CLR 12/08 A2994,,,,,,,,,7.96,,N,101352.6,101389.61
KSBA,04/01/2019 12:53 UTC,101388.43,11.7,8.9,82.95,0,0,,101370,,,,,,1,,,,10,,METAR KSBA 011253Z AUTO 00000KT 10SM CLR 12/09 A2994 RMK AO2 SLP137  T01170089,,,,,,,,,8.87,,N,101352.6,101389.65
KSBA,04/01/2019 12:55 UTC,101388.43,12,,81.88,0,0,,,,,,,,1,,,,10,,METAR KSBA 011255Z AUTO 00000KT 10SM CLR 12/09 A2994,,,,,,,,,8.97,,N,101352.6,101389.61
KSBA,04/01/2019 13:00 UTC,101388.43,12,,81.88,0,0,,,,,,,,1,,,,10,,METAR KSBA 011300Z AUTO 00000KT 10SM CLR 12/09 A2994,,,,,,,,,8.97,,N,101352.6,101389.61
KSBA,04/01/2019 13:05 UTC,101388.43,12,,76.52,0,0,,,,,,,,1,,,,10,,METAR KSBA 011305Z AUTO 00000KT 10SM CLR 12/08 A2994,,,,,,,,,7.96,,N,101352.6,101389.61
KSBA,04/01/2019 13:10 UTC,101388.43,12,,76.52,0,0,,,,,,,,1,,,,10,,METAR KSBA 011310Z AUTO 00000KT 10SM CLR 12/08 A2994,,,,,,,,,7.96,,N,101352.6,101389.61
KSBA,04/01/2019 13:15 UTC,101388.43,12,,76.52,0,0,,,,,,,,1,,,,10,,METAR KSBA 011315Z AUTO 00000KT 10SM CLR 12/08 A2994,,,,,,,,,7.96,,N,101352.6,101389.61
KSBA,04/01/2019 13:20 UTC,101388.43,12,,76.52,1.54,110,,,,,,,,1,,,,10,,METAR KSBA 011320Z AUTO 11003KT 10SM CLR 12/08 A2994,,,,,,,,,7.96,,ESE,101352.6,101389.61
KSBA,04/01/2019 13:25 UTC,101388.43,11,,81.75,2.06,90,,,,,,,,1,,,,10,,METAR KSBA 011325Z AUTO 09004KT 10SM CLR 11/08 A2994,,,,,,,,,7.97,,E,101352.6,101389.74
KSBA,04/01/2019 13:30 UTC,101388.43,11,,81.75,1.54,110,,,,,,,,1,,,,10,,METAR KSBA 011330Z AUTO 11003KT 10SM CLR 11/08 A2994,,,,,,,,,7.97,,ESE,101352.6,101389.74
KSBA,04/01/2019 13:35 UTC,101422.29,11,,81.75,0,0,,,,,,,,1,,,,10,,METAR KSBA 011335Z AUTO 00000KT 10SM CLR 11/08 A2995,,,,,,,,,7.97,,N,101386.45,101423.61
KSBA,04/01/2019 13:40 UTC,101422.29,11,,81.75,1.54,80,,,,,,,,1,,,,10,,METAR KSBA 011340Z AUTO 08003KT 10SM CLR 11/08 A2995,,,,,,,,,7.97,,E,101386.45,101423.61
KSBA,04/01/2019 13:45 UTC,101422.29,11,,81.75,1.54,70,,,,,,,,1,,,,10,,METAR KSBA 011345Z AUTO 07003KT 10SM CLR 11/08 A2995,,,,,,,,,7.97,,ENE,101386.45,101423.61
KSBA,04/01/2019 13:50 UTC,101422.29,11,,81.75,3.09,40,,,,,,,,1,,,,10,,METAR KSBA 011350Z AUTO 04006KT 10SM CLR 11/08 A2995,,,,,,,,,7.97,,NE,101386.45,101423.61
KSBA,04/01/2019 13:53 UTC,101422.29,10.6,7.8,82.82,3.09,20,,101400,,,,,,1,,,,10,,METAR KSBA 011353Z 02006KT 10SM CLR 11/08 A2995 RMK AO2 SLP140 T01060078,,,,,,,,,7.77,,NNE,101386.45,101423.66
KSBA,04/01/2019 13:55 UTC,101422.29,11,,81.75,3.6,20,,,,,,,,1,,,,10,,METAR KSBA 011355Z AUTO 02007KT 10SM CLR 11/08 A2995,,,,,,,,,7.97,,NNE,101386.45,101423.61
KSBA,04/01/2019 14:00 UTC,101422.29,11,,81.75,2.57,10,,,,,,,,1,,,,10,,METAR KSBA 011400Z AUTO 01005KT 10SM CLR 11/08 A2995,,,,,,,,,7.97,,N,101386.45,101423.61
KSBA,04/01/2019 14:05 UTC,101422.29,11,,81.75,1.54,20,,,,,,,,1,,,,10,,METAR KSBA 011405Z AUTO 02003KT 10SM CLR 11/08 A2995,,,,,,,,,7.97,,NNE,101386.45,101423.61
KSBA,04/01/2019 14:10 UTC,101422.29,11,,81.75,0,0,,,,,,,,1,,,,10,,METAR KSBA 011410Z AUTO 00000KT 10SM CLR 11/08 A2995,,,,,,,,,7.97,,N,101386.45,101423.61
KSBA,04/01/2019 14:15 UTC,101422.29,11,,81.75,0,0,,,,,,,,1,,,,10,,METAR KSBA 011415Z AUTO 00000KT 10SM CLR 11/08 A2995,,,,,,,,,7.97,,N,101386.45,101423.61
KSBA,04/01/2019 14:20 UTC,101422.29,10,,87.38,0,0,,,,,,,,1,,,,10,,METAR KSBA 011420Z AUTO 00000KT 10SM CLR 10/08 A2995,,,,,,,,,7.98,,N,101386.45,101423.74
KSBA,04/01/2019 14:25 UTC,101422.29,11,,81.75,0,0,,,,,,,,1,,,,10,,METAR KSBA 011425Z AUTO 00000KT 10SM CLR 11/08 A2995,,,,,,,,,7.97,,N,101386.45,101423.61
KSBA,04/01/2019 14:30 UTC,101422.29,12,,76.52,0,0,,,,,,,,1,,,,10,,METAR KSBA 011430Z AUTO 00000KT 10SM CLR 12/08 A2995,,,,,,,,,7.96,,N,101386.45,101423.48
KSBA,04/01/2019 14:35 UTC,101422.29,12,,76.52,0,0,,,,,,,,1,,,,10,,METAR KSBA 011435Z AUTO 00000KT 10SM CLR 12/08 A2995,,,,,,,,,7.96,,N,101386.45,101423.48
KSBA,04/01/2019 14:40 UTC,101422.29,12,,81.88,0,0,,,,,,,,1,,,,10,,METAR KSBA 011440Z AUTO 00000KT 10SM CLR 12/09 A2995,,,,,,,,,8.97,,N,101386.45,101423.48
KSBA,04/01/2019 14:45 UTC,101422.29,13,,76.68,0,0,,,,,,,,1,,,,10,,METAR KSBA 011445Z AUTO 00000KT 10SM CLR 13/09 A2995,,,,,,,,,8.96,,N,101386.45,101423.35
KSBA,04/01/2019 14:50 UTC,101422.29,13,,76.68,0,0,,,,,,,,1,,,,10,,METAR KSBA 011450Z AUTO 00000KT 10SM CLR 13/09 A2995,,,,,,,,,8.96,,N,101386.45,101423.35
KSBA,04/01/2019 14:53 UTC,101422.29,13.3,9.4,77.25,1.54,20,,101420,,,3006,,,1,,,,10,,METAR KSBA 011453Z 02003KT 10SM CLR 13/09 A2995 RMK AO2 SLP142 T01330094  53006,,,,,,,,,9.36,,NNE,101386.45,101423.31
KSBA,04/01/2019 14:55 UTC,101422.29,13,,76.68,1.54,10,,,,,,,,1,,,,10,,METAR KSBA 011455Z AUTO 01003KT 10SM CLR 13/09 A2995,,,,,,,,,8.96,,N,101386.45,101423.35
KSBA,04/01/2019 15:00 UTC,101422.29,14,,76.85,0,0,,,,,,,,1,,,,10,,METAR KSBA 011500Z AUTO 00000KT 10SM CLR 14/10 A2995,,,,,,,,,9.97,,N,101386.45,101423.22
KSBA,04/01/2019 15:05 UTC,101422.29,14,,71.85,0,0,,,,,,,,1,,,,10,,METAR KSBA 011505Z AUTO 00000KT 10SM CLR 14/09 A2995,,,,,,,,,8.96,,N,101386.45,101423.22
KSBA,04/01/2019 15:10 UTC,101422.29,14,,71.85,0,0,,,,,,,,1,,,,10,,METAR KSBA 011510Z AUTO 00000KT 10SM CLR 14/09 A2995,,,,,,,,,8.96,,N,101386.45,101423.22
KSBA,04/01/2019 15:15 UTC,101422.29,15,,67.36,0,0,,,,,,,,1,,,,10,,METAR KSBA 011515Z AUTO 00000KT 10SM CLR 15/09 A2995,,,,,,,,,8.95,,N,101386.45,101423.09
KSBA,04/01/2019 15:20 UTC,101422.29,15,,67.36,0,0,,,,,,,,1,,,,10,,METAR KSBA 011520Z AUTO 00000KT 10SM CLR 15/09 A2995,,,,,,,,,8.95,,N,101386.45,101423.09
KSBA,04/01/2019 15:25 UTC,101422.29,16,,67.57,0,0,,,,,,,,1,,,,10,,METAR KSBA 011525Z AUTO 00000KT 10SM CLR 16/10 A2995,,,,,,,,,9.96,,N,101386.45,101422.96
KSBA,04/01/2019 15:30 UTC,101422.29,16,,63.18,0,0,,,,,,,,1,,,,10,,METAR KSBA 011530Z AUTO 00000KT 10SM CLR 16/09 A2995,,,,,,,,,8.95,,N,101386.45,101422.96
KSBA,04/01/2019 15:35 UTC,101422.29,16,,63.18,0,0,,,,,,,,1,,,,10,,METAR KSBA 011535Z AUTO 00000KT 10SM CLR 16/09 A2995,,,,,,,,,8.95,,N,101386.45,101422.96
KSBA,04/01/2019 15:40 UTC,101422.29,16,,63.18,0,0,,,,,,,,1,,,,10,,METAR KSBA 011540Z AUTO 00000KT 10SM CLR 16/09 A2995,,,,,,,,,8.95,,N,101386.45,101422.96
KSBA,04/01/2019 15:45 UTC,101456.15,16,,72.23,0,0,,,,,,,,1,,,,10,,METAR KSBA 011545Z AUTO 00000KT 10SM CLR 16/11 A2996,,,,,,,,,10.96,,N,101420.3,101456.83
KSBA,04/01/2019 15:50 UTC,101456.15,17,,67.79,0,0,,,,,,,,,,,,10,,METAR KSBA 011550Z AUTO 00000KT 10SM 17/11 A2996,,,,,,,,,10.96,,N,101420.3,101456.7
KSBA,04/01/2019 15:53 UTC,101456.15,16.7,10.6,67.27,0,0,,101440,,,,,,2202,2503,,,10,,METAR KSBA 011553Z 00000KT 10SM SCT220 BKN250 17/11 A2996 RMK AO2 SLP144  T01670106,,,,7620,,,,,10.56,,N,101420.3,101456.74
KSBA,04/01/2019 15:55 UTC,101456.15,17,,63.42,0,0,,,,,,,,1,,,,10,,METAR KSBA 011555Z AUTO 00000KT 10SM CLR 17/10 A2996,,,,,,,,,9.96,,N,101420.3,101456.7
KSBA,04/01/2019 16:00 UTC,101456.15,17,,67.79,0,0,,,,,,,,1,,,,10,,METAR KSBA 011600Z AUTO 00000KT 10SM CLR 17/11 A2996,,,,,,,,,10.96,,N,101420.3,101456.7
KSBA,04/01/2019 16:05 UTC,101456.15,18,,63.64,0,0,,,,,,,,1,,,,10,,METAR KSBA 011605Z AUTO 00000KT 10SM CLR 18/11 A2996,,,,,,,,,10.96,,N,101420.3,101456.57
KSBA,04/01/2019 16:10 UTC,101456.15,18,,63.64,0,0,,,,,,,,1,,,,10,,METAR KSBA 011610Z AUTO 00000KT 10SM CLR 18/11 A2996,,,,,,,,,10.96,,N,101420.3,101456.57
KSBA,04/01/2019 16:15 UTC,101456.15,19,,59.79,0,0,,,,,,,,1,,,,10,,METAR KSBA 011615Z AUTO 00000KT 10SM CLR 19/11 A2996,,,,,,,,,10.96,,N,101420.3,101456.45
KSBA,04/01/2019 16:20 UTC,101456.15,20,,56.19,0,0,,,,,,,,1,,,,10,,METAR KSBA 011620Z AUTO 00000KT 10SM CLR 20/11 A2996,,,,,,,,,10.96,,N,101420.3,101456.33
KSBA,04/01/2019 16:25 UTC,101456.15,20,,56.19,0,0,,,,,,,,1,,,,10,,METAR KSBA 011625Z AUTO 00000KT 10SM CLR 20/11 A2996,,,,,,,,,10.96,,N,101420.3,101456.33
KSBA,04/01/2019 16:30 UTC,101456.15,21,,46.22,0,0,,,,,,,,1,,,,10,,METAR KSBA 011630Z AUTO 00000KT 10SM CLR 21/09 A2996,,,,,,,,,8.96,,N,101420.3,101456.2
KSBA,04/01/2019 16:35 UTC,101456.15,21,,43.19,0,0,,,,,,,,1,,,,10,,METAR KSBA 011635Z AUTO 00000KT 10SM CLR 21/08 A2996,,,,,,,,,7.96,,N,101420.3,101456.2
KSBA,04/01/2019 16:40 UTC,101456.15,21,,40.34,1.54,140,,,,,,,,1,,,,10,,METAR KSBA 011640Z AUTO 14003KT 10SM CLR 21/07 A2996,,,,,,,,,6.96,,SE,101420.3,101456.2
KSBA,04/01/2019 16:45 UTC,101456.15,21,,46.22,2.57,140,,,,,,,,1,,,,10,,METAR KSBA 011645Z AUTO 14005KT 10SM CLR 21/09 A2996,,,,,,,,,8.96,,SE,101420.3,101456.2
KSBA,04/01/2019 16:50 UTC,101456.15,21,,46.22,3.09,140,,,,,,,,1,,,,10,,METAR KSBA 011650Z AUTO 14006KT 10SM CLR 21/09 A2996,,,,,,,,,8.96,,SE,101420.3,101456.2
KSBA,04/01/2019 16:53 UTC,101456.15,20.6,8.9,47.05,3.09,130,,101460,,,,,,1,,,,10,,METAR KSBA 011653Z 13006KT 10SM CLR 21/09 A2996 RMK AO2 SLP146 T02060089,,,,,,,,,8.86,,SE,101420.3,101456.25
KSBA,04/01/2019 16:55 UTC,101456.15,20,,49.15,2.57,130,,,,,,,,1,,,,10,,METAR KSBA 011655Z AUTO 13005KT 10SM CLR 20/09 A2996,,,,,,,,,8.96,,SE,101420.3,101456.33
KSBA,04/01/2019 17:00 UTC,101456.15,20,,49.15,2.57,130,,,,,,,,1,,,,10,,METAR KSBA 011700Z AUTO 13005KT 10SM CLR 20/09 A2996,,,,,,,,,8.96,,SE,101420.3,101456.33
KSBA,04/01/2019 17:05 UTC,101490.02,20,,49.15,2.06,120,,,,,,,,1,,,,10,,METAR KSBA 011705Z AUTO 12004KT 10SM CLR 20/09 A2997,,,,,,,,,8.96,,ESE,101454.16,101490.2
KSBA,04/01/2019 17:10 UTC,101490.02,20,,49.15,2.06,140,,,,,,,,1,,,,10,,METAR KSBA 011710Z AUTO 14004KT 10SM CLR 20/09 A2997,,,,,,,,,8.96,,SE,101454.16,101490.2
KSBA,04/01/2019 17:15 UTC,101490.02,20,,49.15,1.54,130,,,,,,,,1,,,,10,,METAR KSBA 011715Z AUTO 13003KT 10SM CLR 20/09 A2997,,,,,,,,,8.96,,SE,101454.16,101490.2
KSBA,04/01/2019 17:20 UTC,101456.15,21,,46.22,2.06,130,,,,,,,,1,,,,10,,METAR KSBA 011720Z AUTO 13004KT 10SM CLR 21/09 A2996,,,,,,,,,8.96,,SE,101420.3,101456.2
KSBA,04/01/2019 17:25 UTC,101456.15,21,,43.19,2.06,130,,,,,,,,1,,,,10,,METAR KSBA 011725Z AUTO 13004KT 10SM CLR 21/08 A2996,,,,,,,,,7.96,,SE,101420.3,101456.2
KSBA,04/01/2019 17:30 UTC,101456.15,21,,43.19,1.54,140,,,,,,,,1,,,,10,,METAR KSBA 011730Z AUTO 14003KT 10SM CLR 21/08 A2996,,,,,,,,,7.96,,SE,101420.3,101456.2
KSBA,04/01/2019 17:35 UTC,101456.15,22,,40.63,1.54,150,,,,,,,,1,,,,10,,METAR KSBA 011735Z AUTO 15003KT 10SM CLR 22/08 A2996,,,,,,,,,7.97,,SSE,101420.3,101456.08
KSBA,04/01/2019 17:40 UTC,101456.15,23,,33.34,1.54,120,,,,,,,,1,,,,10,,METAR KSBA 011740Z AUTO 12003KT 10SM CLR 23/06 A2996,,,,,,,,,5.98,,ESE,101420.3,101455.96
KSBA,04/01/2019 17:45 UTC,101456.15,23,,31.11,1.54,170,,,,,,,,1,,,,10,,METAR KSBA 011745Z AUTO 17003KT 10SM CLR 23/05 A2996,,,,,,,,,4.98,,S,101420.3,101455.96
KSBA,04/01/2019 17:50 UTC,101456.15,23,,29,1.54,140,,,,,,,,1,,,,10,,METAR KSBA 011750Z AUTO 14003KT 10SM CLR 23/04 A2996,,,,,,,,,3.98,,SE,101420.3,101455.96
KSBA,04/01/2019 17:53 UTC,101490.02,23.3,5,30.55,2.06,130,,101470,,,1005,,,1,,,,10,,METAR KSBA 011753Z 13004KT 10SM CLR 23/05 A2997 RMK AO2 SLP147 T02330050  10233 20100 51005,23.3,10,,,,,,,4.98,,SE,101454.16,101489.8
KSBA,04/01/2019 17:55 UTC,101490.02,23,,33.34,2.06,140,,,,,,,,1,,,,10,,METAR KSBA 011755Z AUTO 14004KT 10SM CLR 23/06 A2997,,,,,,,,,5.98,,SE,101454.16,101489.83
KSBA,04/01/2019 18:00 UTC,101490.02,23,,33.34,1.54,210,,,,,,,,1,,,,10,,METAR KSBA 011800Z AUTO 21003KT 10SM CLR 23/06 A2997,,,,,,,,,5.98,,SSW,101454.16,101489.83
KSBA,04/01/2019 18:05 UTC,101490.02,23,,29,2.06,210,,,,,,,,1,,,,10,,METAR KSBA 011805Z AUTO 21004KT 10SM CLR 23/04 A2997,,,,,,,,,3.98,,SSW,101454.16,101489.83
KSBA,04/01/2019 18:10 UTC,101490.02,23,,33.34,2.57,190,,,,,,,,1,,,,10,,METAR KSBA 011810Z AUTO 19005KT 10SM CLR 23/06 A2997,,,,,,,,,5.98,,S,101454.16,101489.83
KSBA,04/01/2019 18:15 UTC,101490.02,23,,31.11,3.6,210,,,,,,,,1,,,,10,,METAR KSBA 011815Z AUTO 21007KT 10SM CLR 23/05 A2997,,,,,,,,,4.98,,SSW,101454.16,101489.83
KSBA,04/01/2019 18:20 UTC,101456.15,22,,37.95,2.57,200,,,,,,,,1,,,,10,,METAR KSBA 011820Z AUTO 20005KT 10SM CLR 22/07 A2996,,,,,,,,,6.97,,SSW,101420.3,101456.08
KSBA,04/01/2019 18:25 UTC,101456.15,23,,35.72,2.06,200,,,,,,,,1,,,,10,,METAR KSBA 011825Z AUTO 20004KT 10SM CLR 23/07 A2996,,,,,,,,,6.98,,SSW,101420.3,101455.96
KSBA,04/01/2019 18:30 UTC,101456.15,23,,33.34,2.57,190,,,,,,,,1,,,,10,,METAR KSBA 011830Z AUTO 19005KT 10SM CLR 23/06 A2996,,,,,,,,,5.98,,S,101420.3,101455.96
KSBA,04/01/2019 18:35 UTC,101456.15,23,,33.34,2.06,220,,,,,,,,1,,,,10,,METAR KSBA 011835Z AUTO 22004KT 10SM CLR 23/06 A2996,,,,,,,,,5.98,,SW,101420.3,101455.96
KSBA,04/01/2019 18:40 UTC,101456.15,23,,31.11,2.57,210,,,,,,,,1,,,,10,,METAR KSBA 011840Z AUTO 21005KT 10SM CLR 23/05 A2996,,,,,,,,,4.98,,SSW,101420.3,101455.96
KSBA,04/01/2019 18:45 UTC,101456.15,23,,33.34,2.06,200,,,,,,,,1,,,,10,,METAR KSBA 011845Z AUTO 20004KT 10SM CLR 23/06 A2996,,,,,,,,,5.98,,SSW,101420.3,101455.96
KSBA,04/01/2019 18:50 UTC,101456.15,23,,33.34,2.57,220,,,,,,,,1,,,,10,,METAR KSBA 011850Z AUTO 22005KT 10SM CLR 23/06 A2996,,,,,,,,,5.98,,SW,101420.3,101455.96
KSBA,04/01/2019 18:53 UTC,101456.15,22.8,5.6,32.82,2.57,200,,101460,,,,,,1,,,,10,,METAR KSBA 011853Z 20005KT 10SM CLR 23/06 A2996 RMK AO2 SLP146 T02280056,,,,,,,,,5.57,,SSW,101420.3,101455.99
KSBA,04/01/2019 18:55 UTC,101456.15,23,,33.34,2.06,210,,,,,,,,1,,,,10,,METAR KSBA 011855Z AUTO 21004KT 10SM CLR 23/06 A2996,,,,,,,,,5.98,,SSW,101420.3,101455.96
KSBA,04/01/2019 19:00 UTC,101456.15,23,,35.72,2.57,250,,,,,,,,1,,,,10,,METAR KSBA 011900Z AUTO 25005KT 10SM CLR 23/07 A2996,,,,,,,,,6.98,,WSW,101420.3,101455.96
KSBA,04/01/2019 19:05 UTC,101456.15,22,,37.95,2.57,240,,,,,,,,1,,,,10,,METAR KSBA 011905Z AUTO 24005KT 10SM CLR 22/07 A2996,,,,,,,,,6.97,,WSW,101420.3,101456.08
KSBA,04/01/2019 19:10 UTC,101456.15,22,,37.95,3.6,240,,,,,,,,1,,,,10,,METAR KSBA 011910Z AUTO 24007KT 10SM CLR 22/07 A2996,,,,,,,,,6.97,,WSW,101420.3,101456.08
KSBA,04/01/2019 19:15 UTC,101456.15,22,,37.95,3.09,230,,,,,,,,1,,,,10,,METAR KSBA 011915Z AUTO 23006KT 10SM CLR 22/07 A2996,,,,,,,,,6.97,,SW,101420.3,101456.08
KSBA,04/01/2019 19:20 UTC,101456.15,22,,40.63,2.57,250,,,,,,,,1,,,,10,,METAR KSBA 011920Z AUTO 25005KT 10SM CLR 22/08 A2996,,,,,,,,,7.97,,WSW,101420.3,101456.08
KSBA,04/01/2019 19:25 UTC,101456.15,22,,40.63,2.06,270,,,,,,,,1,,,,10,,METAR KSBA 011925Z AUTO 27004KT 10SM CLR 22/08 A2996,,,,,,,,,7.97,,W,101420.3,101456.08
KSBA,04/01/2019 19:30 UTC,101422.29,23,,35.72,2.06,260,,,,,,,,1,,,,10,,METAR KSBA 011930Z AUTO 26004KT 10SM CLR 23/07 A2995,,,,,,,,,6.98,,W,101386.45,101422.1
KSBA,04/01/2019 19:35 UTC,101422.29,23,,35.72,1.54,190,,,,,,,,1,,,,10,,METAR KSBA 011935Z AUTO 19003KT 10SM CLR 23/07 A2995,,,,,,,,,6.98,,S,101386.45,101422.1
KSBA,04/01/2019 19:40 UTC,101422.29,24,,27.31,1.54,190,,,,,,,,1,,,,10,,METAR KSBA 011940Z AUTO 19003KT 10SM CLR 24/04 A2995,,,,,,,,,3.99,,S,101386.45,101421.98
KSBA,04/01/2019 19:45 UTC,101422.29,24,,25.45,2.57,170,,,,,,,,1,,,,10,,METAR KSBA 011945Z AUTO 17005KT 10SM CLR 24/03 A2995,,,,,,,,,2.99,,S,101386.45,101421.98
KSBA,04/01/2019 19:50 UTC,101422.29,24,,25.45,2.06,210,,,,,,,,1,,,,10,,METAR KSBA 011950Z AUTO 21004KT 10SM CLR 24/03 A2995,,,,,,,,,2.99,,SSW,101386.45,101421.98
KSBA,04/01/2019 19:53 UTC,101422.29,23.9,3.9,27.28,2.06,190,,101400,,,,,,1,,,,10,,METAR KSBA 011953Z 19004KT 10SM CLR 24/04 A2995 RMK AO2 SLP140 T02390039,,,,,,,,,3.89,,S,101386.45,101421.99
KSBA,04/01/2019 19:55 UTC,101422.29,24,,27.31,2.06,210,,,,,,,,1,,,,10,,METAR KSBA 011955Z AUTO 21004KT 10SM CLR 24/04 A2995,,,,,,,,,3.99,,SSW,101386.45,101421.98
KSBA,04/01/2019 20:00 UTC,101388.43,23,,29,2.57,210,,,,,,,,1,,,,10,,METAR KSBA 012000Z AUTO 21005KT 10SM CLR 23/04 A2994,,,,,,,,,3.98,,SSW,101352.6,101388.24
KSBA,04/01/2019 20:05 UTC,101388.43,23,,29,2.57,200,,,,,,,,1,,,,10,,METAR KSBA 012005Z AUTO 20005KT 10SM CLR 23/04 A2994,,,,,,,,,3.98,,SSW,101352.6,101388.24
KSBA,04/01/2019 20:10 UTC,101388.43,24,,27.31,2.06,150,,,,,,,,1,,,,10,,METAR KSBA 012010Z AUTO 15004KT 10SM CLR 24/04 A2994,,,,,,,,,3.99,,SSE,101352.6,101388.12
KSBA,04/01/2019 20:15 UTC,101388.43,24,,27.31,2.57,140,,,,,,,,1,,,,10,,METAR KSBA 012015Z AUTO 14005KT 10SM CLR 24/04 A2994,,,,,,,,,3.99,,SE,101352.6,101388.12
KSBA,04/01/2019 20:20 UTC,101388.43,23,,27.03,2.06,160,,,,,,,,1,,,,10,,METAR KSBA 012020Z AUTO 16004KT 10SM CLR 23/03 A2994,,,,,,,,,2.98,,SSE,101352.6,101388.24
KSBA,04/01/2019 20:25 UTC,101388.43,23,,27.03,3.09,160,,,,,,,,1,,,,10,,METAR KSBA 012025Z AUTO 16006KT 10SM CLR 23/03 A2994,,,,,,,,,2.98,,SSE,101352.6,101388.24
KSBA,04/01/2019 20:30 UTC,101388.43,23,,27.03,2.06,150,,,,,,,,1,,,,10,,METAR KSBA 012030Z AUTO 15004KT 10SM CLR 23/03 A2994,,,,,,,,,2.98,,SSE,101352.6,101388.24
KSBA,04/01/2019 20:35 UTC,101354.56,23,,29,2.06,150,,,,,,,,1,,,,10,,METAR KSBA 012035Z AUTO 15004KT 10SM CLR 23/04 A2993,,,,,,,,,3.98,,SSE,101318.74,101354.37
KSBA,04/01/2019 20:40 UTC,101354.56,23,,27.03,2.57,160,,,,,,,,1,,,,10,,METAR KSBA 012040Z AUTO 16005KT 10SM CLR 23/03 A2993,,,,,,,,,2.98,,SSE,101318.74,101354.37
KSBA,04/01/2019 20:45 UTC,101354.56,22,,28.72,2.57,160,,,,,,,,1,,,,10,,METAR KSBA 012045Z AUTO 16005KT 10SM CLR 22/03 A2993,,,,,,,,,2.97,,SSE,101318.74,101354.49
KSBA,04/01/2019 20:50 UTC,101354.56,23,,27.03,2.06,160,,,,,,,,1,,,,10,,METAR KSBA 012050Z AUTO 16004KT 10SM CLR 23/03 A2993,,,,,,,,,2.98,,SSE,101318.74,101354.37
KSBA,04/01/2019 20:53 UTC,101354.56,22.8,3.9,29.15,2.57,160,,101330,,,8014,,,1,,,,10,,METAR KSBA 012053Z 16005KT 10SM CLR 23/04 A2993 RMK AO2 SLP133 T02280039  58014,,,,,,,,,3.88,,SSE,101318.74,101354.39
KSBA,04/01/2019 20:55 UTC,101320.7,23,,29,2.57,140,,,,,,,,1,,,,10,,METAR KSBA 012055Z AUTO 14005KT 10SM CLR 23/04 A2992,,,,,,,,,3.98,,SE,101284.9,101320.52
KSBA,04/01/2019 21:00 UTC,101320.7,23,,31.11,2.06,150,,,,,,,,1,,,,10,,METAR KSBA 012100Z AUTO 15004KT 10SM CLR 23/05 A2992,,,,,,,,,4.98,,SSE,101284.9,101320.51
KSBA,04/01/2019 21:05 UTC,101320.7,23,,31.11,2.57,140,,,,,,,,1,,,,10,,METAR KSBA 012105Z AUTO 14005KT 10SM CLR 23/05 A2992,,,,,,,,,4.98,,SE,101284.9,101320.51
KSBA,04/01/2019 21:10 UTC,101320.7,23,,29,2.06,150,,,,,,,,1,,,,10,,METAR KSBA 012110Z AUTO 15004KT 10SM CLR 23/04 A2992,,,,,,,,,3.98,,SSE,101284.9,101320.52
KSBA,04/01/2019 21:15 UTC,101286.84,23,,29,3.09,140,,,,,,,,1,,,,10,,METAR KSBA 012115Z AUTO 14006KT 10SM CLR 23/04 A2991,,,,,,,,,3.98,,SE,101251.05,101286.65
KSBA,04/01/2019 21:20 UTC,101286.84,23,,29,3.09,140,,,,,,,,1,,,,10,,METAR KSBA 012120Z AUTO 14006KT 10SM CLR 23/04 A2991,,,,,,,,,3.98,,SE,101251.05,101286.65
KSBA,04/01/2019 21:25 UTC,101286.84,23,,29,3.09,170,,,,,,,,1,,,,10,,METAR KSBA 012125Z AUTO 17006KT 10SM CLR 23/04 A2991,,,,,,,,,3.98,,S,101251.05,101286.65
KSBA,04/01/2019 21:30 UTC,101286.84,23,,29,3.09,160,,,,,,,,1,,,,10,,METAR KSBA 012130Z AUTO 16006KT 10SM CLR 23/04 A2991,,,,,,,,,3.98,,SSE,101251.05,101286.65
KSBA,04/01/2019 21:35 UTC,101286.84,23,,29,2.57,170,,,,,,,,1,,,,10,,METAR KSBA 012135Z AUTO 17005KT 10SM CLR 23/04 A2991,,,,,,,,,3.98,,S,101251.05,101286.65
KSBA,04/01/2019 21:40 UTC,101286.84,23,,29,2.57,160,,,,,,,,1,,,,10,,METAR KSBA 012140Z AUTO 16005KT 10SM CLR 23/04 A2991,,,,,,,,,3.98,,SSE,101251.05,101286.65
KSBA,04/01/2019 21:45 UTC,101286.84,23,,29,3.09,170,,,,,,,,1,,,,10,,METAR KSBA 012145Z AUTO 17006KT 10SM CLR 23/04 A2991,,,,,,,,,3.98,,S,101251.05,101286.65
KSBA,04/01/2019 21:50 UTC,101252.97,23,,29,3.09,150,,,,,,,,1,,,,10,,METAR KSBA 012150Z AUTO 15006KT 10SM CLR 23/04 A2990,,,,,,,,,3.98,,SSE,101217.19,101252.78
KSBA,04/01/2019 21:53 UTC,101252.97,22.8,4.4,30.19,3.09,150,,101260,,,,,,1,,,,10,,METAR KSBA 012153Z 15006KT 10SM CLR 23/04 A2990 RMK AO2 SLP126 T02280044,,,,,,,,,4.37,,SSE,101217.19,101252.81
KSBA,04/01/2019 21:55 UTC,101252.97,23,,29,3.09,150,,,,,,,,1,,,,10,,METAR KSBA 012155Z AUTO 15006KT 10SM CLR 23/04 A2990,,,,,,,,,3.98,,SSE,101217.19,101252.78
KSBA,04/01/2019 22:00 UTC,101252.97,23,,29,2.57,210,,,,,,,,1,,,,10,,METAR KSBA 012200Z AUTO 21005KT 10SM CLR 23/04 A2990,,,,,,,,,3.98,,SSW,101217.19,101252.78
KSBA,04/01/2019 22:05 UTC,101252.97,23,,27.03,2.57,200,,,,,,,,1,,,,10,,METAR KSBA 012205Z AUTO 20005KT 10SM CLR 23/03 A2990,,,,,,,,,2.98,,SSW,101217.19,101252.78
KSBA,04/01/2019 22:10 UTC,101252.97,23,,27.03,2.06,170,,,,,,,,1,,,,10,,METAR KSBA 012210Z AUTO 17004KT 10SM CLR 23/03 A2990,,,,,,,,,2.98,,S,101217.19,101252.78
KSBA,04/01/2019 22:15 UTC,101252.97,22,,28.72,2.57,200,,,,,,,,1,,,,10,,METAR KSBA 012215Z AUTO 20005KT 10SM CLR 22/03 A2990,,,,,,,,,2.97,,SSW,101217.19,101252.9
KSBA,04/01/2019 22:20 UTC,101252.97,22,,28.72,2.06,190,,,,,,,,1,,,,10,,METAR KSBA 012220Z AUTO 19004KT 10SM CLR 22/03 A2990,,,,,,,,,2.97,,S,101217.19,101252.9
KSBA,04/01/2019 22:25 UTC,101252.97,23,,29,2.06,190,,,,,,,,1,,,,10,,METAR KSBA 012225Z AUTO 19004KT 10SM CLR 23/04 A2990,,,,,,,,,3.98,,S,101217.19,101252.78
KSBA,04/01/2019 22:30 UTC,101252.97,23,,27.03,1.54,220,,,,,,,,1,,,,10,,METAR KSBA 012230Z AUTO 22003KT 10SM CLR 23/03 A2990,,,,,,,,,2.98,,SW,101217.19,101252.78
KSBA,04/01/2019 22:35 UTC,101219.11,22,,28.72,1.54,190,,,,,,,,1,,,,10,,METAR KSBA 012235Z AUTO 19003KT 10SM CLR 22/03 A2989,,,,,,,,,2.97,,S,101183.34,101219.04
KSBA,04/01/2019 22:40 UTC,101219.11,23,,29,2.06,270,,,,,,,,1,,,,10,,METAR KSBA 012240Z AUTO 27004KT 10SM CLR 23/04 A2989,,,,,,,,,3.98,,W,101183.34,101218.92
KSBA,04/01/2019 22:45 UTC,101219.11,22,,35.42,2.06,270,,,,,,,,1,,,,10,,METAR KSBA 012245Z AUTO 27004KT 10SM CLR 22/06 A2989,,,,,,,,,5.96,,W,101183.34,101219.04
KSBA,04/01/2019 22:50 UTC,101219.11,22,,35.42,0,0,,,,,,,,1,,,,10,,METAR KSBA 012250Z AUTO 00000KT 10SM CLR 22/06 A2989,,,,,,,,,5.96,,N,101183.34,101219.04
KSBA,04/01/2019 22:53 UTC,101219.11,22.8,4.4,30.19,0,0,,101210,,,,,,1,,,,10,,METAR KSBA 012253Z 00000KT 10SM CLR 23/04 A2989 RMK AO2 SLP121 T02280044,,,,,,,,,4.37,,N,101183.34,101218.94
KSBA,04/01/2019 22:55 UTC,101219.11,23,,29,0,0,,,,,,,,1,,,,10,,METAR KSBA 012255Z AUTO 00000KT 10SM CLR 23/04 A2989,,,,,,,,,3.98,,N,101183.34,101218.92
KSBA,04/01/2019 23:00 UTC,101185.24,22,,33.05,0,0,,,,,,,,1,,,,10,,METAR KSBA 012300Z AUTO 00000KT 10SM CLR 22/05 A2988,,,,,,,,,4.97,,N,101149.48,101185.17
KSBA,04/01/2019 23:05 UTC,101185.24,22,,35.42,0,0,,,,,,,,1,,,,10,,METAR KSBA 012305Z AUTO 00000KT 10SM CLR 22/06 A2988,,,,,,,,,5.96,,N,101149.48,101185.17
KSBA,04/01/2019 23:10 UTC,101185.24,23,,31.11,0,0,,,,,,,,1,,,,10,,METAR KSBA 012310Z AUTO 00000KT 10SM CLR 23/05 A2988,,,,,,,,,4.98,,N,101149.48,101185.05
KSBA,04/01/2019 23:15 UTC,101185.24,22,,35.42,0,0,,,,,,,,1,,,,10,,METAR KSBA 012315Z AUTO 00000KT 10SM CLR 22/06 A2988,,,,,,,,,5.96,,N,101149.48,101185.17
KSBA,04/01/2019 23:20 UTC,101185.24,23,,33.34,0,0,,,,,,,,1,,,,10,,METAR KSBA 012320Z AUTO 00000KT 10SM CLR 23/06 A2988,,,,,,,,,5.98,,N,101149.48,101185.05
KSBA,04/01/2019 23:25 UTC,101185.24,22,,35.42,2.57,130,,,,,,,,1,,,,10,,METAR KSBA 012325Z AUTO 13005KT 10SM CLR 22/06 A2988,,,,,,,,,5.96,,SE,101149.48,101185.17
KSBA,04/01/2019 23:30 UTC,101151.38,22,,33.05,2.06,120,,,,,,,,1,,,,10,,METAR KSBA 012330Z AUTO 12004KT 10SM CLR 22/05 A2987,,,,,,,,,4.97,,ESE,101115.64,101151.32
KSBA,04/01/2019 23:35 UTC,101151.38,22,,33.05,2.57,130,,,,,,,,1,,,,10,,METAR KSBA 012335Z AUTO 13005KT 10SM CLR 22/05 A2987,,,,,,,,,4.97,,SE,101115.64,101151.32
KSBA,04/01/2019 23:40 UTC,101151.38,22,,33.05,2.57,140,,,,,,,,1,,,,10,,METAR KSBA 012340Z AUTO 14005KT 10SM CLR 22/05 A2987,,,,,,,,,4.97,,SE,101115.64,101151.32
KSBA,04/01/2019 23:45 UTC,101151.38,22,,37.95,1.54,180,,,,,,,,1,,,,10,,METAR KSBA 012345Z AUTO 18003KT 10SM CLR 22/07 A2987,,,,,,,,,6.97,,S,101115.64,101151.32
KSBA,04/01/2019 23:50 UTC,101151.38,22,,35.42,2.06,190,,,,,,,,1,,,,10,,METAR KSBA 012350Z AUTO 19004KT 10SM CLR 22/06 A2987,,,,,,,,,5.96,,S,101115.64,101151.32
KSBA,04/01/2019 23:53 UTC,101151.38,22.2,5.6,34.04,1.54,210,,101150,,,6018,,,1,,,,10,,METAR KSBA 012353Z 21003KT 10SM CLR 22/06 A2987 RMK AO2 SLP115 T02220056  10244 20217 56018,24.4,21.7,,,,,,,5.57,,SSW,101115.64,101151.29
KSBA,04/01/2019 23:55 UTC,101151.38,22,,35.42,2.57,250,,,,,,,,1,,,,10,,METAR KSBA 012355Z AUTO 25005KT 10SM CLR 22/06 A2987,,,,,,,,,5.96,,WSW,101115.64,101151.32
KSBA,04/02/2019 00:00 UTC,101151.38,21,,40.34,2.57,250,,,,,,,,1,,,,10,,METAR KSBA 020000Z AUTO 25005KT 10SM CLR 21/07 A2987,,,,,,,,,6.96,,WSW,101115.64,101151.44
KSBA,04/02/2019 00:05 UTC,101151.38,22,,35.42,2.57,240,,,,,,,,1,,,,10,,METAR KSBA 020005Z AUTO 24005KT 10SM CLR 22/06 A2987,,,,,,,,,5.96,,WSW,101115.64,101151.32
KSBA,04/02/2019 00:10 UTC,101151.38,22,,35.42,2.57,240,,,,,,,,1,,,,10,,METAR KSBA 020010Z AUTO 24005KT 10SM CLR 22/06 A2987,,,,,,,,,5.96,,WSW,101115.64,101151.32
KSBA,04/02/2019 00:15 UTC,101151.38,22,,30.82,3.09,260,,,,,,,,1,,,,10,,METAR KSBA 020015Z AUTO 26006KT 10SM CLR 22/04 A2987,,,,,,,,,3.97,,W,101115.64,101151.32
KSBA,04/02/2019 00:20 UTC,101151.38,22,,35.42,2.57,250,,,,,,,,1,,,,10,,METAR KSBA 020020Z AUTO 25005KT 10SM CLR 22/06 A2987,,,,,,,,,5.96,,WSW,101115.64,101151.32
KSBA,04/02/2019 00:25 UTC,101151.38,22,,37.95,2.57,260,,,,,,,,1,,,,10,,METAR KSBA 020025Z AUTO 26005KT 10SM CLR 22/07 A2987,,,,,,,,,6.97,,W,101115.64,101151.32
KSBA,04/02/2019 00:30 UTC,101151.38,21,,37.66,3.09,260,,,,,,,,1,,,,10,,METAR KSBA 020030Z AUTO 26006KT 10SM CLR 21/06 A2987,,,,,,,,,5.96,,W,101115.64,101151.44
KSBA,04/02/2019 00:35 UTC,101151.38,21,,37.66,2.57,260,,,,,,,,1,,,,10,,METAR KSBA 020035Z AUTO 26005KT 10SM CLR 21/06 A2987,,,,,,,,,5.96,,W,101115.64,101151.44
KSBA,04/02/2019 00:40 UTC,101151.38,21,,40.34,1.54,260,,,,,,,,1,,,,10,,METAR KSBA 020040Z AUTO 26003KT 10SM CLR 21/07 A2987,,,,,,,,,6.96,,W,101115.64,101151.44
KSBA,04/02/2019 00:45 UTC,101151.38,21,,40.34,1.54,240,,,,,,,,1,,,,10,,METAR KSBA 020045Z AUTO 24003KT 10SM CLR 21/07 A2987,,,,,,,,,6.96,,WSW,101115.64,101151.44
KSBA,04/02/2019 00:50 UTC,101151.38,21,,40.34,2.06,240,,,,,,,,1,,,,10,,METAR KSBA 020050Z AUTO 24004KT 10SM CLR 21/07 A2987,,,,,,,,,6.96,,WSW,101115.64,101151.44
KSBA,04/02/2019 00:53 UTC,101151.38,20.6,7.8,43.67,2.06,230,,101140,,,,,,1,,,,10,,METAR KSBA 020053Z 23004KT 10SM CLR 21/08 A2987 RMK AO2 SLP114 T02060078,,,,,,,,,7.76,,SW,101115.64,101151.49
KSBA,04/02/2019 00:55 UTC,101151.38,21,,43.19,2.57,230,,,,,,,,1,,,,10,,METAR KSBA 020055Z AUTO 23005KT 10SM CLR 21/08 A2987,,,,,,,,,7.96,,SW,101115.64,101151.44
KSBA,04/02/2019 01:00 UTC,101151.38,21,,43.19,2.06,220,,,,,,,,1,,,,10,,METAR KSBA 020100Z AUTO 22004KT 10SM CLR 21/08 A2987,,,,,,,,,7.96,,SW,101115.64,101151.44
KSBA,04/02/2019 01:05 UTC,101151.38,21,,43.19,2.06,210,,,,,,,,1,,,,10,,METAR KSBA 020105Z AUTO 21004KT 10SM CLR 21/08 A2987,,,,,,,,,7.96,,SSW,101115.64,101151.44
KSBA,04/02/2019 01:10 UTC,101151.38,20,,42.9,2.57,230,,,,,,,,1,,,,10,,METAR KSBA 020110Z AUTO 23005KT 10SM CLR 20/07 A2987,,,,,,,,,6.95,,SW,101115.64,101151.56
KSBA,04/02/2019 01:15 UTC,101151.38,20,,42.9,3.6,250,,,,,,,,1,,,,10,,METAR KSBA 020115Z AUTO 25007KT 10SM CLR 20/07 A2987,,,,,,,,,6.95,,WSW,101115.64,101151.56
KSBA,04/02/2019 01:20 UTC,101151.38,19,,48.87,2.57,240,,,,,,,,1,,,,10,,METAR KSBA 020120Z AUTO 24005KT 10SM CLR 19/08 A2987,,,,,,,,,7.95,,WSW,101115.64,101151.68
KSBA,04/02/2019 01:25 UTC,101151.38,19,,48.87,3.6,250,,,,,,,,1,,,,10,,METAR KSBA 020125Z AUTO 25007KT 10SM CLR 19/08 A2987,,,,,,,,,7.95,,WSW,101115.64,101151.68
KSBA,04/02/2019 01:30 UTC,101151.38,19,,48.87,3.09,260,,,,,,,,1,,,,10,,METAR KSBA 020130Z AUTO 26006KT 10SM CLR 19/08 A2987,,,,,,,,,7.95,,W,101115.64,101151.68
KSBA,04/02/2019 01:35 UTC,101151.38,19,,48.87,3.6,260,,,,,,,,1,,,,10,,METAR KSBA 020135Z AUTO 26007KT 10SM CLR 19/08 A2987,,,,,,,,,7.95,,W,101115.64,101151.68
KSBA,04/02/2019 01:40 UTC,101151.38,19,,45.65,3.09,250,,,,,,,,1,,,,10,,METAR KSBA 020140Z AUTO 25006KT 10SM CLR 19/07 A2987,,,,,,,,,6.95,,WSW,101115.64,101151.68
KSBA,04/02/2019 01:45 UTC,101151.38,19,,45.65,3.09,240,,,,,,,,1,,,,10,,METAR KSBA 020145Z AUTO 24006KT 10SM CLR 19/07 A2987,,,,,,,,,6.95,,WSW,101115.64,101151.68
KSBA,04/02/2019 01:50 UTC,101151.38,19,,45.65,3.09,240,,,,,,,,1,,,,10,,METAR KSBA 020150Z AUTO 24006KT 10SM CLR 19/07 A2987,,,,,,,,,6.95,,WSW,101115.64,101151.68
KSBA,04/02/2019 01:53 UTC,101151.38,18.9,7.2,46.57,2.57,250,,101150,,,,,,1,,,,10,,METAR KSBA 020153Z 25005KT 10SM CLR 19/07 A2987 RMK AO2 SLP115 T01890072,,,,,,,,,7.15,,WSW,101115.64,101151.69
KSBA,04/02/2019 01:55 UTC,101151.38,19,,48.87,2.57,250,,,,,,,,1,,,,10,,METAR KSBA 020155Z AUTO 25005KT 10SM CLR 19/08 A2987,,,,,,,,,7.95,,WSW,101115.64,101151.68
KSBA,04/02/2019 02:00 UTC,101151.38,18,,52.03,3.09,260,,,,,,,,1,,,,10,,METAR KSBA 020200Z AUTO 26006KT 10SM CLR 18/08 A2987,,,,,,,,,7.95,,W,101115.64,101151.81
KSBA,04/02/2019 02:05 UTC,101151.38,18,,52.03,2.57,260,,,,,,,,1,,,,10,,METAR KSBA 020205Z AUTO 26005KT 10SM CLR 18/08 A2987,,,,,,,,,7.95,,W,101115.64,101151.81
KSBA,04/02/2019 02:10 UTC,101151.38,18,,55.67,2.06,260,,,,,,,,1,,,,10,,METAR KSBA 020210Z AUTO 26004KT 10SM CLR 18/09 A2987,,,,,,,,,8.95,,W,101115.64,101151.81
KSBA,04/02/2019 02:15 UTC,101151.38,18,,55.67,2.57,260,,,,,,,,1,,,,10,,METAR KSBA 020215Z AUTO 26005KT 10SM CLR 18/09 A2987,,,,,,,,,8.95,,W,101115.64,101151.81
KSBA,04/02/2019 02:20 UTC,101185.24,17,,59.3,3.09,260,,,,,,,,1,,,,10,,METAR KSBA 020220Z AUTO 26006KT 10SM CLR 17/09 A2988,,,,,,,,,8.95,,W,101149.48,101185.78
KSBA,04/02/2019 02:25 UTC,101151.38,17,,67.79,3.6,260,,,,,,,,1,,,,10,,METAR KSBA 020225Z AUTO 26007KT 10SM CLR 17/11 A2987,,,,,,,,,10.96,,W,101115.64,101151.93
KSBA,04/02/2019 02:30 UTC,101185.24,17,,72.42,3.09,250,,,,,,,,1,,,,10,,METAR KSBA 020230Z AUTO 25006KT 10SM CLR 17/12 A2988,,,,,,,,,11.97,,WSW,101149.48,101185.78
KSBA,04/02/2019 02:35 UTC,101185.24,17,,72.42,3.09,250,,,,,,,,1,,,,10,,METAR KSBA 020235Z AUTO 25006KT 10SM CLR 17/12 A2988,,,,,,,,,11.97,,WSW,101149.48,101185.78
KSBA,04/02/2019 02:40 UTC,101185.24,16,,82.4,2.06,260,,,,,,,,1,,,,10,,METAR KSBA 020240Z AUTO 26004KT 10SM CLR 16/13 A2988,,,,,,,,,12.98,,W,101149.48,101185.91
KSBA,04/02/2019 02:45 UTC,101185.24,16,,77.17,0,0,,,,,,,,1,,,,10,,METAR KSBA 020245Z AUTO 00000KT 10SM CLR 16/12 A2988,,,,,,,,,11.97,,N,101149.48,101185.91
KSBA,04/02/2019 02:50 UTC,101185.24,16,,77.17,0,0,,,,,,,,,,,,10,,METAR KSBA 020250Z AUTO 00000KT 10SM 16/12 A2988,,,,,,,,,11.97,,N,101149.48,101185.91
KSBA,04/02/2019 02:53 UTC,101185.24,16.1,12.2,77.69,0,0,,101170,,,3002,,,1602,,,,10,,METAR KSBA 020253Z 00000KT 10SM SCT160 16/12 A2988 RMK AO2 SLP117 T01610122  53002,,,,,,,,,12.17,,N,101149.48,101185.89
KSBA,04/02/2019 02:55 UTC,101185.24,16,,77.17,0,0,,,,,,,,1,,,,10,,METAR KSBA 020255Z AUTO 00000KT 10SM CLR 16/12 A2988,,,,,,,,,11.97,,N,101149.48,101185.91
KSBA,04/02/2019 03:00 UTC,101185.24,16,,77.17,0,0,,,,,,,,1,,,,10,,METAR KSBA 020300Z AUTO 00000KT 10SM CLR 16/12 A2988,,,,,,,,,11.97,,N,101149.48,101185.91
KSBA,04/02/2019 03:05 UTC,101185.24,16,,77.17,0,0,,,,,,,,1,,,,10,,METAR KSBA 020305Z AUTO 00000KT 10SM CLR 16/12 A2988,,,,,,,,,11.97,,N,101149.48,101185.91
KSBA,04/02/2019 03:10 UTC,101185.24,16,,77.17,0,0,,,,,,,,1,,,,10,,METAR KSBA 020310Z AUTO 00000KT 10SM CLR 16/12 A2988,,,,,,,,,11.97,,N,101149.48,101185.91
KSBA,04/02/2019 03:15 UTC,101185.24,16,,77.17,0,0,,,,,,,,1,,,,10,,METAR KSBA 020315Z AUTO 00000KT 10SM CLR 16/12 A2988,,,,,,,,,11.97,,N,101149.48,101185.91
KSBA,04/02/2019 03:20 UTC,101185.24,16,,77.17,0,0,,,,,,,,1,,,,10,,METAR KSBA 020320Z AUTO 00000KT 10SM CLR 16/12 A2988,,,,,,,,,11.97,,N,101149.48,101185.91
KSBA,04/02/2019 03:25 UTC,101185.24,16,,77.17,0,0,,,,,,,,1,,,,10,,METAR KSBA 020325Z AUTO 00000KT 10SM CLR 16/12 A2988,,,,,,,,,11.97,,N,101149.48,101185.91
KSBA,04/02/2019 03:30 UTC,101185.24,14,,82.14,0,0,,,,,,,,1,,,,10,,METAR KSBA 020330Z AUTO 00000KT 10SM CLR 14/11 A2988,,,,,,,,,10.97,,N,101149.48,101186.16
KSBA,04/02/2019 03:35 UTC,101185.24,15,,82.27,1.54,130,,,,,,,,1,,,,10,,METAR KSBA 020335Z AUTO 13003KT 10SM CLR 15/12 A2988,,,,,,,,,11.98,,SE,101149.48,101186.03
KSBA,04/02/2019 03:40 UTC,101219.11,15,,82.27,0,0,,,,,,,,1,,,,10,,METAR KSBA 020340Z AUTO 00000KT 10SM CLR 15/12 A2989,,,,,,,,,11.98,,N,101183.34,101219.91
KSBA,04/02/2019 03:45 UTC,101219.11,14,,87.75,2.06,150,,,,,,,,1,,,,10,,METAR KSBA 020345Z AUTO 15004KT 10SM CLR 14/12 A2989,,,,,,,,,11.98,,SSE,101183.34,101220.03
KSBA,04/02/2019 03:50 UTC,101219.11,14,,87.75,2.06,140,,,,,,,,1,,,,10,,METAR KSBA 020350Z AUTO 14004KT 10SM CLR 14/12 A2989,,,,,,,,,11.98,,SE,101183.34,101220.03
KSBA,04/02/2019 03:53 UTC,101219.11,13.9,12.2,89.49,2.06,150,,101210,,,,,,1,,,,10,,METAR KSBA 020353Z 15004KT 10SM CLR 14/12 A2989 RMK AO2 SLP121 T01390122,,,,,,,,,12.18,,SSE,101183.34,101220.05
KSBA,04/02/2019 03:55 UTC,101219.11,14,,87.75,1.54,140,,,,,,,,1,,,,10,,METAR KSBA 020355Z AUTO 14003KT 10SM CLR 14/12 A2989,,,,,,,,,11.98,,SE,101183.34,101220.03
KSBA,04/02/2019 04:00 UTC,101219.11,14,,93.7,2.06,150,,,,,,,,1,,,,10,,METAR KSBA 020400Z AUTO 15004KT 10SM CLR 14/13 A2989,,,,,,,,,12.99,,SSE,101183.34,101220.03
KSBA,04/02/2019 04:05 UTC,101219.11,14,,93.7,1.54,150,,,,,,,,1,,,,10,,METAR KSBA 020405Z AUTO 15003KT 10SM CLR 14/13 A2989,,,,,,,,,12.99,,SSE,101183.34,101220.03
KSBA,04/02/2019 04:10 UTC,101219.11,14,,93.7,2.06,160,,,,,,,,1,,,,10,,METAR KSBA 020410Z AUTO 16004KT 10SM CLR 14/13 A2989,,,,,,,,,12.99,,SSE,101183.34,101220.03
KSBA,04/02/2019 04:20 UTC,101252.97,14,,93.7,1.54,130,,,,,,,,1,,,,10,,METAR KSBA 020420Z AUTO 13003KT 10SM CLR 14/13 A2990,,,,,,,,,12.99,,SE,101217.19,101253.9
KSBA,04/02/2019 04:25 UTC,101252.97,14,,93.7,0,0,,,,,,,,1,,,,10,,METAR KSBA 020425Z AUTO 00000KT 10SM CLR 14/13 A2990,,,,,,,,,12.99,,N,101217.19,101253.9
KSBA,04/02/2019 04:30 UTC,101252.97,14,,93.7,0,0,,,,,,,,1,,,,10,,METAR KSBA 020430Z AUTO 00000KT 10SM CLR 14/13 A2990,,,,,,,,,12.99,,N,101217.19,101253.9
KSBA,04/02/2019 04:35 UTC,101252.97,14,,87.75,0,0,,,,,,,,1,,,,10,,METAR KSBA 020435Z AUTO 00000KT 10SM CLR 14/12 A2990,,,,,,,,,11.98,,N,101217.19,101253.9
KSBA,04/02/2019 04:40 UTC,101252.97,14,,93.7,0,0,,,,,,,,1,,,,10,,METAR KSBA 020440Z AUTO 00000KT 10SM CLR 14/13 A2990,,,,,,,,,12.99,,N,101217.19,101253.9
KSBA,04/02/2019 04:45 UTC,101252.97,15,,87.85,1.54,110,,,,,,,,1,,,,10,,METAR KSBA 020445Z AUTO 11003KT 10SM CLR 15/13 A2990,,,,,,,,,12.98,,ESE,101217.19,101253.77
KSBA,04/02/2019 04:50 UTC,101252.97,14,,93.7,2.06,100,,,,,,,,1,,,,9,,METAR KSBA 020450Z AUTO 10004KT 9SM CLR 14/13 A2990,,,,,,,,,12.99,,E,101217.19,101253.9
KSBA,04/02/2019 04:53 UTC,101252.97,14.4,13.3,93.11,2.06,100,,101240,,,,,,1,,,,9,,METAR KSBA 020453Z 10004KT 9SM CLR 14/13 A2990 RMK AO2 SLP124 T01440133,,,,,,,,,13.29,,E,101217.19,101253.84
KSBA,04/02/2019 04:55 UTC,101252.97,14,,93.7,1.54,100,,,,,,,,1,,,,9,,METAR KSBA 020455Z AUTO 10003KT 9SM CLR 14/13 A2990,,,,,,,,,12.99,,E,101217.19,101253.9
KSBA,04/02/2019 05:00 UTC,101252.97,14,,93.7,0,0,,,,,,,,1,,,,9,,METAR KSBA 020500Z AUTO 00000KT 9SM CLR 14/13 A2990,,,,,,,,,12.99,,N,101217.19,101253.9
KSBA,04/02/2019 05:05 UTC,101252.97,14,,93.7,0,0,,,,,,,,1,,,,10,,METAR KSBA 020505Z AUTO 00000KT 10SM CLR 14/13 A2990,,,,,,,,,12.99,,N,101217.19,101253.9
KSBA,04/02/2019 05:10 UTC,101252.97,14,,93.7,0,0,,,,,,,,1,,,,9,,METAR KSBA 020510Z AUTO 00000KT 9SM CLR 14/13 A2990,,,,,,,,,12.99,,N,101217.19,101253.9
KSBA,04/02/2019 05:15 UTC,101252.97,14,,93.7,0,0,,,,,,,,1,,,,9,,METAR KSBA 020515Z AUTO 00000KT 9SM CLR 14/13 A2990,,,,,,,,,12.99,,N,101217.19,101253.9
KSBA,04/02/2019 05:20 UTC,101252.97,14,,93.7,0,0,,,,,,,,1,,,,9,,METAR KSBA 020520Z AUTO 00000KT 9SM CLR 14/13 A2990,,,,,,,,,12.99,,N,101217.19,101253.9
KSBA,04/02/2019 05:25 UTC,101252.97,14,,93.7,0,0,,,,,,,,1,,,,9,,METAR KSBA 020525Z AUTO 00000KT 9SM CLR 14/13 A2990,,,,,,,,,12.99,,N,101217.19,101253.9
KSBA,04/02/2019 05:30 UTC,101252.97,14,,93.7,0,0,,,,,,,,1,,,,9,,METAR KSBA 020530Z AUTO 00000KT 9SM CLR 14/13 A2990,,,,,,,,,12.99,,N,101217.19,101253.9
KSBA,04/02/2019 05:35 UTC,101219.11,14,,93.7,0,0,,,,,,,,1,,,,8,,METAR KSBA 020535Z AUTO 00000KT 8SM CLR 14/13 A2989,,,,,,,,,12.99,,N,101183.34,101220.03
KSBA,04/02/2019 05:40 UTC,101219.11,14,,93.7,0,0,,,,,,,,1,,,,8,,METAR KSBA 020540Z AUTO 00000KT 8SM CLR 14/13 A2989,,,,,,,,,12.99,,N,101183.34,101220.03
KSBA,04/02/2019 05:45 UTC,101219.11,14,,93.7,0,0,,,,,,,,1,,,,8,,METAR KSBA 020545Z AUTO 00000KT 8SM CLR 14/13 A2989,,,,,,,,,12.99,,N,101183.34,101220.03
KSBA,04/02/2019 05:50 UTC,101219.11,14,,93.7,0,0,,,,,,,,1,,,,9,,METAR KSBA 020550Z AUTO 00000KT 9SM CLR 14/13 A2989,,,,,,,,,12.99,,N,101183.34,101220.03
KSBA,04/02/2019 05:53 UTC,101219.11,13.9,12.8,93.09,1.54,80,,101220,,,5,,,1,,,,9,,METAR KSBA 020553Z 08003KT 9SM CLR 14/13 A2989 RMK AO2 SLP122 T01390128  10222 20139 50005,22.2,13.9,,,,,,,12.79,,E,101183.34,101220.05
KSBA,04/02/2019 05:55 UTC,101219.11,14,,93.7,1.54,90,,,,,,,,1,,,,9,,METAR KSBA 020555Z AUTO 09003KT 9SM CLR 14/13 A2989,,,,,,,,,12.99,,E,101183.34,101220.03
KSBA,04/02/2019 06:00 UTC,101219.11,14,,93.7,1.54,40,,,,,,,,1,,,,10,,METAR KSBA 020600Z AUTO 04003KT 10SM CLR 14/13 A2989,,,,,,,,,12.99,,NE,101183.34,101220.03
KSBA,04/02/2019 06:05 UTC,101252.97,13,,87.66,0,0,,,,,,,,1,,,,10,,METAR KSBA 020605Z AUTO 00000KT 10SM CLR 13/11 A2990,,,,,,,,,10.98,,N,101217.19,101254.02
KSBA,04/02/2019 06:10 UTC,101252.97,13,,87.66,0,0,,,,,,,,1,,,,10,,METAR KSBA 020610Z AUTO 00000KT 10SM CLR 13/11 A2990,,,,,,,,,10.98,,N,101217.19,101254.02
KSBA,04/02/2019 06:15 UTC,101252.97,13,,82.01,0,0,,,,,,,,1,,,,10,,METAR KSBA 020615Z AUTO 00000KT 10SM CLR 13/10 A2990,,,,,,,,,9.97,,N,101217.19,101254.02
KSBA,04/02/2019 06:20 UTC,101252.97,13,,76.68,0,0,,,,,,,,1,,,,10,,METAR KSBA 020620Z AUTO 00000KT 10SM CLR 13/09 A2990,,,,,,,,,8.96,,N,101217.19,101254.02
KSBA,04/02/2019 06:25 UTC,101252.97,13,,82.01,0,0,,,,,,,,1,,,,10,,METAR KSBA 020625Z AUTO 00000KT 10SM CLR 13/10 A2990,,,,,,,,,9.97,,N,101217.19,101254.02
KSBA,04/02/2019 06:30 UTC,101219.11,13,,87.66,0,0,,,,,,,,1,,,,10,,METAR KSBA 020630Z AUTO 00000KT 10SM CLR 13/11 A2989,,,,,,,,,10.98,,N,101183.34,101220.16
KSBA,04/02/2019 06:35 UTC,101219.11,13,,87.66,1.54,70,,,,,,,,1,,,,10,,METAR KSBA 020635Z AUTO 07003KT 10SM CLR 13/11 A2989,,,,,,,,,10.98,,ENE,101183.34,101220.16
KSBA,04/02/2019 06:40 UTC,101219.11,13,,87.66,1.54,60,,,,,,,,1,,,,10,,METAR KSBA 020640Z AUTO 06003KT 10SM CLR 13/11 A2989,,,,,,,,,10.98,,ENE,101183.34,101220.16
KSBA,04/02/2019 06:45 UTC,101219.11,13,,76.68,0,0,,,,,,,,1,,,,10,,METAR KSBA 020645Z AUTO 00000KT 10SM CLR 13/09 A2989,,,,,,,,,8.96,,N,101183.34,101220.16
KSBA,04/02/2019 06:50 UTC,101219.11,12,,87.57,0,0,,,,,,,,1,,,,8,,METAR KSBA 020650Z AUTO 00000KT 8SM CLR 12/10 A2989,,,,,,,,,9.98,,N,101183.34,101220.29
KSBA,04/02/2019 06:53 UTC,101219.11,12.2,11.1,93,0,0,,101230,31,,,,,1,,,,6,,METAR KSBA 020653Z 00000KT 6SM BR CLR 12/11 A2989 RMK AO2 SLP123 T01220111,,,,,,,,,11.09,,N,101183.34,101220.27
KSBA,04/02/2019 06:55 UTC,101219.11,12,,93.6,0,0,,,31,,,,,1,,,,6,,METAR KSBA 020655Z AUTO 00000KT 6SM BR CLR 12/11 A2989,,,,,,,,,10.99,,N,101183.34,101220.29
KSBA,04/02/2019 07:00 UTC,101219.11,13,,93.65,0,0,,,31,,,,,1,,,,6,,METAR KSBA 020700Z AUTO 00000KT 6SM BR CLR 13/12 A2989,,,,,,,,,11.99,,N,101183.34,101220.16
KSBA,04/02/2019 07:05 UTC,101219.11,13,,93.65,0,0,,,31,,,,,1,,,,6,,METAR KSBA 020705Z AUTO 00000KT 6SM BR CLR 13/12 A2989,,,,,,,,,11.99,,N,101183.34,101220.16
KSBA,04/02/2019 07:10 UTC,101219.11,13,,93.65,0,0,,,31,,,,,1,,,,6,,METAR KSBA 020710Z AUTO 00000KT 6SM BR CLR 13/12 A2989,,,,,,,,,11.99,,N,101183.34,101220.16
KSBA,04/02/2019 07:15 UTC,101219.11,12,,100,0,0,,,31,,,,,1,,,,6,,METAR KSBA 020715Z AUTO 00000KT 6SM BR CLR 12/12 A2989,,,,,,,,,12,,N,101183.34,101220.29
KSBA,04/02/2019 07:20 UTC,101219.11,13,,87.66,0,0,,,,,,,,1,,,,8,,METAR KSBA 020720Z AUTO 00000KT 8SM CLR 13/11 A2989,,,,,,,,,10.98,,N,101183.34,101220.16
KSBA,04/02/2019 07:25 UTC,101219.11,13,,87.66,0,0,,,,,,,,1,,,,9,,METAR KSBA 020725Z AUTO 00000KT 9SM CLR 13/11 A2989,,,,,,,,,10.98,,N,101183.34,101220.16
KSBA,04/02/2019 07:30 UTC,101219.11,12,,81.88,0,0,,,,,,,,1,,,,10,,METAR KSBA 020730Z AUTO 00000KT 10SM CLR 12/09 A2989,,,,,,,,,8.97,,N,101183.34,101220.29
KSBA,04/02/2019 07:35 UTC,101219.11,12,,87.57,0,0,,,,,,,,1,,,,10,,METAR KSBA 020735Z AUTO 00000KT 10SM CLR 12/10 A2989,,,,,,,,,9.98,,N,101183.34,101220.29
KSBA,04/02/2019 07:40 UTC,101219.11,13,,82.01,0,0,,,,,,,,1,,,,10,,METAR KSBA 020740Z AUTO 00000KT 10SM CLR 13/10 A2989,,,,,,,,,9.97,,N,101183.34,101220.16
KSBA,04/02/2019 07:45 UTC,101219.11,12,,87.57,0,0,,,,,,,,1,,,,10,,METAR KSBA 020745Z AUTO 00000KT 10SM CLR 12/10 A2989,,,,,,,,,9.98,,N,101183.34,101220.29
KSBA,04/02/2019 07:50 UTC,101219.11,13,,87.66,0,0,,,,,,,,1,,,,9,,METAR KSBA 020750Z AUTO 00000KT 9SM CLR 13/11 A2989,,,,,,,,,10.98,,N,101183.34,101220.16
KSBA,04/02/2019 07:53 UTC,101219.11,12.2,10.6,89.96,0,0,,101200,,,,,,1,,,,9,,METAR KSBA 020753Z 00000KT 9SM CLR 12/11 A2989 RMK AO2 SLP120 T01220106  402440100,,,,,,24.4,10,,10.58,,N,101183.34,101220.27
KSBA,04/02/2019 07:55 UTC,101185.24,12,,93.6,0,0,,,,,,,,1,,,,9,,METAR KSBA 020755Z AUTO 00000KT 9SM CLR 12/11 A2988,,,,,,,,,10.99,,N,101149.48,101186.42
KSBA,04/02/2019 08:00 UTC,101185.24,13,,87.66,0,0,,,,,,,,1,,,,10,,METAR KSBA 020800Z AUTO 00000KT 10SM CLR 13/11 A2988,,,,,,,,,10.98,,N,101149.48,101186.29
KSBA,04/02/2019 08:05 UTC,101185.24,12,,93.6,0,0,,,,,,,,1,,,,10,,METAR KSBA 020805Z AUTO 00000KT 10SM CLR 12/11 A2988,,,,,,,,,10.99,,N,101149.48,101186.42
KSBA,04/02/2019 08:10 UTC,101185.24,13,,87.66,1.54,110,,,,,,,,1,,,,10,,METAR KSBA 020810Z AUTO 11003KT 10SM CLR 13/11 A2988,,,,,,,,,10.98,,ESE,101149.48,101186.29
KSBA,04/02/2019 08:15 UTC,101185.24,13,,87.66,0,0,,,,,,,,1,,,,10,,METAR KSBA 020815Z AUTO 00000KT 10SM CLR 13/11 A2988,,,,,,,,,10.98,,N,101149.48,101186.29
KSBA,04/02/2019 08:20 UTC,101185.24,13,,82.01,2.06,90,,,,,,,,1,,,,10,,METAR KSBA 020820Z AUTO 09004KT 10SM CLR 13/10 A2988,,,,,,,,,9.97,,E,101149.48,101186.29
KSBA,04/02/2019 08:25 UTC,101185.24,13,,87.66,2.57,100,,,,,,,,1,,,,10,,METAR KSBA 020825Z AUTO 10005KT 10SM CLR 13/11 A2988,,,,,,,,,10.98,,E,101149.48,101186.29
KSBA,04/02/2019 08:30 UTC,101185.24,13,,87.66,2.06,100,,,,,,,,1,,,,10,,METAR KSBA 020830Z AUTO 10004KT 10SM CLR 13/11 A2988,,,,,,,,,10.98,,E,101149.48,101186.29
KSBA,04/02/2019 08:35 UTC,101185.24,13,,87.66,1.54,90,,,,,,,,1,,,,10,,METAR KSBA 020835Z AUTO 09003KT 10SM CLR 13/11 A2988,,,,,,,,,10.98,,E,101149.48,101186.29
KSBA,04/02/2019 08:40 UTC,101185.24,13,,87.66,0,0,,,,,,,,1,,,,10,,METAR KSBA 020840Z AUTO 00000KT 10SM CLR 13/11 A2988,,,,,,,,,10.98,,N,101149.48,101186.29
KSBA,04/02/2019 08:45 UTC,101151.38,12,,87.57,0,0,,,,,,,,1,,,,10,,METAR KSBA 020845Z AUTO 00000KT 10SM CLR 12/10 A2987,,,,,,,,,9.98,,N,101115.64,101152.57
KSBA,04/02/2019 08:50 UTC,101151.38,12,,93.6,2.57,110,,,,,,,,1,,,,10,,METAR KSBA 020850Z AUTO 11005KT 10SM CLR 12/11 A2987,,,,,,,,,10.99,,ESE,101115.64,101152.57
KSBA,04/02/2019 08:53 UTC,101151.38,12.8,11.1,89.41,3.09,100,,101130,,,8008,,,1,,,,10,,METAR KSBA 020853Z 10006KT 10SM CLR 13/11 A2987 RMK AO2 SLP113 T01280111  58008,,,,,,,,,11.08,,E,101115.64,101152.46
KSBA,04/02/2019 08:55 UTC,101151.38,13,,93.65,3.6,90,,,,,,,,1,,,,10,,METAR KSBA 020855Z AUTO 09007KT 10SM CLR 13/12 A2987,,,,,,,,,11.99,,E,101115.64,101152.44
KSBA,04/02/2019 09:00 UTC,101117.52,14,,87.75,3.09,90,,,,,,,,1,,,,10,,METAR KSBA 020900Z AUTO 09006KT 10SM CLR 14/12 A2986,,,,,,,,,11.98,,E,101081.79,101118.45
KSBA,04/02/2019 09:05 UTC,101117.52,13,,93.65,3.09,90,,,,,,,,1,,,,10,,METAR KSBA 020905Z AUTO 09006KT 10SM CLR 13/12 A2986,,,,,,,,,11.99,,E,101081.79,101118.57
KSBA,04/02/2019 09:10 UTC,101151.38,13,,93.65,2.57,80,,,,,,,,1,,,,10,,METAR KSBA 020910Z AUTO 08005KT 10SM CLR 13/12 A2987,,,,,,,,,11.99,,E,101115.64,101152.44
KSBA,04/02/2019 09:15 UTC,101151.38,13,,93.65,1.54,60,,,,,,,,1,,,,10,,METAR KSBA 020915Z AUTO 06003KT 10SM CLR 13/12 A2987,,,,,,,,,11.99,,ENE,101115.64,101152.44
KSBA,04/02/2019 09:20 UTC,101151.38,13,,93.65,2.06,20,,,,,,,,1,,,,10,,METAR KSBA 020920Z AUTO 02004KT 10SM CLR 13/12 A2987,,,,,,,,,11.99,,NNE,101115.64,101152.44
KSBA,04/02/2019 09:25 UTC,101117.52,13,,87.66,2.57,40,,,,,,,,1,,,,10,,METAR KSBA 020925Z AUTO 04005KT 10SM CLR 13/11 A2986,,,,,,,,,10.98,,NE,101081.79,101118.57
KSBA,04/02/2019 09:30 UTC,101151.38,13,,87.66,2.06,50,,,,,,,,1,,,,10,,METAR KSBA 020930Z AUTO 05004KT 10SM CLR 13/11 A2987,,,,,,,,,10.98,,NE,101115.64,101152.44
KSBA,04/02/2019 09:35 UTC,101151.38,13,,87.66,2.06,40,,,,,,,,1,,,,10,,METAR KSBA 020935Z AUTO 04004KT 10SM CLR 13/11 A2987,,,,,,,,,10.98,,NE,101115.64,101152.44
KSBA,04/02/2019 09:40 UTC,101185.24,12,,93.6,3.6,270,,,,,,,,1,,,,10,,METAR KSBA 020940Z AUTO 27007KT 10SM CLR 12/11 A2988,,,,,,,,,10.99,,W,101149.48,101186.42
KSBA,04/02/2019 09:45 UTC,101219.11,12,,93.6,2.57,280,,,,,,,,1,,,,10,,METAR KSBA 020945Z AUTO 28005KT 10SM CLR 12/11 A2989,,,,,,,,,10.99,,W,101183.34,101220.29
KSBA,04/02/2019 09:50 UTC,101185.24,12,,93.6,1.54,300,,,,,,,,1,,,,10,,METAR KSBA 020950Z AUTO 30003KT 10SM CLR 12/11 A2988,,,,,,,,,10.99,,WNW,101149.48,101186.42
KSBA,04/02/2019 09:53 UTC,101185.24,11.7,10.6,92.97,0,0,,101170,,,,,,1,,,,10,,METAR KSBA 020953Z 00000KT 10SM CLR 12/11 A2988 RMK AO2 SLP117 T01170106,,,,,,,,,10.59,,N,101149.48,101186.46
KSBA,04/02/2019 09:55 UTC,101185.24,12,,93.6,1.54,340,,,,,,,,1,,,,10,,METAR KSBA 020955Z AUTO 34003KT 10SM CLR 12/11 A2988,,,,,,,,,10.99,,NNW,101149.48,101186.42
KSBA,04/02/2019 10:00 UTC,101185.24,13,,87.66,2.06,10,,,,,,,,1,,,,10,,METAR KSBA 021000Z AUTO 01004KT 10SM CLR 13/11 A2988,,,,,,,,,10.98,,N,101149.48,101186.29
KSBA,04/02/2019 10:05 UTC,101185.24,13,,87.66,2.06,30,,,,,,,,1,,,,10,,METAR KSBA 021005Z AUTO 03004KT 10SM CLR 13/11 A2988,,,,,,,,,10.98,,NNE,101149.48,101186.29
KSBA,04/02/2019 10:10 UTC,101151.38,13,,87.66,2.06,50,,,,,,,,1,,,,10,,METAR KSBA 021010Z AUTO 05004KT 10SM CLR 13/11 A2987,,,,,,,,,10.98,,NE,101115.64,101152.44
KSBA,04/02/2019 10:15 UTC,101151.38,13,,87.66,1.54,30,,,,,,,,1,,,,10,,METAR KSBA 021015Z AUTO 03003KT 10SM CLR 13/11 A2987,,,,,,,,,10.98,,NNE,101115.64,101152.44
KSBA,04/02/2019 10:20 UTC,101185.24,13,,87.66,1.54,40,,,,,,,,1,,,,10,,METAR KSBA 021020Z AUTO 04003KT 10SM CLR 13/11 A2988,,,,,,,,,10.98,,NE,101149.48,101186.29
KSBA,04/02/2019 10:25 UTC,101185.24,13,,87.66,2.06,40,,,,,,,,1,,,,10,,METAR KSBA 021025Z AUTO 04004KT 10SM CLR 13/11 A2988,,,,,,,,,10.98,,NE,101149.48,101186.29
KSBA,04/02/2019 10:30 UTC,101151.38,13,,87.66,1.54,70,,,,,,,,1,,,,10,,METAR KSBA 021030Z AUTO 07003KT 10SM CLR 13/11 A2987,,,,,,,,,10.98,,ENE,101115.64,101152.44
KSBA,04/02/2019 10:35 UTC,101151.38,13,,87.66,1.54,90,,,,,,,,1106,,,,10,,METAR KSBA 021035Z AUTO 09003KT 10SM FEW110 13/11 A2987,,,,,,,,,10.98,,E,101115.64,101152.44
KSBA,04/02/2019 10:40 UTC,101151.38,13,,87.66,2.06,70,,,,,,,,556,1106,,,10,,METAR KSBA 021040Z AUTO 07004KT 10SM FEW055 FEW110 13/11 A2987,,,,,,,,,10.98,,ENE,101115.64,101152.44
KSBA,04/02/2019 10:45 UTC,101151.38,13,,87.66,2.06,60,,,,,,,,506,,,,10,,METAR KSBA 021045Z AUTO 06004KT 10SM FEW050 13/11 A2987,,,,,,,,,10.98,,ENE,101115.64,101152.44
KSBA,04/02/2019 10:50 UTC,101151.38,13,,87.66,1.54,60,,,,,,,,1,,,,10,,METAR KSBA 021050Z AUTO 06003KT 10SM CLR 13/11 A2987,,,,,,,,,10.98,,ENE,101115.64,101152.44
KSBA,04/02/2019 10:53 UTC,101151.38,12.8,11.1,89.41,1.54,70,,101140,,,,,,1,,,,10,,METAR KSBA 021053Z 07003KT 10SM CLR 13/11 A2987 RMK AO2 SLP114 T01280111,,,,,,,,,11.08,,ENE,101115.64,101152.46
KSBA,04/02/2019 10:55 UTC,101151.38,13,,87.66,2.06,70,,,,,,,,1,,,,10,,METAR KSBA 021055Z AUTO 07004KT 10SM CLR 13/11 A2987,,,,,,,,,10.98,,ENE,101115.64,101152.44
KSBA,04/02/2019 11:00 UTC,101151.38,13,,87.66,2.06,60,,,,,,,,1,,,,10,,METAR KSBA 021100Z AUTO 06004KT 10SM CLR 13/11 A2987,,,,,,,,,10.98,,ENE,101115.64,101152.44
KSBA,04/02/2019 11:05 UTC,101151.38,13,,87.66,1.54,50,,,,,,,,1,,,,10,,METAR KSBA 021105Z AUTO 05003KT 10SM CLR 13/11 A2987,,,,,,,,,10.98,,NE,101115.64,101152.44
KSBA,04/02/2019 11:10 UTC,101151.38,13,,87.66,2.06,40,,,,,,,,1,,,,10,,METAR KSBA 021110Z AUTO 04004KT 10SM CLR 13/11 A2987,,,,,,,,,10.98,,NE,101115.64,101152.44
KSBA,04/02/2019 11:15 UTC,101151.38,13,,87.66,2.06,50,,,,,,,,1,,,,10,,METAR KSBA 021115Z AUTO 05004KT 10SM CLR 13/11 A2987,,,,,,,,,10.98,,NE,101115.64,101152.44
KSBA,04/02/2019 11:20 UTC,101151.38,13,,87.66,2.06,70,,,,,,,,1,,,,10,,METAR KSBA 021120Z AUTO 07004KT 10SM CLR 13/11 A2987,,,,,,,,,10.98,,ENE,101115.64,101152.44
KSBA,04/02/2019 11:25 UTC,101151.38,13,,87.66,2.06,60,,,,,,,,1,,,,10,,METAR KSBA 021125Z AUTO 06004KT 10SM CLR 13/11 A2987,,,,,,,,,10.98,,ENE,101115.64,101152.44
KSBA,04/02/2019 11:30 UTC,101151.38,13,,93.65,2.06,60,,,,,,,,1,,,,10,,METAR KSBA 021130Z AUTO 06004KT 10SM CLR 13/12 A2987,,,,,,,,,11.99,,ENE,101115.64,101152.44
KSBA,04/02/2019 11:35 UTC,101117.52,13,,93.65,2.06,60,,,,,,,,1,,,,10,,METAR KSBA 021135Z AUTO 06004KT 10SM CLR 13/12 A2986,,,,,,,,,11.99,,ENE,101081.79,101118.57
KSBA,04/02/2019 11:40 UTC,101117.52,13,,93.65,2.06,60,,,,,,,,1,,,,10,,METAR KSBA 021140Z AUTO 06004KT 10SM CLR 13/12 A2986,,,,,,,,,11.99,,ENE,101081.79,101118.57
KSBA,04/02/2019 11:45 UTC,101151.38,13,,87.66,2.06,60,,,,,,,,1,,,,10,,METAR KSBA 021145Z AUTO 06004KT 10SM CLR 13/11 A2987,,,,,,,,,10.98,,ENE,101115.64,101152.44
KSBA,04/02/2019 11:50 UTC,101117.52,13,,87.66,2.57,40,,,,,,,,1,,,,10,,METAR KSBA 021150Z AUTO 04005KT 10SM CLR 13/11 A2986,,,,,,,,,10.98,,NE,101081.79,101118.57
KSBA,04/02/2019 11:53 UTC,101117.52,13.3,11.1,86.54,2.57,40,,101110,,,8002,,,1,,,,10,,METAR KSBA 021153Z 04005KT 10SM CLR 13/11 A2986 RMK AO2 SLP111 T01330111  10139 20117 58002,13.9,11.7,,,,,,,11.08,,NE,101081.79,101118.54
KSBA,04/02/2019 11:55 UTC,101117.52,13,,87.66,3.09,40,,,,,,,,1,,,,10,,METAR KSBA 021155Z AUTO 04006KT 10SM CLR 13/11 A2986,,,,,,,,,10.98,,NE,101081.79,101118.57
KSBA,04/02/2019 12:00 UTC,101117.52,13,,87.66,2.06,40,,,,,,,,1,,,,10,,METAR KSBA 021200Z AUTO 04004KT 10SM CLR 13/11 A2986,,,,,,,,,10.98,,NE,101081.79,101118.57
KSBA,04/02/2019 12:05 UTC,101117.52,13,,87.66,0,0,,,,,,,,1,,,,10,,METAR KSBA 021205Z AUTO 00000KT 10SM CLR 13/11 A2986,,,,,,,,,10.98,,N,101081.79,101118.57
KSBA,04/02/2019 12:10 UTC,101117.52,13,,87.66,0,0,,,,,,,,1,,,,10,,METAR KSBA 021210Z AUTO 00000KT 10SM CLR 13/11 A2986,,,,,,,,,10.98,,N,101081.79,101118.57
KSBA,04/02/2019 12:15 UTC,101117.52,13,,87.66,0,0,,,,,,,,1,,,,10,,METAR KSBA 021215Z AUTO 00000KT 10SM CLR 13/11 A2986,,,,,,,,,10.98,,N,101081.79,101118.57
KSBA,04/02/2019 12:20 UTC,101117.52,13,,87.66,0,0,,,,,,,,1,,,,10,,METAR KSBA 021220Z AUTO 00000KT 10SM CLR 13/11 A2986,,,,,,,,,10.98,,N,101081.79,101118.57
KSBA,04/02/2019 12:25 UTC,101117.52,13,,87.66,0,0,,,,,,,,1,,,,10,,METAR KSBA 021225Z AUTO 00000KT 10SM CLR 13/11 A2986,,,,,,,,,10.98,,N,101081.79,101118.57
KSBA,04/02/2019 12:30 UTC,101117.52,13,,87.66,0,0,,,,,,,,1,,,,10,,METAR KSBA 021230Z AUTO 00000KT 10SM CLR 13/11 A2986,,,,,,,,,10.98,,N,101081.79,101118.57
KSBA,04/02/2019 12:35 UTC,101151.38,13,,87.66,0,0,,,,,,,,1,,,,10,,METAR KSBA 021235Z AUTO 00000KT 10SM CLR 13/11 A2987,,,,,,,,,10.98,,N,101115.64,101152.44
KSBA,04/02/2019 12:40 UTC,101151.38,13,,87.66,0,0,,,,,,,,1,,,,10,,METAR KSBA 021240Z AUTO 00000KT 10SM CLR 13/11 A2987,,,,,,,,,10.98,,N,101115.64,101152.44
KSBA,04/02/2019 12:45 UTC,101151.38,13,,87.66,0,0,,,,,,,,1206,,,,10,,METAR KSBA 021245Z AUTO 00000KT 10SM FEW120 13/11 A2987,,,,,,,,,10.98,,N,101115.64,101152.44
KSBA,04/02/2019 12:50 UTC,101151.38,13,,87.66,0,0,,,,,,,,1202,,,,10,,METAR KSBA 021250Z AUTO 00000KT 10SM SCT120 13/11 A2987,,,,,,,,,10.98,,N,101115.64,101152.44
KSBA,04/02/2019 12:53 UTC,101151.38,12.8,10.6,86.49,0,0,,101150,,,,,,1203,,,,10,,METAR KSBA 021253Z 00000KT 10SM BKN120 13/11 A2987 RMK AO2 SLP115 T01280106,,,,3657.6,,,,,10.58,,N,101115.64,101152.46
KSBA,04/02/2019 12:55 UTC,101151.38,13,,87.66,0,0,,,,,,,,1203,,,,10,,METAR KSBA 021255Z AUTO 00000KT 10SM BKN120 13/11 A2987,,,,3657.6,,,,,10.98,,N,101115.64,101152.44
KSBA,04/02/2019 13:00 UTC,101151.38,13,,87.66,0,0,,,,,,,,1203,,,,10,,METAR KSBA 021300Z AUTO 00000KT 10SM BKN120 13/11 A2987,,,,3657.6,,,,,10.98,,N,101115.64,101152.44
KSBA,04/02/2019 13:05 UTC,101151.38,13,,87.66,0,0,,,,,,,,1203,,,,10,,METAR KSBA 021305Z AUTO 00000KT 10SM BKN120 13/11 A2987,,,,3657.6,,,,,10.98,,N,101115.64,101152.44
KSBA,04/02/2019 13:10 UTC,101185.24,13,,87.66,0,0,,,,,,,,1203,,,,10,,METAR KSBA 021310Z AUTO 00000KT 10SM BKN120 13/11 A2988,,,,3657.6,,,,,10.98,,N,101149.48,101186.29
KSBA,04/02/2019 13:15 UTC,101185.24,12,,93.6,0,0,,,,,,,,1202,,,,10,,METAR KSBA 021315Z AUTO 00000KT 10SM SCT120 12/11 A2988,,,,,,,,,10.99,,N,101149.48,101186.42
KSBA,04/02/2019 13:20 UTC,101219.11,12,,93.6,2.57,290,,,,,,,,1202,,,,10,,METAR KSBA 021320Z AUTO 29005KT 10SM SCT120 12/11 A2989,,,,,,,,,10.99,,WNW,101183.34,101220.29
KSBA,04/02/2019 13:25 UTC,101252.97,11,,87.48,4.63,280,,,,,,,,1102,,,,10,,METAR KSBA 021325Z AUTO 28009KT 10SM SCT110 11/09 A2990,,,,,,,,,8.98,,W,101217.19,101254.28
KSBA,04/02/2019 13:30 UTC,101286.84,12,,87.57,3.09,270,,,,,,,,106,,,,10,,METAR KSBA 021330Z AUTO 27006KT 10SM FEW010 12/10 A2991,,,,,,,,,9.98,,W,101251.05,101288.03
KSBA,04/02/2019 13:35 UTC,101286.84,12,,87.57,3.09,260,,,,,,,,106,,,,10,,METAR KSBA 021335Z AUTO 26006KT 10SM FEW010 12/10 A2991,,,,,,,,,9.98,,W,101251.05,101288.03
KSBA,04/02/2019 13:40 UTC,101286.84,12,,87.57,2.57,290,,,,,,,,106,,,,10,,METAR KSBA 021340Z AUTO 29005KT 10SM FEW010 12/10 A2991,,,,,,,,,9.98,,WNW,101251.05,101288.03
KSBA,04/02/2019 13:45 UTC,101286.84,12,,87.57,3.09,300,,,,,,,,106,,,,10,,METAR KSBA 021345Z AUTO 30006KT 10SM FEW010 12/10 A2991,,,,,,,,,9.98,,WNW,101251.05,101288.03
KSBA,04/02/2019 13:50 UTC,101320.7,13,,87.66,2.57,300,,,,,,,,106,,,,10,,METAR KSBA 021350Z AUTO 30005KT 10SM FEW010 13/11 A2992,,,,,,,,,10.98,,WNW,101284.9,101321.76
KSBA,04/02/2019 13:53 UTC,101320.7,12.8,10.6,86.49,4.12,310,,101300,,,,,,106,,,,10,,METAR KSBA 021353Z 31008KT 10SM FEW010 13/11 A2992 RMK AO2 SLP130 T01280106,,,,,,,,,10.58,,NW,101284.9,101321.78
KSBA,04/02/2019 13:55 UTC,101320.7,13,,87.66,3.6,310,,,,,,,,1106,,,,10,,METAR KSBA 021355Z AUTO 31007KT 10SM FEW110 13/11 A2992,,,,,,,,,10.98,,NW,101284.9,101321.76
KSBA,04/02/2019 14:00 UTC,101320.7,13,,87.66,3.6,310,,,,,,,,1106,,,,10,,METAR KSBA 021400Z AUTO 31007KT 10SM FEW110 13/11 A2992,,,,,,,,,10.98,,NW,101284.9,101321.76
KSBA,04/02/2019 14:05 UTC,101320.7,13,,87.66,2.06,310,,,,,,,,106,,,,10,,METAR KSBA 021405Z AUTO 31004KT 10SM FEW010 13/11 A2992,,,,,,,,,10.98,,NW,101284.9,101321.76
KSBA,04/02/2019 14:10 UTC,101320.7,13,,87.66,2.57,330,,,,,,,,106,,,,10,,METAR KSBA 021410Z AUTO 33005KT 10SM FEW010 13/11 A2992,,,,,,,,,10.98,,NNW,101284.9,101321.76
KSBA,04/02/2019 14:15 UTC,101320.7,13,,87.66,2.06,20,,,,,,,,106,,,,10,,METAR KSBA 021415Z AUTO 02004KT 10SM FEW010 13/11 A2992,,,,,,,,,10.98,,NNE,101284.9,101321.76
KSBA,04/02/2019 14:20 UTC,101320.7,13,,87.66,2.06,40,,,,,,,,106,,,,10,,METAR KSBA 021420Z AUTO 04004KT 10SM FEW010 13/11 A2992,,,,,,,,,10.98,,NE,101284.9,101321.76
KSBA,04/02/2019 14:25 UTC,101320.7,13,,87.66,2.06,60,,,,,,,,106,,,,10,,METAR KSBA 021425Z AUTO 06004KT 10SM FEW010 13/11 A2992,,,,,,,,,10.98,,ENE,101284.9,101321.76
KSBA,04/02/2019 14:30 UTC,101320.7,13,,87.66,2.06,40,,,,,,,,106,,,,10,,METAR KSBA 021430Z AUTO 04004KT 10SM FEW010 13/11 A2992,,,,,,,,,10.98,,NE,101284.9,101321.76
KSBA,04/02/2019 14:35 UTC,101320.7,14,,82.14,0,0,,,,,,,,106,,,,10,,METAR KSBA 021435Z AUTO 00000KT 10SM FEW010 14/11 A2992,,,,,,,,,10.97,,N,101284.9,101321.63
KSBA,04/02/2019 14:40 UTC,101320.7,14,,82.14,0,0,,,,,,,,106,,,,10,,METAR KSBA 021440Z AUTO 00000KT 10SM FEW010 14/11 A2992,,,,,,,,,10.97,,N,101284.9,101321.63
KSBA,04/02/2019 14:45 UTC,101320.7,14,,82.14,0,0,,,,,,,,106,,,,10,,METAR KSBA 021445Z AUTO 00000KT 10SM FEW010 14/11 A2992,,,,,,,,,10.97,,N,101284.9,101321.63
KSBA,04/02/2019 14:50 UTC,101320.7,14,,82.14,0,0,,,,,,,,106,,,,10,,METAR KSBA 021450Z AUTO 00000KT 10SM FEW010 14/11 A2992,,,,,,,,,10.97,,N,101284.9,101321.63
KSBA,04/02/2019 14:53 UTC,101320.7,13.9,11.1,83.23,0,0,,101320,,,1021,,,106,,,,10,,METAR KSBA 021453Z 00000KT 10SM FEW010 14/11 A2992 RMK AO2 SLP132 T01390111  51021,,,,,,,,,11.08,,N,101284.9,101321.64
KSBA,04/02/2019 14:55 UTC,101320.7,14,,82.14,0,0,,,,,,,,1,,,,10,,METAR KSBA 021455Z AUTO 00000KT 10SM CLR 14/11 A2992,,,,,,,,,10.97,,N,101284.9,101321.63
KSBA,04/02/2019 15:00 UTC,101320.7,14,,82.14,1.54,110,,,,,,,,1,,,,10,,METAR KSBA 021500Z AUTO 11003KT 10SM CLR 14/11 A2992,,,,,,,,,10.97,,ESE,101284.9,101321.63
KSBA,04/02/2019 15:05 UTC,101320.7,14,,82.14,2.57,110,,,,,,,,1,,,,10,,METAR KSBA 021505Z AUTO 11005KT 10SM CLR 14/11 A2992,,,,,,,,,10.97,,ESE,101284.9,101321.63
KSBA,04/02/2019 15:10 UTC,101320.7,15,,82.27,3.6,90,,,,,,,,1,,,,10,,METAR KSBA 021510Z AUTO 09007KT 10SM CLR 15/12 A2992,,,,,,,,,11.98,,E,101284.9,101321.5
KSBA,04/02/2019 15:15 UTC,101320.7,15,,82.27,3.09,100,,,,,,,,1,,,,10,,METAR KSBA 021515Z AUTO 10006KT 10SM CLR 15/12 A2992,,,,,,,,,11.98,,E,101284.9,101321.5
KSBA,04/02/2019 15:20 UTC,101320.7,16,,77.17,3.6,110,,,,,,,,1,,,,10,,METAR KSBA 021520Z AUTO 11007KT 10SM CLR 16/12 A2992,,,,,,,,,11.97,,ESE,101284.9,101321.38
KSBA,04/02/2019 15:25 UTC,101354.56,16,,77.17,4.12,110,,,,,,,,1,,,,10,,METAR KSBA 021525Z AUTO 11008KT 10SM CLR 16/12 A2993,,,,,,,,,11.97,,ESE,101318.74,101355.23
KSBA,04/02/2019 15:30 UTC,101354.56,16,,77.17,3.09,130,,,,,,,,1,,,,10,,METAR KSBA 021530Z AUTO 13006KT 10SM CLR 16/12 A2993,,,,,,,,,11.97,,SE,101318.74,101355.23
KSBA,04/02/2019 15:35 UTC,101354.56,16,,82.4,3.09,140,,,,,,,,1,,,,10,,METAR KSBA 021535Z AUTO 14006KT 10SM CLR 16/13 A2993,,,,,,,,,12.98,,SE,101318.74,101355.23
KSBA,04/02/2019 15:40 UTC,101354.56,16,,77.17,3.09,150,,,,,,,,1,,,,10,,METAR KSBA 021540Z AUTO 15006KT 10SM CLR 16/12 A2993,,,,,,,,,11.97,,SSE,101318.74,101355.23
KSBA,04/02/2019 15:45 UTC,101354.56,16,,82.4,3.6,150,,,,,,,,1,,,,10,,METAR KSBA 021545Z AUTO 15007KT 10SM CLR 16/13 A2993,,,,,,,,,12.98,,SSE,101318.74,101355.23
KSBA,04/02/2019 15:50 UTC,101354.56,16,,82.4,3.6,150,,,,,,,,106,,,,10,,METAR KSBA 021550Z AUTO 15007KT 10SM FEW010 16/13 A2993,,,,,,,,,12.98,,SSE,101318.74,101355.23
KSBA,04/02/2019 15:53 UTC,101354.56,15.6,12.8,83.43,3.6,150,,101360,,,,,,106,,,,10,,METAR KSBA 021553Z 15007KT 10SM FEW010 16/13 A2993 RMK AO2 SLP136 T01560128,,,,,,,,,12.78,,SSE,101318.74,101355.28
KSBA,04/02/2019 15:55 UTC,101388.43,16,,82.4,3.6,150,,,,,,,,1,,,,9,,METAR KSBA 021555Z AUTO 15007KT 9SM CLR 16/13 A2994,,,,,,,,,12.98,,SSE,101352.6,101389.1
KSBA,04/02/2019 16:00 UTC,101388.43,16,,82.4,3.09,150,,,,,,,,1,,,,10,,METAR KSBA 021600Z AUTO 15006KT 10SM CLR 16/13 A2994,,,,,,,,,12.98,,SSE,101352.6,101389.1
KSBA,04/02/2019 16:05 UTC,101388.43,16,,82.4,3.09,140,,,,,,,,1,,,,10,,METAR KSBA 021605Z AUTO 14006KT 10SM CLR 16/13 A2994,,,,,,,,,12.98,,SE,101352.6,101389.1
KSBA,04/02/2019 16:10 UTC,101388.43,16,,82.4,3.6,130,,,,,,,,1,,,,10,,METAR KSBA 021610Z AUTO 13007KT 10SM CLR 16/13 A2994,,,,,,,,,12.98,,SE,101352.6,101389.1
KSBA,04/02/2019 16:15 UTC,101388.43,16,,77.17,3.6,130,,,,,,,,1,,,,10,,METAR KSBA 021615Z AUTO 13007KT 10SM CLR 16/12 A2994,,,,,,,,,11.97,,SE,101352.6,101389.1
KSBA,04/02/2019 16:20 UTC,101388.43,16,,77.17,3.6,120,,,,,,,,1,,,,10,,METAR KSBA 021620Z AUTO 12007KT 10SM CLR 16/12 A2994,,,,,,,,,11.97,,ESE,101352.6,101389.1
KSBA,04/02/2019 16:25 UTC,101388.43,16,,77.17,4.63,140,,,,,,,,1,,,,10,,METAR KSBA 021625Z AUTO 14009KT 10SM CLR 16/12 A2994,,,,,,,,,11.97,,SE,101352.6,101389.1
KSBA,04/02/2019 16:30 UTC,101388.43,16,,77.17,4.12,120,,,,,,,,1,,,,10,,METAR KSBA 021630Z AUTO 12008KT 10SM CLR 16/12 A2994,,,,,,,,,11.97,,ESE,101352.6,101389.1
KSBA,04/02/2019 16:35 UTC,101388.43,16,,77.17,4.12,130,,,,,,,,1,,,,10,,METAR KSBA 021635Z AUTO 13008KT 10SM CLR 16/12 A2994,,,,,,,,,11.97,,SE,101352.6,101389.1
KSBA,04/02/2019 16:40 UTC,101388.43,16,,77.17,4.12,130,,,,,,,,1,,,,10,,METAR KSBA 021640Z AUTO 13008KT 10SM CLR 16/12 A2994,,,,,,,,,11.97,,SE,101352.6,101389.1
KSBA,04/02/2019 16:45 UTC,101388.43,16,,77.17,4.63,120,,,,,,,,1,,,,10,,METAR KSBA 021645Z AUTO 12009KT 10SM CLR 16/12 A2994,,,,,,,,,11.97,,ESE,101352.6,101389.1
KSBA,04/02/2019 16:50 UTC,101388.43,17,,77.33,4.12,140,,,,,,,,1,,,,10,,METAR KSBA 021650Z AUTO 14008KT 10SM CLR 17/13 A2994,,,,,,,,,12.97,,SE,101352.6,101388.97
KSBA,04/02/2019 16:53 UTC,101388.43,16.7,12.8,77.79,5.14,150,,101370,,,,,,1,,,,10,,METAR KSBA 021653Z 15010KT 10SM CLR 17/13 A2994 RMK AO2 SLP137 T01670128,,,,,,,,,12.77,,SSE,101352.6,101389.01
KSBA,04/02/2019 16:55 UTC,101388.43,16,,77.17,5.66,140,,,,,,,,1,,,,10,,METAR KSBA 021655Z AUTO 14011KT 10SM CLR 16/12 A2994,,,,,,,,,11.97,,SE,101352.6,101389.1
KSBA,04/02/2019 17:00 UTC,101388.43,16,,77.17,5.14,140,,,,,,,,1,,,,10,,METAR KSBA 021700Z AUTO 14010KT 10SM CLR 16/12 A2994,,,,,,,,,11.97,,SE,101352.6,101389.1
KSBA,04/02/2019 17:05 UTC,101388.43,17,,72.42,4.63,140,,,,,,,,1,,,,10,,METAR KSBA 021705Z AUTO 14009KT 10SM CLR 17/12 A2994,,,,,,,,,11.97,,SE,101352.6,101388.97
KSBA,04/02/2019 17:10 UTC,101388.43,17,,72.42,6.69,140,,,,,,,,1,,,,10,,METAR KSBA 021710Z AUTO 14013KT 10SM CLR 17/12 A2994,,,,,,,,,11.97,,SE,101352.6,101388.97
KSBA,04/02/2019 17:15 UTC,101422.29,17,,72.42,4.63,140,,,,,,,,1,,,,10,,METAR KSBA 021715Z AUTO 14009KT 10SM CLR 17/12 A2995,,,,,,,,,11.97,,SE,101386.45,101422.84
KSBA,04/02/2019 17:20 UTC,101422.29,16,,77.17,6.17,140,,,,,,,,1,,,,10,,METAR KSBA 021720Z AUTO 14012KT 10SM CLR 16/12 A2995,,,,,,,,,11.97,,SE,101386.45,101422.96
KSBA,04/02/2019 17:25 UTC,101422.29,17,,72.42,5.66,140,,,,,,,,1,,,,10,,METAR KSBA 021725Z AUTO 14011KT 10SM CLR 17/12 A2995,,,,,,,,,11.97,,SE,101386.45,101422.84
KSBA,04/02/2019 17:30 UTC,101422.29,17,,72.42,5.14,140,,,,,,,,1,,,,10,,METAR KSBA 021730Z AUTO 14010KT 10SM CLR 17/12 A2995,,,,,,,,,11.97,,SE,101386.45,101422.84
KSBA,04/02/2019 17:35 UTC,101422.29,17,,72.42,5.14,140,,,,,,,,1,,,,10,,METAR KSBA 021735Z AUTO 14010KT 10SM CLR 17/12 A2995,,,,,,,,,11.97,,SE,101386.45,101422.84
KSBA,04/02/2019 17:40 UTC,101422.29,17,,72.42,5.14,140,,,,,,,,1,,,,10,,METAR KSBA 021740Z AUTO 14010KT 10SM CLR 17/12 A2995,,,,,,,,,11.97,,SE,101386.45,101422.84
KSBA,04/02/2019 17:45 UTC,101422.29,17,,77.33,4.63,140,,,,,,,,1,,,,10,,METAR KSBA 021745Z AUTO 14009KT 10SM CLR 17/13 A2995,,,,,,,,,12.97,,SE,101386.45,101422.84
KSBA,04/02/2019 17:50 UTC,101456.15,17,,72.42,4.63,140,,,,,,,,1,,,,10,,METAR KSBA 021750Z AUTO 14009KT 10SM CLR 17/12 A2996,,,,,,,,,11.97,,SE,101420.3,101456.7
KSBA,04/02/2019 17:53 UTC,101456.15,17.2,12.2,72.45,5.14,150,,101430,,,3011,,,206,,,,10,,KSBA 021753Z 15010KT 10SM FEW020 17/12 A2996 RMK AO2 SLP143  T01720122 10172 20111 53011,17.2,11.1,,,,,,,12.17,,SSE,101420.3,101456.67
KSBA,04/02/2019 17:55 UTC,101456.15,17,,72.42,5.14,150,,,,,,,,206,,,,10,,METAR KSBA 021755Z AUTO 15010KT 10SM FEW020 17/12 A2996,,,,,,,,,11.97,,SSE,101420.3,101456.7
KSBA,04/02/2019 18:00 UTC,101456.15,17,,72.42,5.14,150,,,,,,,,206,,,,10,,METAR KSBA 021800Z AUTO 15010KT 10SM FEW020 17/12 A2996,,,,,,,,,11.97,,SSE,101420.3,101456.7
KSBA,04/02/2019 18:05 UTC,101456.15,17,,72.42,4.63,140,,,,,,,,206,,,,10,,METAR KSBA 021805Z AUTO 14009KT 10SM FEW020 17/12 A2996,,,,,,,,,11.97,,SE,101420.3,101456.7
KSBA,04/02/2019 18:10 UTC,101456.15,17,,72.42,4.63,140,,,,,,,,206,,,,10,,METAR KSBA 021810Z AUTO 14009KT 10SM FEW020 17/12 A2996,,,,,,,,,11.97,,SE,101420.3,101456.7
KSBA,04/02/2019 18:15 UTC,101456.15,17,,72.42,5.66,150,,,,,,,,206,,,,10,,METAR KSBA 021815Z AUTO 15011KT 10SM FEW020 17/12 A2996,,,,,,,,,11.97,,SSE,101420.3,101456.7
KSBA,04/02/2019 18:20 UTC,101456.15,17,,72.42,5.14,140,,,,,,,,206,,,,10,,METAR KSBA 021820Z AUTO 14010KT 10SM FEW020 17/12 A2996,,,,,,,,,11.97,,SE,101420.3,101456.7
KSBA,04/02/2019 18:25 UTC,101456.15,17,,72.42,4.63,160,,,,,,,,206,,,,10,,METAR KSBA 021825Z AUTO 16009KT 10SM FEW020 17/12 A2996,,,,,,,,,11.97,,SSE,101420.3,101456.7
KSBA,04/02/2019 18:30 UTC,101456.15,17,,72.42,5.66,140,,,,,,,,206,,,,10,,METAR KSBA 021830Z AUTO 14011KT 10SM FEW020 17/12 A2996,,,,,,,,,11.97,,SE,101420.3,101456.7
KSBA,04/02/2019 18:35 UTC,101456.15,17,,72.42,5.66,140,,,,,,,,206,,,,10,,METAR KSBA 021835Z AUTO 14011KT 10SM FEW020 17/12 A2996,,,,,,,,,11.97,,SE,101420.3,101456.7
KSBA,04/02/2019 18:40 UTC,101456.15,17,,72.42,4.63,150,,,,,,,,206,,,,10,,METAR KSBA 021840Z AUTO 15009KT 10SM FEW020 17/12 A2996,,,,,,,,,11.97,,SSE,101420.3,101456.7
KSBA,04/02/2019 18:45 UTC,101456.15,18,,72.6,4.63,150,,,,,,,,206,,,,10,,METAR KSBA 021845Z AUTO 15009KT 10SM FEW020 18/13 A2996,,,,,,,,,12.97,,SSE,101420.3,101456.57
KSBA,04/02/2019 18:50 UTC,101456.15,17,,72.42,4.63,160,,,,,,,,206,,,,10,,METAR KSBA 021850Z AUTO 16009KT 10SM FEW020 17/12 A2996,,,,,,,,,11.97,,SSE,101420.3,101456.7
KSBA,04/02/2019 18:53 UTC,101456.15,17.2,12.2,72.45,5.14,160,,101450,,,,,,206,,,,10,,METAR KSBA 021853Z 16010KT 10SM FEW020 17/12 A2996 RMK AO2 SLP145 T01720122,,,,,,,,,12.17,,SSE,101420.3,101456.67
KSBA,04/02/2019 18:55 UTC,101456.15,17,,72.42,4.63,150,,,,,,,,1,,,,10,,METAR KSBA 021855Z AUTO 15009KT 10SM CLR 17/12 A2996,,,,,,,,,11.97,,SSE,101420.3,101456.7
KSBA,04/02/2019 19:00 UTC,101456.15,17,,72.42,4.63,160,,,,,,,,1,,,,10,,METAR KSBA 021900Z AUTO 16009KT 10SM CLR 17/12 A2996,,,,,,,,,11.97,,SSE,101420.3,101456.7
KSBA,04/02/2019 19:05 UTC,101490.02,18,,72.6,4.63,190,,,,,,,,606,,,,10,,METAR KSBA 021905Z AUTO 19009KT 10SM FEW060 18/13 A2997,,,,,,,,,12.97,,S,101454.16,101490.45
KSBA,04/02/2019 19:10 UTC,101490.02,17,,77.33,3.6,190,,,,,,,,602,,,,10,,METAR KSBA 021910Z AUTO 19007KT 10SM SCT060 17/13 A2997,,,,,,,,,12.97,,S,101454.16,101490.57
KSBA,04/02/2019 19:15 UTC,101490.02,18,,72.6,3.6,220,,,,,,,,296,602,,,10,,METAR KSBA 021915Z AUTO 22007KT 10SM FEW029 SCT060 18/13 A2997,,,,,,,,,12.97,,SW,101454.16,101490.45
KSBA,04/02/2019 19:20 UTC,101490.02,18,,72.6,3.6,190,,,,,,,,296,602,,,10,,METAR KSBA 021920Z AUTO 19007KT 10SM FEW029 SCT060 18/13 A2997,,,,,,,,,12.97,,S,101454.16,101490.45
KSBA,04/02/2019 19:25 UTC,101490.02,18,,72.6,4.12,220,,,,,,,,296,602,,,10,,METAR KSBA 021925Z AUTO 22008KT 10SM FEW029 SCT060 18/13 A2997,,,,,,,,,12.97,,SW,101454.16,101490.45
KSBA,04/02/2019 19:30 UTC,101490.02,17,,77.33,4.12,260,,,,,,,,296,602,,,10,,METAR KSBA 021930Z AUTO 26008KT 10SM FEW029 SCT060 17/13 A2997,,,,,,,,,12.97,,W,101454.16,101490.57
KSBA,04/02/2019 19:35 UTC,101456.15,17,,72.42,3.09,240,,,,,,,,296,606,,,10,,METAR KSBA 021935Z AUTO 24006KT 10SM FEW029 FEW060 17/12 A2996,,,,,,,,,11.97,,WSW,101420.3,101456.7
KSBA,04/02/2019 19:40 UTC,101456.15,17,,72.42,2.06,200,,,,,,,,296,,,,10,,METAR KSBA 021940Z AUTO 20004KT 10SM FEW029 17/12 A2996,,,,,,,,,11.97,,SSW,101420.3,101456.7
KSBA,04/02/2019 19:45 UTC,101456.15,18,,67.99,3.6,230,,,,,,,,1,,,,10,,METAR KSBA 021945Z AUTO 23007KT 10SM CLR 18/12 A2996,,,,,,,,,11.96,,SW,101420.3,101456.57
KSBA,04/02/2019 19:50 UTC,101456.15,18,,67.99,3.09,200,,,,,,,,1,,,,10,,METAR KSBA 021950Z AUTO 20006KT 10SM CLR 18/12 A2996,,,,,,,,,11.96,,SSW,101420.3,101456.57
KSBA,04/02/2019 19:53 UTC,101456.15,17.8,12.2,69.77,3.09,,,101450,,,,,,256,,,,10,,METAR KSBA 021953Z VRB06KT 10SM FEW025 18/12 A2996 RMK AO2 SLP145 T01780122,,,,,,,,,12.17,,,101420.3,101456.6
KSBA,04/02/2019 19:55 UTC,101456.15,17,,72.42,3.09,240,,,,,,,,1,,,,10,,METAR KSBA 021955Z AUTO 24006KT 10SM CLR 17/12 A2996,,,,,,,,,11.97,,WSW,101420.3,101456.7
KSBA,04/02/2019 20:00 UTC,101456.15,18,,67.99,2.57,240,,,,,,,,1,,,,10,,METAR KSBA 022000Z AUTO 24005KT 10SM CLR 18/12 A2996,,,,,,,,,11.96,,WSW,101420.3,101456.57
KSBA,04/02/2019 20:05 UTC,101456.15,18,,67.99,4.12,270,,,,,,,,196,,,,10,,METAR KSBA 022005Z AUTO 27008KT 10SM FEW019 18/12 A2996,,,,,,,,,11.96,,W,101420.3,101456.57
KSBA,04/02/2019 20:10 UTC,101456.15,18,,67.99,3.09,270,,,,,,,,196,,,,10,,METAR KSBA 022010Z AUTO 27006KT 10SM FEW019 18/12 A2996,,,,,,,,,11.96,,W,101420.3,101456.57
KSBA,04/02/2019 20:15 UTC,101456.15,18,,67.99,3.6,250,,,,,,,,206,286,,,10,,METAR KSBA 022015Z AUTO 25007KT 10SM FEW020 FEW028 18/12 A2996,,,,,,,,,11.96,,WSW,101420.3,101456.57
KSBA,04/02/2019 20:20 UTC,101456.15,17,,72.42,3.6,270,,,,,,,,206,286,,,10,,METAR KSBA 022020Z AUTO 27007KT 10SM FEW020 FEW028 17/12 A2996,,,,,,,,,11.97,,W,101420.3,101456.7
KSBA,04/02/2019 20:25 UTC,101422.29,18,,67.99,3.09,250,,,,,,,,206,286,,,10,,METAR KSBA 022025Z AUTO 25006KT 10SM FEW020 FEW028 18/12 A2995,,,,,,,,,11.96,,WSW,101386.45,101422.71
KSBA,04/02/2019 20:30 UTC,101422.29,18,,67.99,3.09,200,,,,,,,,206,286,,,10,,METAR KSBA 022030Z AUTO 20006KT 10SM FEW020 FEW028 18/12 A2995,,,,,,,,,11.96,,SSW,101386.45,101422.71
KSBA,04/02/2019 20:35 UTC,101422.29,18,,67.99,3.6,210,,,,,,,,286,,,,10,,METAR KSBA 022035Z AUTO 21007KT 10SM FEW028 18/12 A2995,,,,,,,,,11.96,,SSW,101386.45,101422.71
KSBA,04/02/2019 20:40 UTC,101422.29,18,,63.64,3.6,220,,,,,,,,286,,,,10,,METAR KSBA 022040Z AUTO 22007KT 10SM FEW028 18/11 A2995,,,,,,,,,10.96,,SW,101386.45,101422.71
KSBA,04/02/2019 20:45 UTC,101422.29,18,,63.64,4.63,240,,,,,,,,286,,,,10,,METAR KSBA 022045Z AUTO 24009KT 10SM FEW028 18/11 A2995,,,,,,,,,10.96,,WSW,101386.45,101422.71
KSBA,04/02/2019 20:50 UTC,101422.29,18,,63.64,4.63,250,,,,,,,,286,,,,10,,METAR KSBA 022050Z AUTO 25009KT 10SM FEW028 18/11 A2995,,,,,,,,,10.96,,WSW,101386.45,101422.71
KSBA,04/02/2019 20:53 UTC,101422.29,17.8,11.1,64.88,4.12,260,,101420,,,8001,,,286,,,,10,,METAR KSBA 022053Z 26008KT 10SM FEW028 18/11 A2995 RMK AO2 SLP142 T01780111  58001,,,,,,,,,11.06,,W,101386.45,101422.74
KSBA,04/02/2019 20:55 UTC,101422.29,18,,63.64,5.14,260,,,,,,,,286,,,,10,,METAR KSBA 022055Z AUTO 26010KT 10SM FEW028 18/11 A2995,,,,,,,,,10.96,,W,101386.45,101422.71
KSBA,04/02/2019 21:00 UTC,101422.29,18,,63.64,4.63,250,,,,,,,,1,,,,10,,METAR KSBA 022100Z AUTO 25009KT 10SM CLR 18/11 A2995,,,,,,,,,10.96,,WSW,101386.45,101422.71
KSBA,04/02/2019 21:05 UTC,101422.29,18,,63.64,5.14,250,,,,,,,,1,,,,10,,METAR KSBA 022105Z AUTO 25010KT 10SM CLR 18/11 A2995,,,,,,,,,10.96,,WSW,101386.45,101422.71
KSBA,04/02/2019 21:10 UTC,101422.29,17,,67.79,5.14,240,,,,,,,,1,,,,10,,METAR KSBA 022110Z AUTO 24010KT 10SM CLR 17/11 A2995,,,,,,,,,10.96,,WSW,101386.45,101422.84
KSBA,04/02/2019 21:15 UTC,101422.29,18,,67.99,4.63,240,,,,,,,,1,,,,10,,METAR KSBA 022115Z AUTO 24009KT 10SM CLR 18/12 A2995,,,,,,,,,11.96,,WSW,101386.45,101422.71
KSBA,04/02/2019 21:20 UTC,101422.29,17,,67.79,4.63,240,,,,,,,,1,,,,10,,METAR KSBA 022120Z AUTO 24009KT 10SM CLR 17/11 A2995,,,,,,,,,10.96,,WSW,101386.45,101422.84
KSBA,04/02/2019 21:25 UTC,101388.43,17,,67.79,4.63,240,,,,,,,,1,,,,10,,METAR KSBA 022125Z AUTO 24009KT 10SM CLR 17/11 A2994,,,,,,,,,10.96,,WSW,101352.6,101388.97
KSBA,04/02/2019 21:30 UTC,101388.43,17,,67.79,5.14,240,,,,,,,,1,,,,10,,METAR KSBA 022130Z AUTO 24010KT 10SM CLR 17/11 A2994,,,,,,,,,10.96,,WSW,101352.6,101388.97
KSBA,04/02/2019 21:35 UTC,101388.43,17,,72.42,5.14,250,,,,,,,,1,,,,10,,METAR KSBA 022135Z AUTO 25010KT 10SM CLR 17/12 A2994,,,,,,,,,11.97,,WSW,101352.6,101388.97
KSBA,04/02/2019 21:40 UTC,101388.43,17,,72.42,5.66,260,,,,,,,,1,,,,10,,METAR KSBA 022140Z AUTO 26011KT 10SM CLR 17/12 A2994,,,,,,,,,11.97,,W,101352.6,101388.97
KSBA,04/02/2019 21:45 UTC,101388.43,17,,72.42,5.14,260,,,,,,,,1,,,,10,,METAR KSBA 022145Z AUTO 26010KT 10SM CLR 17/12 A2994,,,,,,,,,11.97,,W,101352.6,101388.97
KSBA,04/02/2019 21:50 UTC,101388.43,17,,72.42,4.63,240,,,,,,,,1,,,,10,,METAR KSBA 022150Z AUTO 24009KT 10SM CLR 17/12 A2994,,,,,,,,,11.97,,WSW,101352.6,101388.97
KSBA,04/02/2019 21:53 UTC,101388.43,17.2,11.1,67.38,5.66,240,,101370,,,,,,356,,,,10,,METAR KSBA 022153Z 24011KT 10SM FEW035 17/11 A2994 RMK AO2 SLP137 T01720111,,,,,,,,,11.06,,WSW,101352.6,101388.95
KSBA,04/02/2019 21:55 UTC,101388.43,18,,63.64,5.14,250,,,,,,,,1,,,,10,,METAR KSBA 022155Z AUTO 25010KT 10SM CLR 18/11 A2994,,,,,,,,,10.96,,WSW,101352.6,101388.85
KSBA,04/02/2019 22:00 UTC,101354.56,17,,67.79,5.66,270,,,,,,,,1,,,,10,,METAR KSBA 022200Z AUTO 27011KT 10SM CLR 17/11 A2993,,,,,,,,,10.96,,W,101318.74,101355.1
KSBA,04/02/2019 22:05 UTC,101354.56,18,,63.64,5.14,270,,,,,,,,1,,,,10,,METAR KSBA 022205Z AUTO 27010KT 10SM CLR 18/11 A2993,,,,,,,,,10.96,,W,101318.74,101354.98
KSBA,04/02/2019 22:10 UTC,101354.56,17,,63.42,5.14,260,,,,,,,,1,,,,10,,METAR KSBA 022210Z AUTO 26010KT 10SM CLR 17/10 A2993,,,,,,,,,9.96,,W,101318.74,101355.1
KSBA,04/02/2019 22:15 UTC,101354.56,18,,59.54,5.14,270,,,,,,,,1,,,,10,,METAR KSBA 022215Z AUTO 27010KT 10SM CLR 18/10 A2993,,,,,,,,,9.95,,W,101318.74,101354.98
KSBA,04/02/2019 22:20 UTC,101354.56,17,,67.79,5.66,250,,,,,,,,1,,,,10,,METAR KSBA 022220Z AUTO 25011KT 10SM CLR 17/11 A2993,,,,,,,,,10.96,,WSW,101318.74,101355.1
KSBA,04/02/2019 22:25 UTC,101354.56,17,,67.79,5.66,260,,,,,,,,1,,,,10,,METAR KSBA 022225Z AUTO 26011KT 10SM CLR 17/11 A2993,,,,,,,,,10.96,,W,101318.74,101355.1
KSBA,04/02/2019 22:30 UTC,101354.56,17,,63.42,6.17,260,,,,,,,,1,,,,10,,METAR KSBA 022230Z AUTO 26012KT 10SM CLR 17/10 A2993,,,,,,,,,9.96,,W,101318.74,101355.1
KSBA,04/02/2019 22:35 UTC,101354.56,17,,63.42,5.66,260,,,,,,,,1,,,,10,,METAR KSBA 022235Z AUTO 26011KT 10SM CLR 17/10 A2993,,,,,,,,,9.96,,W,101318.74,101355.1
KSBA,04/02/2019 22:40 UTC,101354.56,17,,63.42,5.66,260,,,,,,,,1,,,,10,,METAR KSBA 022240Z AUTO 26011KT 10SM CLR 17/10 A2993,,,,,,,,,9.96,,W,101318.74,101355.1
KSBA,04/02/2019 22:45 UTC,101354.56,17,,59.3,5.14,250,,,,,,,,1,,,,10,,METAR KSBA 022245Z AUTO 25010KT 10SM CLR 17/09 A2993,,,,,,,,,8.95,,WSW,101318.74,101355.1
KSBA,04/02/2019 22:50 UTC,101354.56,17,,59.3,6.17,250,,,,,,,,356,,,,10,,METAR KSBA 022250Z AUTO 25012KT 10SM FEW035 17/09 A2993,,,,,,,,,8.95,,WSW,101318.74,101355.1
KSBA,04/02/2019 22:53 UTC,101354.56,17.2,8.9,58.16,5.66,250,,101340,,,,,,356,,,,10,,KSBA 022253Z 25011KT 10SM FEW035 17/09 A2993 RMK AO2 SLP134  T01720089,,,,,,,,,8.85,,WSW,101318.74,101355.08
KSBA,04/02/2019 22:55 UTC,101354.56,17,,59.3,5.66,250,,,,,,,,1,,,,10,,METAR KSBA 022255Z AUTO 25011KT 10SM CLR 17/09 A2993,,,,,,,,,8.95,,WSW,101318.74,101355.1
KSBA,04/02/2019 23:00 UTC,101354.56,17,,55.41,6.17,260,,,,,,,,1,,,,10,,METAR KSBA 022300Z AUTO 26012KT 10SM CLR 17/08 A2993,,,,,,,,,7.94,,W,101318.74,101355.1
KSBA,04/02/2019 23:05 UTC,101354.56,17,,59.3,5.66,260,,,,,,,,1,,,,10,,METAR KSBA 022305Z AUTO 26011KT 10SM CLR 17/09 A2993,,,,,,,,,8.95,,W,101318.74,101355.1
KSBA,04/02/2019 23:10 UTC,101354.56,17,,59.3,6.17,260,,,,,,,,1,,,,10,,METAR KSBA 022310Z AUTO 26012KT 10SM CLR 17/09 A2993,,,,,,,,,8.95,,W,101318.74,101355.1
KSBA,04/02/2019 23:15 UTC,101354.56,18,,55.67,5.14,260,7.72,,,,,,,1,,,,10,,METAR KSBA 022315Z AUTO 26010G15KT 10SM CLR 18/09 A2993,,,,,,,,,8.95,,W,101318.74,101354.98
KSBA,04/02/2019 23:20 UTC,101354.56,17,,63.42,6.17,260,,,,,,,,1,,,,10,,METAR KSBA 022320Z AUTO 26012KT 10SM CLR 17/10 A2993,,,,,,,,,9.96,,W,101318.74,101355.1
KSBA,04/02/2019 23:25 UTC,101320.7,17,,67.79,6.17,260,,,,,,,,1,,,,10,,METAR KSBA 022325Z AUTO 26012KT 10SM CLR 17/11 A2992,,,,,,,,,10.96,,W,101284.9,101321.25
KSBA,04/02/2019 23:30 UTC,101354.56,17,,67.79,5.66,250,8.75,,,,,,,1,,,,10,,METAR KSBA 022330Z AUTO 25011G17KT 10SM CLR 17/11 A2993,,,,,,,,,10.96,,WSW,101318.74,101355.1
KSBA,04/02/2019 23:35 UTC,101320.7,17,,67.79,6.17,250,,,,,,,,1,,,,10,,METAR KSBA 022335Z AUTO 25012KT 10SM CLR 17/11 A2992,,,,,,,,,10.96,,WSW,101284.9,101321.25
KSBA,04/02/2019 23:40 UTC,101320.7,17,,67.79,6.69,250,,,,,,,,1,,,,10,,METAR KSBA 022340Z AUTO 25013KT 10SM CLR 17/11 A2992,,,,,,,,,10.96,,WSW,101284.9,101321.25
KSBA,04/02/2019 23:45 UTC,101320.7,17,,72.42,6.69,250,,,,,,,,1,,,,10,,METAR KSBA 022345Z AUTO 25013KT 10SM CLR 17/12 A2992,,,,,,,,,11.97,,WSW,101284.9,101321.25
KSBA,04/02/2019 23:50 UTC,101320.7,17,,72.42,7.72,260,,,,,,,,556,,,,10,,METAR KSBA 022350Z AUTO 26015KT 10SM FEW055 17/12 A2992,,,,,,,,,11.97,,W,101284.9,101321.25
KSBA,04/02/2019 23:53 UTC,101320.7,16.7,11.7,72.36,7.2,270,,101320,,,6009,,,556,,,,10,,METAR KSBA 022353Z 27014KT 10SM FEW055 17/12 A2992 RMK AO2 SLP132 T01670117  10183 20167 56009,18.3,16.7,,,,,,,11.67,,W,101284.9,101321.29
KSBA,04/02/2019 23:55 UTC,101320.7,17,,72.42,7.2,260,,,,,,,,556,,,,10,,METAR KSBA 022355Z AUTO 26014KT 10SM FEW055 17/12 A2992,,,,,,,,,11.97,,W,101284.9,101321.25
KSBA,04/03/2019 00:00 UTC,101320.7,17,,72.42,7.72,260,,,,,,,,556,,,,10,,METAR KSBA 030000Z AUTO 26015KT 10SM FEW055 17/12 A2992,,,,,,,,,11.97,,W,101284.9,101321.25
KSBA,04/03/2019 00:05 UTC,101354.56,17,,72.42,7.72,260,,,,,,,,556,,,,10,,METAR KSBA 030005Z AUTO 26015KT 10SM FEW055 17/12 A2993,,,,,,,,,11.97,,W,101318.74,101355.1
KSBA,04/03/2019 00:10 UTC,101354.56,16,,77.17,6.17,260,,,,,,,,556,,,,10,,METAR KSBA 030010Z AUTO 26012KT 10SM FEW055 16/12 A2993,,,,,,,,,11.97,,W,101318.74,101355.23
KSBA,04/03/2019 00:15 UTC,101354.56,16,,77.17,7.2,280,,,,,,,,1,,,,10,,METAR KSBA 030015Z AUTO 28014KT 10SM CLR 16/12 A2993,,,,,,,,,11.97,,W,101318.74,101355.23
KSBA,04/03/2019 00:20 UTC,101354.56,17,,77.33,6.17,280,,,,,,,,656,,,,10,,METAR KSBA 030020Z AUTO 28012KT 10SM FEW065 17/13 A2993,,,,,,,,,12.97,,W,101318.74,101355.1
KSBA,04/03/2019 00:25 UTC,101354.56,16,,82.4,6.17,260,,,,,,,,116,602,,,10,,METAR KSBA 030025Z AUTO 26012KT 10SM FEW011 SCT060 16/13 A2993,,,,,,,,,12.98,,W,101318.74,101355.23
KSBA,04/03/2019 00:30 UTC,101354.56,16,,82.4,5.66,270,,,,,,,,112,602,,,10,,METAR KSBA 030030Z AUTO 27011KT 10SM SCT011 SCT060 16/13 A2993,,,,,,,,,12.98,,W,101318.74,101355.23
KSBA,04/03/2019 00:35 UTC,101354.56,16,,82.4,7.2,270,,,,,,,,112,603,,,10,,METAR KSBA 030035Z AUTO 27014KT 10SM SCT011 BKN060 16/13 A2993,,,,1828.8,,,,,12.98,,W,101318.74,101355.23
KSBA,04/03/2019 00:37 UTC,101354.56,15.6,12.8,83.43,6.17,260,9.26,,,,,,,113,,,,10,,KSBA 030037Z 26012G18KT 10SM BKN011 16/13 A2993 RMK AO2  T01560128,,,,335.28,,,,,12.78,,W,101318.74,101355.28
KSBA,04/03/2019 00:40 UTC,101354.56,16,,82.4,8.23,270,,,,,,,,113,,,,10,,METAR KSBA 030040Z AUTO 27016KT 10SM BKN011 16/13 A2993,,,,335.28,,,,,12.98,8.15,W,101318.74,101355.23
KSBA,04/03/2019 00:45 UTC,101354.56,15,,82.27,6.17,290,,,,,,,,113,,,,10,,METAR KSBA 030045Z AUTO 29012KT 10SM BKN011 15/12 A2993,,,,335.28,,,,,11.98,,WNW,101318.74,101355.36
KSBA,04/03/2019 00:50 UTC,101320.7,15,,87.85,7.2,260,,,,,,,,93,,,,10,,METAR KSBA 030050Z AUTO 26014KT 10SM BKN009 15/13 A2992,,,,274.32,,,,,12.98,,W,101284.9,101321.5
KSBA,04/03/2019 00:53 UTC,101320.7,15,12.8,86.7,7.2,270,,101330,,,,,,113,,,,10,,KSBA 030053Z COR 27014KT 10SM BKN011 15/13 A2992 RMK AO2 CIG  008V012 SLP133 T01500128,,,,335.28,,,,,12.78,,W,101284.9,101321.5
KSBA,04/03/2019 00:55 UTC,101320.7,15,,87.85,5.66,270,,,,,,,,94,,,,10,,METAR KSBA 030055Z AUTO 27011KT 10SM OVC009 15/13 A2992,,,,274.32,,,,,12.98,,W,101284.9,101321.5
KSBA,04/03/2019 01:00 UTC,101320.7,15,,87.85,5.66,270,,,,,,,,94,,,,10,,METAR KSBA 030100Z AUTO 27011KT 10SM OVC009 15/13 A2992,,,,274.32,,,,,12.98,,W,101284.9,101321.5
KSBA,04/03/2019 01:05 UTC,101320.7,15,,87.85,5.66,270,,,,,,,,83,,,,10,,METAR KSBA 030105Z AUTO 27011KT 10SM BKN008 15/13 A2992,,,,243.84,,,,,12.98,,W,101284.9,101321.5
KSBA,04/03/2019 01:10 UTC,101320.7,15,,87.85,4.63,270,,,,,,,,83,123,,,10,,METAR KSBA 030110Z AUTO 27009KT 10SM BKN008 BKN012 15/13 A2992,,,,243.84,,,,,12.98,,W,101284.9,101321.5
KSBA,04/03/2019 01:15 UTC,101320.7,16,,82.4,4.63,260,,,,,,,,93,123,,,10,,METAR KSBA 030115Z AUTO 26009KT 10SM BKN009 BKN012 16/13 A2992,,,,274.32,,,,,12.98,,W,101284.9,101321.38
KSBA,04/03/2019 01:20 UTC,101320.7,16,,82.4,4.63,290,,,,,,,,96,122,,,10,,METAR KSBA 030120Z AUTO 29009KT 10SM FEW009 SCT012 16/13 A2992,,,,,,,,,12.98,,WNW,101284.9,101321.38
KSBA,04/03/2019 01:21 UTC,101320.7,15.6,12.8,83.43,4.12,280,,,,,,,,96,122,,,10,,KSBA 030121Z 28008KT 10SM FEW009 SCT012 16/13 A2992 RMK AO2  T01560128,,,,,,,,,12.78,,W,101284.9,101321.43
KSBA,04/03/2019 01:25 UTC,101320.7,15,,87.85,4.12,280,,,,,,,,126,,,,10,,METAR KSBA 030125Z AUTO 28008KT 10SM FEW012 15/13 A2992,,,,,,,,,12.98,,W,101284.9,101321.5
KSBA,04/03/2019 01:30 UTC,101320.7,15,,87.85,5.66,270,,,,,,,,96,,,,10,,METAR KSBA 030130Z AUTO 27011KT 10SM FEW009 15/13 A2992,,,,,,,,,12.98,,W,101284.9,101321.5
KSBA,04/03/2019 01:35 UTC,101320.7,15,,87.85,5.14,280,,,,,,,,96,,,,10,,METAR KSBA 030135Z AUTO 28010KT 10SM FEW009 15/13 A2992,,,,,,,,,12.98,,W,101284.9,101321.5
KSBA,04/03/2019 01:40 UTC,101320.7,15,,87.85,4.12,270,,,,,,,,106,,,,10,,METAR KSBA 030140Z AUTO 27008KT 10SM FEW010 15/13 A2992,,,,,,,,,12.98,,W,101284.9,101321.5
KSBA,04/03/2019 01:45 UTC,101320.7,15,,87.85,3.09,290,,,,,,,,106,,,,10,,METAR KSBA 030145Z AUTO 29006KT 10SM FEW010 15/13 A2992,,,,,,,,,12.98,,WNW,101284.9,101321.5
KSBA,04/03/2019 01:50 UTC,101320.7,16,,82.4,3.09,280,,,,,,,,106,,,,10,,METAR KSBA 030150Z AUTO 28006KT 10SM FEW010 16/13 A2992,,,,,,,,,12.98,,W,101284.9,101321.38
KSBA,04/03/2019 01:53 UTC,101320.7,15.6,12.8,83.43,2.57,290,,101300,,,,,,106,,,,10,,METAR KSBA 030153Z 29005KT 10SM FEW010 16/13 A2992 RMK AO2 SLP130 T01560128,,,,,,,,,12.78,,WNW,101284.9,101321.43
KSBA,04/03/2019 01:55 UTC,101320.7,16,,82.4,3.09,280,,,,,,,,106,,,,10,,METAR KSBA 030155Z AUTO 28006KT 10SM FEW010 16/13 A2992,,,,,,,,,12.98,,W,101284.9,101321.38
KSBA,04/03/2019 02:00 UTC,101320.7,16,,82.4,3.09,280,,,,,,,,1,,,,10,,METAR KSBA 030200Z AUTO 28006KT 10SM CLR 16/13 A2992,,,,,,,,,12.98,,W,101284.9,101321.38
KSBA,04/03/2019 02:05 UTC,101320.7,16,,82.4,2.57,270,,,,,,,,1,,,,10,,METAR KSBA 030205Z AUTO 27005KT 10SM CLR 16/13 A2992,,,,,,,,,12.98,,W,101284.9,101321.38
KSBA,04/03/2019 02:10 UTC,101320.7,16,,77.17,2.06,270,,,,,,,,1,,,,10,,METAR KSBA 030210Z AUTO 27004KT 10SM CLR 16/12 A2992,,,,,,,,,11.97,,W,101284.9,101321.38
KSBA,04/03/2019 02:15 UTC,101320.7,16,,77.17,3.09,250,,,,,,,,1,,,,10,,METAR KSBA 030215Z AUTO 25006KT 10SM CLR 16/12 A2992,,,,,,,,,11.97,,WSW,101284.9,101321.38
KSBA,04/03/2019 02:20 UTC,101320.7,16,,77.17,3.6,260,,,,,,,,1,,,,10,,METAR KSBA 030220Z AUTO 26007KT 10SM CLR 16/12 A2992,,,,,,,,,11.97,,W,101284.9,101321.38
KSBA,04/03/2019 02:25 UTC,101320.7,16,,77.17,4.63,280,,,,,,,,1,,,,10,,METAR KSBA 030225Z AUTO 28009KT 10SM CLR 16/12 A2992,,,,,,,,,11.97,,W,101284.9,101321.38
KSBA,04/03/2019 02:30 UTC,101320.7,16,,72.23,6.17,270,,,,,,,,1,,,,10,,METAR KSBA 030230Z AUTO 27012KT 10SM CLR 16/11 A2992,,,,,,,,,10.96,,W,101284.9,101321.38
KSBA,04/03/2019 02:35 UTC,101354.56,15,,77.01,5.14,270,,,,,,,,1,,,,10,,METAR KSBA 030235Z AUTO 27010KT 10SM CLR 15/11 A2993,,,,,,,,,10.97,,W,101318.74,101355.36
KSBA,04/03/2019 02:40 UTC,101354.56,15,,82.27,4.63,280,,,,,,,,1,,,,10,,METAR KSBA 030240Z AUTO 28009KT 10SM CLR 15/12 A2993,,,,,,,,,11.98,,W,101318.74,101355.36
KSBA,04/03/2019 02:45 UTC,101320.7,14,,87.75,4.12,270,,,,,,,,1,,,,10,,METAR KSBA 030245Z AUTO 27008KT 10SM CLR 14/12 A2992,,,,,,,,,11.98,,W,101284.9,101321.63
KSBA,04/03/2019 02:50 UTC,101320.7,14,,87.75,4.12,270,,,,,,,,1,,,,10,,METAR KSBA 030250Z AUTO 27008KT 10SM CLR 14/12 A2992,,,,,,,,,11.98,,W,101284.9,101321.63
KSBA,04/03/2019 02:53 UTC,101320.7,14.4,11.7,83.84,4.12,280,,101320,,,5001,,,1,,,,10,,METAR KSBA 030253Z 28008KT 10SM CLR 14/12 A2992 RMK AO2 SLP132 T01440117  55001,,,,,,,,,11.68,,W,101284.9,101321.58
KSBA,04/03/2019 02:55 UTC,101320.7,14,,82.14,3.09,290,,,,,,,,1,,,,10,,METAR KSBA 030255Z AUTO 29006KT 10SM CLR 14/11 A2992,,,,,,,,,10.97,,WNW,101284.9,101321.63
KSBA,04/03/2019 03:00 UTC,101320.7,14,,82.14,3.09,280,,,,,,,,1,,,,10,,METAR KSBA 030300Z AUTO 28006KT 10SM CLR 14/11 A2992,,,,,,,,,10.97,,W,101284.9,101321.63
KSBA,04/03/2019 03:05 UTC,101320.7,14,,82.14,3.6,280,,,,,,,,1,,,,10,,METAR KSBA 030305Z AUTO 28007KT 10SM CLR 14/11 A2992,,,,,,,,,10.97,,W,101284.9,101321.63
KSBA,04/03/2019 03:10 UTC,101354.56,14,,82.14,2.57,270,,,,,,,,1,,,,10,,METAR KSBA 030310Z AUTO 27005KT 10SM CLR 14/11 A2993,,,,,,,,,10.97,,W,101318.74,101355.48
KSBA,04/03/2019 03:15 UTC,101354.56,14,,82.14,3.6,280,,,,,,,,1,,,,10,,METAR KSBA 030315Z AUTO 28007KT 10SM CLR 14/11 A2993,,,,,,,,,10.97,,W,101318.74,101355.48
KSBA,04/03/2019 03:20 UTC,101354.56,14,,82.14,4.12,270,,,,,,,,1,,,,10,,METAR KSBA 030320Z AUTO 27008KT 10SM CLR 14/11 A2993,,,,,,,,,10.97,,W,101318.74,101355.48
KSBA,04/03/2019 03:25 UTC,101354.56,14,,82.14,3.6,270,,,,,,,,1,,,,10,,METAR KSBA 030325Z AUTO 27007KT 10SM CLR 14/11 A2993,,,,,,,,,10.97,,W,101318.74,101355.48
KSBA,04/03/2019 03:30 UTC,101354.56,14,,82.14,3.09,280,,,,,,,,1,,,,10,,METAR KSBA 030330Z AUTO 28006KT 10SM CLR 14/11 A2993,,,,,,,,,10.97,,W,101318.74,101355.48
KSBA,04/03/2019 03:35 UTC,101354.56,14,,82.14,3.6,280,,,,,,,,1,,,,10,,METAR KSBA 030335Z AUTO 28007KT 10SM CLR 14/11 A2993,,,,,,,,,10.97,,W,101318.74,101355.48
KSBA,04/03/2019 03:40 UTC,101354.56,14,,82.14,4.12,270,,,,,,,,1,,,,10,,METAR KSBA 030340Z AUTO 27008KT 10SM CLR 14/11 A2993,,,,,,,,,10.97,,W,101318.74,101355.48
KSBA,04/03/2019 03:45 UTC,101354.56,14,,82.14,3.6,270,,,,,,,,1,,,,10,,METAR KSBA 030345Z AUTO 27007KT 10SM CLR 14/11 A2993,,,,,,,,,10.97,,W,101318.74,101355.48
KSBA,04/03/2019 03:50 UTC,101354.56,14,,82.14,4.12,270,,,,,,,,1,,,,10,,METAR KSBA 030350Z AUTO 27008KT 10SM CLR 14/11 A2993,,,,,,,,,10.97,,W,101318.74,101355.48
KSBA,04/03/2019 03:53 UTC,101354.56,13.9,10.6,80.51,3.09,270,,101360,,,,,,1,,,,10,,METAR KSBA 030353Z 27006KT 10SM CLR 14/11 A2993 RMK AO2 SLP136 T01390106,,,,,,,,,10.57,,W,101318.74,101355.5
KSBA,04/03/2019 03:55 UTC,101354.56,14,,82.14,3.09,270,,,,,,,,1,,,,10,,METAR KSBA 030355Z AUTO 27006KT 10SM CLR 14/11 A2993,,,,,,,,,10.97,,W,101318.74,101355.48
KSBA,04/03/2019 04:00 UTC,101354.56,14,,82.14,2.57,270,,,,,,,,1,,,,10,,METAR KSBA 030400Z AUTO 27005KT 10SM CLR 14/11 A2993,,,,,,,,,10.97,,W,101318.74,101355.48
KSBA,04/03/2019 04:05 UTC,101388.43,13,,87.66,2.57,280,,,,,,,,1,,,,10,,METAR KSBA 030405Z AUTO 28005KT 10SM CLR 13/11 A2994,,,,,,,,,10.98,,W,101352.6,101389.48
KSBA,04/03/2019 04:10 UTC,101388.43,13,,87.66,2.57,290,,,,,,,,1,,,,10,,METAR KSBA 030410Z AUTO 29005KT 10SM CLR 13/11 A2994,,,,,,,,,10.98,,WNW,101352.6,101389.48
KSBA,04/03/2019 04:15 UTC,101388.43,13,,87.66,3.6,270,,,,,,,,1,,,,10,,METAR KSBA 030415Z AUTO 27007KT 10SM CLR 13/11 A2994,,,,,,,,,10.98,,W,101352.6,101389.48
KSBA,04/03/2019 04:20 UTC,101388.43,13,,87.66,3.09,290,,,,,,,,1,,,,10,,METAR KSBA 030420Z AUTO 29006KT 10SM CLR 13/11 A2994,,,,,,,,,10.98,,WNW,101352.6,101389.48
KSBA,04/03/2019 04:25 UTC,101388.43,13,,87.66,3.09,290,,,,,,,,1,,,,10,,METAR KSBA 030425Z AUTO 29006KT 10SM CLR 13/11 A2994,,,,,,,,,10.98,,WNW,101352.6,101389.48
KSBA,04/03/2019 04:30 UTC,101388.43,14,,76.85,3.09,300,,,,,,,,1,,,,10,,METAR KSBA 030430Z AUTO 30006KT 10SM CLR 14/10 A2994,,,,,,,,,9.97,,WNW,101352.6,101389.36
KSBA,04/03/2019 04:35 UTC,101388.43,14,,76.85,0,0,,,,,,,,1,,,,10,,METAR KSBA 030435Z AUTO 00000KT 10SM CLR 14/10 A2994,,,,,,,,,9.97,,N,101352.6,101389.36
KSBA,04/03/2019 04:40 UTC,101388.43,13,,82.01,1.54,150,,,,,,,,1,,,,10,,METAR KSBA 030440Z AUTO 15003KT 10SM CLR 13/10 A2994,,,,,,,,,9.97,,SSE,101352.6,101389.48
KSBA,04/03/2019 04:45 UTC,101388.43,14,,82.14,1.54,160,,,,,,,,1,,,,10,,METAR KSBA 030445Z AUTO 16003KT 10SM CLR 14/11 A2994,,,,,,,,,10.97,,SSE,101352.6,101389.36
KSBA,04/03/2019 04:50 UTC,101388.43,14,,82.14,0,0,,,,,,,,1,,,,10,,METAR KSBA 030450Z AUTO 00000KT 10SM CLR 14/11 A2994,,,,,,,,,10.97,,N,101352.6,101389.36
KSBA,04/03/2019 04:53 UTC,101388.43,13.9,10,77.35,0,0,,101380,,,,,,1,,,,10,,METAR KSBA 030453Z 00000KT 10SM CLR 14/10 A2994 RMK AO2 SLP138 T01390100,,,,,,,,,9.97,,N,101352.6,101389.37
KSBA,04/03/2019 04:55 UTC,101388.43,14,,76.85,0,0,,,,,,,,1,,,,10,,METAR KSBA 030455Z AUTO 00000KT 10SM CLR 14/10 A2994,,,,,,,,,9.97,,N,101352.6,101389.36
KSBA,04/03/2019 05:00 UTC,101388.43,14,,76.85,0,0,,,,,,,,1,,,,10,,METAR KSBA 030500Z AUTO 00000KT 10SM CLR 14/10 A2994,,,,,,,,,9.97,,N,101352.6,101389.36
KSBA,04/03/2019 05:05 UTC,101388.43,13,,82.01,2.06,140,,,,,,,,1,,,,10,,METAR KSBA 030505Z AUTO 14004KT 10SM CLR 13/10 A2994,,,,,,,,,9.97,,SE,101352.6,101389.48
KSBA,04/03/2019 05:10 UTC,101388.43,13,,82.01,2.57,160,,,,,,,,1,,,,10,,METAR KSBA 030510Z AUTO 16005KT 10SM CLR 13/10 A2994,,,,,,,,,9.97,,SSE,101352.6,101389.48
KSBA,04/03/2019 05:15 UTC,101388.43,12,,81.88,1.54,200,,,,,,,,1,,,,10,,METAR KSBA 030515Z AUTO 20003KT 10SM CLR 12/09 A2994,,,,,,,,,8.97,,SSW,101352.6,101389.61
KSBA,04/03/2019 05:20 UTC,101388.43,13,,82.01,0,0,,,,,,,,1,,,,10,,METAR KSBA 030520Z AUTO 00000KT 10SM CLR 13/10 A2994,,,,,,,,,9.97,,N,101352.6,101389.48
KSBA,04/03/2019 05:25 UTC,101388.43,14,,82.14,1.54,240,,,,,,,,1,,,,10,,METAR KSBA 030525Z AUTO 24003KT 10SM CLR 14/11 A2994,,,,,,,,,10.97,,WSW,101352.6,101389.36
KSBA,04/03/2019 05:30 UTC,101388.43,13,,82.01,0,0,,,,,,,,1,,,,10,,METAR KSBA 030530Z AUTO 00000KT 10SM CLR 13/10 A2994,,,,,,,,,9.97,,N,101352.6,101389.48
KSBA,04/03/2019 05:35 UTC,101388.43,13,,82.01,2.57,140,,,,,,,,1,,,,10,,METAR KSBA 030535Z AUTO 14005KT 10SM CLR 13/10 A2994,,,,,,,,,9.97,,SE,101352.6,101389.48
KSBA,04/03/2019 05:40 UTC,101422.29,13,,82.01,2.57,130,,,,,,,,1,,,,10,,METAR KSBA 030540Z AUTO 13005KT 10SM CLR 13/10 A2995,,,,,,,,,9.97,,SE,101386.45,101423.35
KSBA,04/03/2019 05:45 UTC,101422.29,13,,82.01,2.06,160,,,,,,,,1,,,,10,,METAR KSBA 030545Z AUTO 16004KT 10SM CLR 13/10 A2995,,,,,,,,,9.97,,SSE,101386.45,101423.35
KSBA,04/03/2019 05:50 UTC,101422.29,13,,82.01,0,0,,,,,,,,1,,,,10,,METAR KSBA 030550Z AUTO 00000KT 10SM CLR 13/10 A2995,,,,,,,,,9.97,,N,101386.45,101423.35
KSBA,04/03/2019 05:53 UTC,101422.29,13.3,10,80.42,0,0,,101410,,,1009,,,1,,,,10,,KSBA 030553Z 00000KT 10SM CLR 13/10 A2995 RMK AO2 SLP141 T01330100  10167 20122 51009,16.7,12.2,,,,,,,9.97,,N,101386.45,101423.31
KSBA,04/03/2019 05:55 UTC,101422.29,13,,82.01,0,0,,,,,,,,1,,,,10,,METAR KSBA 030555Z AUTO 00000KT 10SM CLR 13/10 A2995,,,,,,,,,9.97,,N,101386.45,101423.35
KSBA,04/03/2019 06:00 UTC,101388.43,13,,82.01,0,0,,,,,,,,1,,,,10,,METAR KSBA 030600Z AUTO 00000KT 10SM CLR 13/10 A2994,,,,,,,,,9.97,,N,101352.6,101389.48
KSBA,04/03/2019 06:05 UTC,101388.43,13,,82.01,2.06,180,,,,,,,,1,,,,10,,METAR KSBA 030605Z AUTO 18004KT 10SM CLR 13/10 A2994,,,,,,,,,9.97,,S,101352.6,101389.48
KSBA,04/03/2019 06:10 UTC,101422.29,13,,82.01,1.54,210,,,,,,,,1,,,,10,,METAR KSBA 030610Z AUTO 21003KT 10SM CLR 13/10 A2995,,,,,,,,,9.97,,SSW,101386.45,101423.35
KSBA,04/03/2019 06:15 UTC,101422.29,13,,82.01,3.09,70,,,,,,,,1,,,,10,,METAR KSBA 030615Z AUTO 07006KT 10SM CLR 13/10 A2995,,,,,,,,,9.97,,ENE,101386.45,101423.35
KSBA,04/03/2019 06:20 UTC,101422.29,13,,87.66,2.06,100,,,,,,,,1,,,,10,,METAR KSBA 030620Z AUTO 10004KT 10SM CLR 13/11 A2995,,,,,,,,,10.98,,E,101386.45,101423.35
KSBA,04/03/2019 06:25 UTC,101422.29,13,,82.01,3.6,140,,,,,,,,1,,,,10,,METAR KSBA 030625Z AUTO 14007KT 10SM CLR 13/10 A2995,,,,,,,,,9.97,,SE,101386.45,101423.35
KSBA,04/03/2019 06:30 UTC,101422.29,13,,82.01,3.09,110,,,,,,,,1,,,,10,,METAR KSBA 030630Z AUTO 11006KT 10SM CLR 13/10 A2995,,,,,,,,,9.97,,ESE,101386.45,101423.35
KSBA,04/03/2019 06:35 UTC,101422.29,14,,71.85,3.09,100,,,,,,,,1,,,,10,,METAR KSBA 030635Z AUTO 10006KT 10SM CLR 14/09 A2995,,,,,,,,,8.96,,E,101386.45,101423.22
KSBA,04/03/2019 06:40 UTC,101422.29,14,,71.85,2.57,80,,,,,,,,1,,,,10,,METAR KSBA 030640Z AUTO 08005KT 10SM CLR 14/09 A2995,,,,,,,,,8.96,,E,101386.45,101423.22
KSBA,04/03/2019 06:45 UTC,101422.29,14,,71.85,1.54,340,,,,,,,,1,,,,10,,METAR KSBA 030645Z AUTO 34003KT 10SM CLR 14/09 A2995,,,,,,,,,8.96,,NNW,101386.45,101423.22
KSBA,04/03/2019 06:50 UTC,101422.29,12,,81.88,3.09,270,,,,,,,,1,,,,10,,METAR KSBA 030650Z AUTO 27006KT 10SM CLR 12/09 A2995,,,,,,,,,8.97,,W,101386.45,101423.48
KSBA,04/03/2019 06:53 UTC,101422.29,11.7,9.4,85.8,3.09,260,,101420,,,,,,1,,,,10,,METAR KSBA 030653Z AUTO 26006KT 10SM CLR 12/09 A2995 RMK AO2 SLP142  T01170094,,,,,,,,,9.38,,W,101386.45,101423.51
KSBA,04/03/2019 06:55 UTC,101422.29,12,,87.57,2.06,260,,,,,,,,1,,,,10,,METAR KSBA 030655Z AUTO 26004KT 10SM CLR 12/10 A2995,,,,,,,,,9.98,,W,101386.45,101423.48
KSBA,04/03/2019 07:00 UTC,101422.29,12,,81.88,2.57,50,,,,,,,,1,,,,10,,METAR KSBA 030700Z AUTO 05005KT 10SM CLR 12/09 A2995,,,,,,,,,8.97,,NE,101386.45,101423.48
KSBA,04/03/2019 07:05 UTC,101456.15,13,,76.68,3.09,60,,,,,,,,1,,,,10,,METAR KSBA 030705Z AUTO 06006KT 10SM CLR 13/09 A2996,,,,,,,,,8.96,,ENE,101420.3,101457.21
KSBA,04/03/2019 07:10 UTC,101456.15,13,,76.68,4.63,50,,,,,,,,1,,,,10,,METAR KSBA 030710Z AUTO 05009KT 10SM CLR 13/09 A2996,,,,,,,,,8.96,,NE,101420.3,101457.21
KSBA,04/03/2019 07:15 UTC,101456.15,13,,76.68,5.14,40,,,,,,,,1,,,,10,,METAR KSBA 030715Z AUTO 04010KT 10SM CLR 13/09 A2996,,,,,,,,,8.96,,NE,101420.3,101457.21
KSBA,04/03/2019 07:20 UTC,101456.15,13,,76.68,5.14,20,,,,,,,,1,,,,10,,METAR KSBA 030720Z AUTO 02010KT 10SM CLR 13/09 A2996,,,,,,,,,8.96,,NNE,101420.3,101457.21
KSBA,04/03/2019 07:25 UTC,101456.15,13,,76.68,5.66,20,,,,,,,,1,,,,10,,METAR KSBA 030725Z AUTO 02011KT 10SM CLR 13/09 A2996,,,,,,,,,8.96,,NNE,101420.3,101457.21
KSBA,04/03/2019 07:30 UTC,101456.15,13,,76.68,3.6,360,,,,,,,,1,,,,10,,METAR KSBA 030730Z AUTO 36007KT 10SM CLR 13/09 A2996,,,,,,,,,8.96,,N,101420.3,101457.21
KSBA,04/03/2019 07:35 UTC,101456.15,13,,76.68,2.57,350,,,,,,,,1,,,,10,,METAR KSBA 030735Z AUTO 35005KT 10SM CLR 13/09 A2996,,,,,,,,,8.96,,N,101420.3,101457.21
KSBA,04/03/2019 07:40 UTC,101456.15,13,,76.68,2.57,350,,,,,,,,1,,,,10,,METAR KSBA 030740Z AUTO 35005KT 10SM CLR 13/09 A2996,,,,,,,,,8.96,,N,101420.3,101457.21
KSBA,04/03/2019 07:45 UTC,101456.15,13,,76.68,2.57,310,,,,,,,,1,,,,10,,METAR KSBA 030745Z AUTO 31005KT 10SM CLR 13/09 A2996,,,,,,,,,8.96,,NW,101420.3,101457.21
KSBA,04/03/2019 07:50 UTC,101456.15,12,,81.88,2.06,340,,,,,,,,1,,,,10,,METAR KSBA 030750Z AUTO 34004KT 10SM CLR 12/09 A2996,,,,,,,,,8.97,,NNW,101420.3,101457.34
KSBA,04/03/2019 07:53 UTC,101456.15,12.2,8.9,80.27,1.54,340,,101450,,,,,,1,,,,10,,METAR KSBA 030753Z AUTO 34003KT 10SM CLR 12/09 A2996 RMK AO2 SLP145  T01220089 401830111,,,,,,18.3,11.1,,8.87,,NNW,101420.3,101457.31
KSBA,04/03/2019 07:55 UTC,101456.15,12,,81.88,1.54,350,,,,,,,,1,,,,10,,METAR KSBA 030755Z AUTO 35003KT 10SM CLR 12/09 A2996,,,,,,,,,8.97,,N,101420.3,101457.34
KSBA,04/03/2019 08:00 UTC,101456.15,12,,81.88,0,0,,,,,,,,1,,,,10,,METAR KSBA 030800Z AUTO 00000KT 10SM CLR 12/09 A2996,,,,,,,,,8.97,,N,101420.3,101457.34
KSBA,04/03/2019 08:05 UTC,101456.15,13,,76.68,0,0,,,,,,,,1,,,,10,,METAR KSBA 030805Z AUTO 00000KT 10SM CLR 13/09 A2996,,,,,,,,,8.96,,N,101420.3,101457.21
KSBA,04/03/2019 08:10 UTC,101456.15,12,,81.88,0,0,,,,,,,,1,,,,10,,METAR KSBA 030810Z AUTO 00000KT 10SM CLR 12/09 A2996,,,,,,,,,8.97,,N,101420.3,101457.34
KSBA,04/03/2019 08:15 UTC,101456.15,12,,76.52,3.09,40,,,,,,,,1,,,,10,,METAR KSBA 030815Z AUTO 04006KT 10SM CLR 12/08 A2996,,,,,,,,,7.96,,NE,101420.3,101457.34
KSBA,04/03/2019 08:20 UTC,101490.02,13,,76.68,5.14,10,,,,,,,,1,,,,10,,METAR KSBA 030820Z AUTO 01010KT 10SM CLR 13/09 A2997,,,,,,,,,8.96,,N,101454.16,101491.08
KSBA,04/03/2019 08:25 UTC,101490.02,13,,76.68,3.6,10,,,,,,,,1,,,,10,,METAR KSBA 030825Z AUTO 01007KT 10SM CLR 13/09 A2997,,,,,,,,,8.96,,N,101454.16,101491.08
KSBA,04/03/2019 08:30 UTC,101490.02,13,,76.68,4.63,20,,,,,,,,1,,,,10,,METAR KSBA 030830Z AUTO 02009KT 10SM CLR 13/09 A2997,,,,,,,,,8.96,,NNE,101454.16,101491.08
KSBA,04/03/2019 08:35 UTC,101490.02,13,,76.68,4.12,40,,,,,,,,1,,,,10,,METAR KSBA 030835Z AUTO 04008KT 10SM CLR 13/09 A2997,,,,,,,,,8.96,,NE,101454.16,101491.08
KSBA,04/03/2019 08:40 UTC,101490.02,13,,76.68,3.09,50,,,,,,,,1,,,,10,,METAR KSBA 030840Z AUTO 05006KT 10SM CLR 13/09 A2997,,,,,,,,,8.96,,NE,101454.16,101491.08
KSBA,04/03/2019 08:45 UTC,101490.02,13,,82.01,2.06,60,,,,,,,,1,,,,10,,METAR KSBA 030845Z AUTO 06004KT 10SM CLR 13/10 A2997,,,,,,,,,9.97,,ENE,101454.16,101491.08
KSBA,04/03/2019 08:50 UTC,101490.02,13,,76.68,3.09,60,,,,,,,,1,,,,10,,METAR KSBA 030850Z AUTO 06006KT 10SM CLR 13/09 A2997,,,,,,,,,8.96,,ENE,101454.16,101491.08
KSBA,04/03/2019 08:53 UTC,101490.02,12.8,10,83.09,2.57,60,,101500,,,3009,,,1,,,,10,,METAR KSBA 030853Z AUTO 06005KT 10SM CLR 13/10 A2997 RMK AO2 SLP150  T01280100 53009,,,,,,,,,9.97,,ENE,101454.16,101491.11
KSBA,04/03/2019 08:55 UTC,101523.88,13,,82.01,2.06,70,,,,,,,,1,,,,10,,METAR KSBA 030855Z AUTO 07004KT 10SM CLR 13/10 A2998,,,,,,,,,9.97,,ENE,101488,101524.93
KSBA,04/03/2019 09:00 UTC,101523.88,13,,82.01,2.57,60,,,,,,,,1,,,,10,,METAR KSBA 030900Z AUTO 06005KT 10SM CLR 13/10 A2998,,,,,,,,,9.97,,ENE,101488,101524.93
KSBA,04/03/2019 09:05 UTC,101523.88,13,,82.01,2.06,70,,,,,,,,1,,,,10,,METAR KSBA 030905Z AUTO 07004KT 10SM CLR 13/10 A2998,,,,,,,,,9.97,,ENE,101488,101524.93
KSBA,04/03/2019 09:10 UTC,101523.88,13,,82.01,1.54,70,,,,,,,,1,,,,10,,METAR KSBA 030910Z AUTO 07003KT 10SM CLR 13/10 A2998,,,,,,,,,9.97,,ENE,101488,101524.93
KSBA,04/03/2019 09:15 UTC,101523.88,13,,87.66,2.06,50,,,,,,,,1,,,,10,,METAR KSBA 030915Z AUTO 05004KT 10SM CLR 13/11 A2998,,,,,,,,,10.98,,NE,101488,101524.93
KSBA,04/03/2019 09:20 UTC,101523.88,13,,82.01,2.57,60,,,,,,,,1,,,,10,,METAR KSBA 030920Z AUTO 06005KT 10SM CLR 13/10 A2998,,,,,,,,,9.97,,ENE,101488,101524.93
KSBA,04/03/2019 09:25 UTC,101523.88,12,,87.57,2.57,70,,,,,,,,1,,,,10,,METAR KSBA 030925Z AUTO 07005KT 10SM CLR 12/10 A2998,,,,,,,,,9.98,,ENE,101488,101525.06
KSBA,04/03/2019 09:30 UTC,101523.88,12,,87.57,2.57,60,,,,,,,,1,,,,10,,METAR KSBA 030930Z AUTO 06005KT 10SM CLR 12/10 A2998,,,,,,,,,9.98,,ENE,101488,101525.06
KSBA,04/03/2019 09:35 UTC,101523.88,12,,87.57,3.09,50,,,,,,,,1,,,,10,,METAR KSBA 030935Z AUTO 05006KT 10SM CLR 12/10 A2998,,,,,,,,,9.98,,NE,101488,101525.06
KSBA,04/03/2019 09:40 UTC,101523.88,12,,87.57,3.09,60,,,,,,,,1,,,,10,,METAR KSBA 030940Z AUTO 06006KT 10SM CLR 12/10 A2998,,,,,,,,,9.98,,ENE,101488,101525.06
KSBA,04/03/2019 09:45 UTC,101523.88,12,,81.88,3.09,60,,,,,,,,1,,,,10,,METAR KSBA 030945Z AUTO 06006KT 10SM CLR 12/09 A2998,,,,,,,,,8.97,,ENE,101488,101525.06
KSBA,04/03/2019 09:50 UTC,101523.88,12,,81.88,3.09,60,,,,,,,,1,,,,10,,METAR KSBA 030950Z AUTO 06006KT 10SM CLR 12/09 A2998,,,,,,,,,8.97,,ENE,101488,101525.06
KSBA,04/03/2019 09:53 UTC,101523.88,12.2,9.4,83.02,3.09,60,,101510,,,,,,1,,,,10,,METAR KSBA 030953Z AUTO 06006KT 10SM CLR 12/09 A2998 RMK AO2 SLP151  T01220094,,,,,,,,,9.37,,ENE,101488,101525.04
KSBA,04/03/2019 09:55 UTC,101523.88,12,,81.88,3.09,50,,,,,,,,1,,,,10,,METAR KSBA 030955Z AUTO 05006KT 10SM CLR 12/09 A2998,,,,,,,,,8.97,,NE,101488,101525.06
KSBA,04/03/2019 10:00 UTC,101523.88,12,,81.88,3.09,50,,,,,,,,1,,,,10,,METAR KSBA 031000Z AUTO 05006KT 10SM CLR 12/09 A2998,,,,,,,,,8.97,,NE,101488,101525.06
KSBA,04/03/2019 10:05 UTC,101523.88,13,,82.01,3.09,50,,,,,,,,286,,,,10,,METAR KSBA 031005Z AUTO 05006KT 10SM FEW028 13/10 A2998,,,,,,,,,9.97,,NE,101488,101524.93
KSBA,04/03/2019 10:10 UTC,101523.88,12,,81.88,2.57,60,,,,,,,,286,,,,10,,METAR KSBA 031010Z AUTO 06005KT 10SM FEW028 12/09 A2998,,,,,,,,,8.97,,ENE,101488,101525.06
KSBA,04/03/2019 10:15 UTC,101523.88,12,,81.88,3.09,60,,,,,,,,286,,,,10,,METAR KSBA 031015Z AUTO 06006KT 10SM FEW028 12/09 A2998,,,,,,,,,8.97,,ENE,101488,101525.06
KSBA,04/03/2019 10:20 UTC,101523.88,13,,82.01,3.09,60,,,,,,,,286,,,,10,,METAR KSBA 031020Z AUTO 06006KT 10SM FEW028 13/10 A2998,,,,,,,,,9.97,,ENE,101488,101524.93
KSBA,04/03/2019 10:25 UTC,101557.75,12,,87.57,2.06,10,,,,,,,,1,,,,10,,METAR KSBA 031025Z AUTO 01004KT 10SM CLR 12/10 A2999,,,,,,,,,9.98,,N,101521.86,101558.93
KSBA,04/03/2019 10:30 UTC,101523.88,12,,81.88,2.06,20,,,,,,,,1,,,,10,,METAR KSBA 031030Z AUTO 02004KT 10SM CLR 12/09 A2998,,,,,,,,,8.97,,NNE,101488,101525.06
KSBA,04/03/2019 10:35 UTC,101523.88,12,,81.88,2.57,360,,,,,,,,1,,,,10,,METAR KSBA 031035Z AUTO 36005KT 10SM CLR 12/09 A2998,,,,,,,,,8.97,,N,101488,101525.06
KSBA,04/03/2019 10:40 UTC,101557.75,11,,81.75,2.06,340,,,,,,,,1,,,,10,,METAR KSBA 031040Z AUTO 34004KT 10SM CLR 11/08 A2999,,,,,,,,,7.97,,NNW,101521.86,101559.07
KSBA,04/03/2019 10:45 UTC,101523.88,10,,87.38,2.06,340,,,,,,,,1,,,,10,,METAR KSBA 031045Z AUTO 34004KT 10SM CLR 10/08 A2998,,,,,,,,,7.98,,NNW,101488,101525.32
KSBA,04/03/2019 10:50 UTC,101523.88,10,,87.38,2.06,350,,,,,,,,1,,,,10,,METAR KSBA 031050Z AUTO 35004KT 10SM CLR 10/08 A2998,,,,,,,,,7.98,,N,101488,101525.32
KSBA,04/03/2019 10:53 UTC,101523.88,10.6,8.3,85.68,1.54,360,,101530,,,,,,1,,,,10,,METAR KSBA 031053Z AUTO 36003KT 10SM CLR 11/08 A2998 RMK AO2 SLP153  T01060083,,,,,,,,,8.27,,N,101488,101525.25
KSBA,04/03/2019 10:55 UTC,101523.88,10,,87.38,1.54,350,,,,,,,,1,,,,10,,METAR KSBA 031055Z AUTO 35003KT 10SM CLR 10/08 A2998,,,,,,,,,7.98,,N,101488,101525.32
KSBA,04/03/2019 11:00 UTC,101523.88,11,,81.75,1.54,350,,,,,,,,1,,,,10,,METAR KSBA 031100Z AUTO 35003KT 10SM CLR 11/08 A2998,,,,,,,,,7.97,,N,101488,101525.19
KSBA,04/03/2019 11:05 UTC,101523.88,10,,87.38,0,0,,,,,,,,1,,,,10,,METAR KSBA 031105Z AUTO 00000KT 10SM CLR 10/08 A2998,,,,,,,,,7.98,,N,101488,101525.32
KSBA,04/03/2019 11:10 UTC,101523.88,11,,81.75,0,0,,,,,,,,1,,,,10,,METAR KSBA 031110Z AUTO 00000KT 10SM CLR 11/08 A2998,,,,,,,,,7.97,,N,101488,101525.19
KSBA,04/03/2019 11:15 UTC,101523.88,11,,81.75,0,0,,,,,,,,1,,,,10,,METAR KSBA 031115Z AUTO 00000KT 10SM CLR 11/08 A2998,,,,,,,,,7.97,,N,101488,101525.19
KSBA,04/03/2019 11:20 UTC,101523.88,11,,81.75,0,0,,,,,,,,1,,,,10,,METAR KSBA 031120Z AUTO 00000KT 10SM CLR 11/08 A2998,,,,,,,,,7.97,,N,101488,101525.19
KSBA,04/03/2019 11:25 UTC,101523.88,11,,81.75,0,0,,,,,,,,1,,,,10,,METAR KSBA 031125Z AUTO 00000KT 10SM CLR 11/08 A2998,,,,,,,,,7.97,,N,101488,101525.19
KSBA,04/03/2019 11:30 UTC,101523.88,11,,81.75,0,0,,,,,,,,1,,,,10,,METAR KSBA 031130Z AUTO 00000KT 10SM CLR 11/08 A2998,,,,,,,,,7.97,,N,101488,101525.19
KSBA,04/03/2019 11:35 UTC,101523.88,11,,81.75,1.54,60,,,,,,,,1,,,,10,,METAR KSBA 031135Z AUTO 06003KT 10SM CLR 11/08 A2998,,,,,,,,,7.97,,ENE,101488,101525.19
KSBA,04/03/2019 11:40 UTC,101523.88,11,,81.75,0,0,,,,,,,,1,,,,10,,METAR KSBA 031140Z AUTO 00000KT 10SM CLR 11/08 A2998,,,,,,,,,7.97,,N,101488,101525.19
KSBA,04/03/2019 11:45 UTC,101523.88,9,,93.45,0,0,,,,,,,,1,,,,10,,METAR KSBA 031145Z AUTO 00000KT 10SM CLR 09/08 A2998,,,,,,,,,7.99,,N,101488,101525.46
KSBA,04/03/2019 11:50 UTC,101523.88,10,,87.38,0,0,,,,,,,,1,,,,10,,METAR KSBA 031150Z AUTO 00000KT 10SM CLR 10/08 A2998,,,,,,,,,7.98,,N,101488,101525.32
KSBA,04/03/2019 11:53 UTC,101523.88,10,8.3,89.18,0,0,,101520,,,2,,,1,,,,10,,METAR KSBA 031153Z AUTO 00000KT 10SM CLR 10/08 A2998 RMK AO2 SLP152  T01000083 10139 20094 50002,13.9,9.4,,,,,,,8.28,,N,101488,101525.32
KSBA,04/03/2019 11:55 UTC,101523.88,11,,81.75,0,0,,,,,,,,1,,,,10,,METAR KSBA 031155Z AUTO 00000KT 10SM CLR 11/08 A2998,,,,,,,,,7.97,,N,101488,101525.19
KSBA,04/03/2019 12:00 UTC,101523.88,11,,81.75,0,0,,,,,,,,1,,,,10,,METAR KSBA 031200Z AUTO 00000KT 10SM CLR 11/08 A2998,,,,,,,,,7.97,,N,101488,101525.19
KSBA,04/03/2019 12:05 UTC,101557.75,9,,93.45,1.54,310,,,,,,,,1,,,,10,,METAR KSBA 031205Z AUTO 31003KT 10SM CLR 09/08 A2999,,,,,,,,,7.99,,NW,101521.86,101559.33
KSBA,04/03/2019 12:10 UTC,101523.88,9,,87.28,0,0,,,,,,,,1,,,,10,,METAR KSBA 031210Z AUTO 00000KT 10SM CLR 09/07 A2998,,,,,,,,,6.97,,N,101488,101525.46
KSBA,04/03/2019 12:15 UTC,101557.75,9,,87.28,0,0,,,,,,,,1,,,,10,,METAR KSBA 031215Z AUTO 00000KT 10SM CLR 09/07 A2999,,,,,,,,,6.97,,N,101521.86,101559.33
KSBA,04/03/2019 12:20 UTC,101557.75,8,,93.4,1.54,330,,,,,,,,1,,,,10,,METAR KSBA 031220Z AUTO 33003KT 10SM CLR 08/07 A2999,,,,,,,,,6.99,,NNW,101521.86,101559.46
KSBA,04/03/2019 12:25 UTC,101523.88,9,,93.45,0,0,,,,,,,,1,,,,10,,METAR KSBA 031225Z AUTO 00000KT 10SM CLR 09/08 A2998,,,,,,,,,7.99,,N,101488,101525.46
KSBA,04/03/2019 12:30 UTC,101523.88,9,,93.45,0,0,,,,,,,,1,,,,10,,METAR KSBA 031230Z AUTO 00000KT 10SM CLR 09/08 A2998,,,,,,,,,7.99,,N,101488,101525.46
KSBA,04/03/2019 12:35 UTC,101557.75,9,,87.28,0,0,,,,,,,,1,,,,10,,METAR KSBA 031235Z AUTO 00000KT 10SM CLR 09/07 A2999,,,,,,,,,6.97,,N,101521.86,101559.33
KSBA,04/03/2019 12:40 UTC,101557.75,9,,87.28,1.54,330,,,,,,,,1,,,,10,,METAR KSBA 031240Z AUTO 33003KT 10SM CLR 09/07 A2999,,,,,,,,,6.97,,NNW,101521.86,101559.33
KSBA,04/03/2019 12:45 UTC,101557.75,9,,87.28,0,0,,,,,,,,1,,,,10,,METAR KSBA 031245Z AUTO 00000KT 10SM CLR 09/07 A2999,,,,,,,,,6.97,,N,101521.86,101559.33
KSBA,04/03/2019 12:50 UTC,101557.75,9,,87.28,0,0,,,,,,,,1,,,,10,,METAR KSBA 031250Z AUTO 00000KT 10SM CLR 09/07 A2999,,,,,,,,,6.97,,N,101521.86,101559.33
KSBA,04/03/2019 12:53 UTC,101557.75,8.3,7.2,92.78,1.54,320,,101550,,,,,,1,,,,10,,METAR KSBA 031253Z 32003KT 10SM CLR 08/07 A2999 RMK AO2 SLP155 T00830072,,,,,,,,,7.19,,NW,101521.86,101559.42
KSBA,04/03/2019 12:55 UTC,101557.75,8,,93.4,1.54,320,,,,,,,,1,,,,10,,METAR KSBA 031255Z AUTO 32003KT 10SM CLR 08/07 A2999,,,,,,,,,6.99,,NW,101521.86,101559.46
KSBA,04/03/2019 13:00 UTC,101557.75,8,,93.4,0,0,,,,,,,,1,,,,10,,METAR KSBA 031300Z AUTO 00000KT 10SM CLR 08/07 A2999,,,,,,,,,6.99,,N,101521.86,101559.46
KSBA,04/03/2019 13:05 UTC,101591.61,9,,87.28,1.54,300,,,,,,,,1,,,,10,,METAR KSBA 031305Z AUTO 30003KT 10SM CLR 09/07 A3000,,,,,,,,,6.97,,WNW,101555.71,101593.19
KSBA,04/03/2019 13:10 UTC,101591.61,8,,93.4,1.54,290,,,,,,,,1,,,,10,,METAR KSBA 031310Z AUTO 29003KT 10SM CLR 08/07 A3000,,,,,,,,,6.99,,WNW,101555.71,101593.33
KSBA,04/03/2019 13:15 UTC,101591.61,8,,93.4,1.54,280,,,,,,,,1,,,,10,,METAR KSBA 031315Z AUTO 28003KT 10SM CLR 08/07 A3000,,,,,,,,,6.99,,W,101555.71,101593.33
KSBA,04/03/2019 13:20 UTC,101625.47,8,,93.4,2.06,290,,,,,,,,1,,,,10,,METAR KSBA 031320Z AUTO 29004KT 10SM CLR 08/07 A3001,,,,,,,,,6.99,,WNW,101589.56,101627.19
KSBA,04/03/2019 13:25 UTC,101625.47,8,,93.4,2.06,300,,,,,,,,196,,,,10,,METAR KSBA 031325Z AUTO 30004KT 10SM FEW019 08/07 A3001,,,,,,,,,6.99,,WNW,101589.56,101627.19
KSBA,04/03/2019 13:30 UTC,101625.47,8,,93.4,1.54,310,,,,,,,,196,,,,10,,METAR KSBA 031330Z AUTO 31003KT 10SM FEW019 08/07 A3001,,,,,,,,,6.99,,NW,101589.56,101627.19
KSBA,04/03/2019 13:35 UTC,101625.47,8,,93.4,0,0,,,,,,,,196,,,,10,,METAR KSBA 031335Z AUTO 00000KT 10SM FEW019 08/07 A3001,,,,,,,,,6.99,,N,101589.56,101627.19
KSBA,04/03/2019 13:40 UTC,101625.47,9,,87.28,1.54,30,,,,,,,,196,,,,10,,METAR KSBA 031340Z AUTO 03003KT 10SM FEW019 09/07 A3001,,,,,,,,,6.97,,NNE,101589.56,101627.05
KSBA,04/03/2019 13:45 UTC,101625.47,9,,87.28,1.54,50,,,,,,,,196,,,,10,,METAR KSBA 031345Z AUTO 05003KT 10SM FEW019 09/07 A3001,,,,,,,,,6.97,,NE,101589.56,101627.05
KSBA,04/03/2019 13:50 UTC,101625.47,9,,87.28,2.06,50,,,,,,,,196,,,,10,,METAR KSBA 031350Z AUTO 05004KT 10SM FEW019 09/07 A3001,,,,,,,,,6.97,,NE,101589.56,101627.05
KSBA,04/03/2019 13:53 UTC,101625.47,9.4,7.2,86.14,2.06,60,,101620,,,,,,196,,,,10,,KSBA 031353Z 06004KT 10SM FEW019 09/07 A3001 RMK AO2 SLP162  T00940072,,,,,,,,,7.17,,ENE,101589.56,101627
KSBA,04/03/2019 13:55 UTC,101625.47,9,,87.28,1.54,60,,,,,,,,196,,,,10,,METAR KSBA 031355Z AUTO 06003KT 10SM FEW019 09/07 A3001,,,,,,,,,6.97,,ENE,101589.56,101627.05
KSBA,04/03/2019 14:00 UTC,101625.47,9,,93.45,0,0,,,,,,,,196,,,,10,,METAR KSBA 031400Z AUTO 00000KT 10SM FEW019 09/08 A3001,,,,,,,,,7.99,,N,101589.56,101627.05
KSBA,04/03/2019 14:05 UTC,101625.47,9,,93.45,0,0,,,,,,,,202,,,,10,,METAR KSBA 031405Z AUTO 00000KT 10SM SCT020 09/08 A3001,,,,,,,,,7.99,,N,101589.56,101627.05
KSBA,04/03/2019 14:10 UTC,101659.34,9,,93.45,0,0,,,,,,,,202,,,,10,,METAR KSBA 031410Z AUTO 00000KT 10SM SCT020 09/08 A3002,,,,,,,,,7.99,,N,101623.42,101660.93
KSBA,04/03/2019 14:15 UTC,101659.34,9,,93.45,0,0,,,,,,,,202,,,,10,,METAR KSBA 031415Z AUTO 00000KT 10SM SCT020 09/08 A3002,,,,,,,,,7.99,,N,101623.42,101660.93
KSBA,04/03/2019 14:20 UTC,101659.34,9,,93.45,0,0,,,,,,,,206,,,,10,,METAR KSBA 031420Z AUTO 00000KT 10SM FEW020 09/08 A3002,,,,,,,,,7.99,,N,101623.42,101660.93
KSBA,04/03/2019 14:25 UTC,101659.34,9,,93.45,0,0,,,,,,,,206,,,,10,,METAR KSBA 031425Z AUTO 00000KT 10SM FEW020 09/08 A3002,,,,,,,,,7.99,,N,101623.42,101660.93
KSBA,04/03/2019 14:30 UTC,101659.34,9,,93.45,0,0,,,,,,,,206,,,,10,,METAR KSBA 031430Z AUTO 00000KT 10SM FEW020 09/08 A3002,,,,,,,,,7.99,,N,101623.42,101660.93
KSBA,04/03/2019 14:35 UTC,101693.2,9,,93.45,0,0,,,,,,,,206,,,,10,,METAR KSBA 031435Z AUTO 00000KT 10SM FEW020 09/08 A3003,,,,,,,,,7.99,,N,101657.26,101694.78
KSBA,04/03/2019 14:40 UTC,101693.2,10,,87.38,0,0,,,,,,,,1,,,,10,,METAR KSBA 031440Z AUTO 00000KT 10SM CLR 10/08 A3003,,,,,,,,,7.98,,N,101657.26,101694.65
KSBA,04/03/2019 14:45 UTC,101693.2,11,,87.48,0,0,,,,,,,,1,,,,10,,METAR KSBA 031445Z AUTO 00000KT 10SM CLR 11/09 A3003,,,,,,,,,8.98,,N,101657.26,101694.52
KSBA,04/03/2019 14:50 UTC,101693.2,11,,87.48,0,0,,,,,,,,1,,,,10,,METAR KSBA 031450Z AUTO 00000KT 10SM CLR 11/09 A3003,,,,,,,,,8.98,,N,101657.26,101694.52
KSBA,04/03/2019 14:53 UTC,101693.2,10.6,8.9,89.23,0,0,,101700,,,3018,,,1,,,,10,,KSBA 031453Z 00000KT 10SM CLR 11/09 A3003 RMK AO2 SLP170 T01060089  53018,,,,,,,,,8.88,,N,101657.26,101694.57
KSBA,04/03/2019 14:55 UTC,101727.07,11,,87.48,0,0,,,,,,,,1,,,,10,,METAR KSBA 031455Z AUTO 00000KT 10SM CLR 11/09 A3004,,,,,,,,,8.98,,N,101691.12,101728.39
KSBA,04/03/2019 15:00 UTC,101727.07,11,,87.48,0,0,,,,,,,,1,,,,10,,METAR KSBA 031500Z AUTO 00000KT 10SM CLR 11/09 A3004,,,,,,,,,8.98,,N,101691.12,101728.39
KSBA,04/03/2019 15:05 UTC,101727.07,11,,87.48,0,0,,,,,,,,1,,,,10,,METAR KSBA 031505Z AUTO 00000KT 10SM CLR 11/09 A3004,,,,,,,,,8.98,,N,101691.12,101728.39
KSBA,04/03/2019 15:10 UTC,101760.93,11,,87.48,0,0,,,,,,,,1,,,,10,,METAR KSBA 031510Z AUTO 00000KT 10SM CLR 11/09 A3005,,,,,,,,,8.98,,N,101724.97,101762.25
KSBA,04/03/2019 15:15 UTC,101760.93,12,,81.88,0,0,,,,,,,,1,,,,10,,METAR KSBA 031515Z AUTO 00000KT 10SM CLR 12/09 A3005,,,,,,,,,8.97,,N,101724.97,101762.12
KSBA,04/03/2019 15:20 UTC,101760.93,12,,81.88,0,0,,,,,,,,1,,,,10,,METAR KSBA 031520Z AUTO 00000KT 10SM CLR 12/09 A3005,,,,,,,,,8.97,,N,101724.97,101762.12
KSBA,04/03/2019 15:25 UTC,101760.93,12,,81.88,0,0,,,,,,,,1,,,,10,,METAR KSBA 031525Z AUTO 00000KT 10SM CLR 12/09 A3005,,,,,,,,,8.97,,N,101724.97,101762.12
KSBA,04/03/2019 15:30 UTC,101760.93,12,,87.57,0,0,,,,,,,,326,,,,10,,METAR KSBA 031530Z AUTO 00000KT 10SM FEW032 12/10 A3005,,,,,,,,,9.98,,N,101724.97,101762.12
KSBA,04/03/2019 15:35 UTC,101794.79,13,,82.01,0,0,,,,,,,,326,,,,10,,METAR KSBA 031535Z AUTO 00000KT 10SM FEW032 13/10 A3006,,,,,,,,,9.97,,N,101758.82,101795.85
KSBA,04/03/2019 15:40 UTC,101794.79,13,,82.01,0,0,,,,,,,,1,,,,10,,METAR KSBA 031540Z AUTO 00000KT 10SM CLR 13/10 A3006,,,,,,,,,9.97,,N,101758.82,101795.85
KSBA,04/03/2019 15:45 UTC,101794.79,13,,76.68,0,0,,,,,,,,1,,,,10,,METAR KSBA 031545Z AUTO 00000KT 10SM CLR 13/09 A3006,,,,,,,,,8.96,,N,101758.82,101795.85
KSBA,04/03/2019 15:50 UTC,101794.79,13,,82.01,0,0,,,,,,,,202,,,,10,,METAR KSBA 031550Z AUTO 00000KT 10SM SCT020 13/10 A3006,,,,,,,,,9.97,,N,101758.82,101795.85
KSBA,04/03/2019 15:53 UTC,101794.79,13.9,10,77.35,0,0,,101800,,,,,,202,,,,10,,METAR KSBA 031553Z 00000KT 10SM SCT020 14/10 A3006 RMK AO2 SLP180 T01390100,,,,,,,,,9.97,,N,101758.82,101795.74
KSBA,04/03/2019 15:55 UTC,101794.79,14,,76.85,0,0,,,,,,,,326,,,,10,,METAR KSBA 031555Z AUTO 00000KT 10SM FEW032 14/10 A3006,,,,,,,,,9.97,,N,101758.82,101795.72
KSBA,04/03/2019 16:00 UTC,101794.79,14,,76.85,0,0,,,,,,,,326,,,,10,,METAR KSBA 031600Z AUTO 00000KT 10SM FEW032 14/10 A3006,,,,,,,,,9.97,,N,101758.82,101795.72
KSBA,04/03/2019 16:05 UTC,101794.79,14,,76.85,0,0,,,,,,,,302,,,,10,,METAR KSBA 031605Z AUTO 00000KT 10SM SCT030 14/10 A3006,,,,,,,,,9.97,,N,101758.82,101795.72
KSBA,04/03/2019 16:10 UTC,101794.79,14,,82.14,0,0,,,,,,,,202,,,,10,,METAR KSBA 031610Z AUTO 00000KT 10SM SCT020 14/11 A3006,,,,,,,,,10.97,,N,101758.82,101795.72
KSBA,04/03/2019 16:15 UTC,101794.79,14,,82.14,0,0,,,,,,,,202,,,,10,,METAR KSBA 031615Z AUTO 00000KT 10SM SCT020 14/11 A3006,,,,,,,,,10.97,,N,101758.82,101795.72
KSBA,04/03/2019 16:20 UTC,101794.79,15,,77.01,0,0,,,,,,,,202,,,,10,,METAR KSBA 031620Z AUTO 00000KT 10SM SCT020 15/11 A3006,,,,,,,,,10.97,,N,101758.82,101795.59
KSBA,04/03/2019 16:25 UTC,101794.79,15,,77.01,1.54,60,,,,,,,,202,,,,10,,METAR KSBA 031625Z AUTO 06003KT 10SM SCT020 15/11 A3006,,,,,,,,,10.97,,ENE,101758.82,101795.59
KSBA,04/03/2019 16:30 UTC,101828.66,15,,77.01,0,0,,,,,,,,202,,,,10,,METAR KSBA 031630Z AUTO 00000KT 10SM SCT020 15/11 A3007,,,,,,,,,10.97,,N,101792.68,101829.47
KSBA,04/03/2019 16:35 UTC,101828.66,16,,72.23,0,0,,,,,,,,202,,,,10,,METAR KSBA 031635Z AUTO 00000KT 10SM SCT020 16/11 A3007,,,,,,,,,10.96,,N,101792.68,101829.34
KSBA,04/03/2019 16:40 UTC,101828.66,16,,72.23,2.57,160,,,,,,,,202,,,,10,,METAR KSBA 031640Z AUTO 16005KT 10SM SCT020 16/11 A3007,,,,,,,,,10.96,,SSE,101792.68,101829.34
KSBA,04/03/2019 16:45 UTC,101828.66,16,,72.23,2.06,160,,,,,,,,202,,,,10,,METAR KSBA 031645Z AUTO 16004KT 10SM SCT020 16/11 A3007,,,,,,,,,10.96,,SSE,101792.68,101829.34
KSBA,04/03/2019 16:50 UTC,101828.66,15,,77.01,2.06,170,,,,,,,,202,,,,10,,METAR KSBA 031650Z AUTO 17004KT 10SM SCT020 15/11 A3007,,,,,,,,,10.97,,S,101792.68,101829.47
KSBA,04/03/2019 16:53 UTC,101828.66,15.6,11.1,74.59,2.57,150,,101830,,,,,,202,,,,10,,METAR KSBA 031653Z 15005KT 10SM SCT020 16/11 A3007 RMK AO2 SLP183 T01560111,,,,,,,,,11.06,,SSE,101792.68,101829.39
KSBA,04/03/2019 16:55 UTC,101862.52,16,,72.23,3.09,150,,,,,,,,202,,,,10,,METAR KSBA 031655Z AUTO 15006KT 10SM SCT020 16/11 A3008,,,,,,,,,10.96,,SSE,101826.52,101863.19
KSBA,04/03/2019 17:00 UTC,101862.52,16,,72.23,2.57,140,,,,,,,,202,,,,10,,METAR KSBA 031700Z AUTO 14005KT 10SM SCT020 16/11 A3008,,,,,,,,,10.96,,SE,101826.52,101863.19
KSBA,04/03/2019 17:05 UTC,101862.52,16,,72.23,3.09,150,,,,,,,,202,,,,10,,METAR KSBA 031705Z AUTO 15006KT 10SM SCT020 16/11 A3008,,,,,,,,,10.96,,SSE,101826.52,101863.19
KSBA,04/03/2019 17:10 UTC,101862.52,15,,77.01,3.09,150,,,,,,,,202,,,,10,,METAR KSBA 031710Z AUTO 15006KT 10SM SCT020 15/11 A3008,,,,,,,,,10.97,,SSE,101826.52,101863.32
KSBA,04/03/2019 17:15 UTC,101862.52,15,,77.01,3.09,150,,,,,,,,202,,,,10,,METAR KSBA 031715Z AUTO 15006KT 10SM SCT020 15/11 A3008,,,,,,,,,10.97,,SSE,101826.52,101863.32
KSBA,04/03/2019 17:20 UTC,101862.52,15,,77.01,2.57,150,,,,,,,,202,,,,10,,METAR KSBA 031720Z AUTO 15005KT 10SM SCT020 15/11 A3008,,,,,,,,,10.97,,SSE,101826.52,101863.32
KSBA,04/03/2019 17:25 UTC,101862.52,15,,82.27,3.09,150,,,,,,,,202,,,,10,,METAR KSBA 031725Z AUTO 15006KT 10SM SCT020 15/12 A3008,,,,,,,,,11.98,,SSE,101826.52,101863.32
KSBA,04/03/2019 17:30 UTC,101862.52,16,,72.23,2.57,150,,,,,,,,202,,,,10,,METAR KSBA 031730Z AUTO 15005KT 10SM SCT020 16/11 A3008,,,,,,,,,10.96,,SSE,101826.52,101863.19
KSBA,04/03/2019 17:35 UTC,101862.52,16,,72.23,3.09,140,,,,,,,,202,,,,10,,METAR KSBA 031735Z AUTO 14006KT 10SM SCT020 16/11 A3008,,,,,,,,,10.96,,SE,101826.52,101863.19
KSBA,04/03/2019 17:40 UTC,101862.52,16,,72.23,2.57,150,,,,,,,,202,,,,10,,METAR KSBA 031740Z AUTO 15005KT 10SM SCT020 16/11 A3008,,,,,,,,,10.96,,SSE,101826.52,101863.19
KSBA,04/03/2019 17:45 UTC,101862.52,16,,72.23,3.6,160,,,,,,,,202,,,,10,,METAR KSBA 031745Z AUTO 16007KT 10SM SCT020 16/11 A3008,,,,,,,,,10.96,,SSE,101826.52,101863.19
KSBA,04/03/2019 17:50 UTC,101862.52,17,,67.79,3.09,150,,,,,,,,202,402,,,10,,METAR KSBA 031750Z AUTO 15006KT 10SM SCT020 SCT040 17/11 A3008,,,,,,,,,10.96,,SSE,101826.52,101863.07
KSBA,04/03/2019 17:53 UTC,101862.52,16.1,10.6,69.89,3.6,130,,101860,,,1016,,,202,402,,,10,,METAR KSBA 031753Z 13007KT 10SM SCT020 SCT040 16/11 A3008 RMK AO2 SLP186  T01610106 10167 20078 51016,16.7,7.8,,,,,,,10.56,,SE,101826.52,101863.18
KSBA,04/03/2019 17:55 UTC,101862.52,16,,72.23,3.6,140,,,,,,,,202,402,,,10,,METAR KSBA 031755Z AUTO 14007KT 10SM SCT020 SCT040 16/11 A3008,,,,,,,,,10.96,,SE,101826.52,101863.19
KSBA,04/03/2019 18:00 UTC,101862.52,16,,72.23,3.6,150,,,,,,,,202,402,,,10,,METAR KSBA 031800Z AUTO 15007KT 10SM SCT020 SCT040 16/11 A3008,,,,,,,,,10.96,,SSE,101826.52,101863.19
KSBA,04/03/2019 18:05 UTC,101862.52,16,,72.23,3.6,160,,,,,,,,202,402,,,10,,METAR KSBA 031805Z AUTO 16007KT 10SM SCT020 SCT040 16/11 A3008,,,,,,,,,10.96,,SSE,101826.52,101863.19
KSBA,04/03/2019 18:10 UTC,101862.52,16,,72.23,3.6,150,,,,,,,,202,402,,,10,,METAR KSBA 031810Z AUTO 15007KT 10SM SCT020 SCT040 16/11 A3008,,,,,,,,,10.96,,SSE,101826.52,101863.19
KSBA,04/03/2019 18:15 UTC,101862.52,16,,72.23,4.12,150,,,,,,,,202,402,,,10,,METAR KSBA 031815Z AUTO 15008KT 10SM SCT020 SCT040 16/11 A3008,,,,,,,,,10.96,,SSE,101826.52,101863.19
KSBA,04/03/2019 18:20 UTC,101862.52,17,,67.79,3.6,170,,,,,,,,202,402,,,10,,METAR KSBA 031820Z AUTO 17007KT 10SM SCT020 SCT040 17/11 A3008,,,,,,,,,10.96,,S,101826.52,101863.07
KSBA,04/03/2019 18:25 UTC,101862.52,16,,72.23,3.09,160,,,,,,,,202,402,,,10,,METAR KSBA 031825Z AUTO 16006KT 10SM SCT020 SCT040 16/11 A3008,,,,,,,,,10.96,,SSE,101826.52,101863.19
KSBA,04/03/2019 18:30 UTC,101862.52,17,,67.79,3.6,160,,,,,,,,202,402,,,10,,METAR KSBA 031830Z AUTO 16007KT 10SM SCT020 SCT040 17/11 A3008,,,,,,,,,10.96,,SSE,101826.52,101863.07
KSBA,04/03/2019 18:35 UTC,101862.52,16,,72.23,3.6,160,,,,,,,,202,402,,,10,,METAR KSBA 031835Z AUTO 16007KT 10SM SCT020 SCT040 16/11 A3008,,,,,,,,,10.96,,SSE,101826.52,101863.19
KSBA,04/03/2019 18:40 UTC,101862.52,16,,72.23,3.6,160,,,,,,,,202,402,,,10,,METAR KSBA 031840Z AUTO 16007KT 10SM SCT020 SCT040 16/11 A3008,,,,,,,,,10.96,,SSE,101826.52,101863.19
KSBA,04/03/2019 18:45 UTC,101862.52,16,,72.23,3.6,170,,,,,,,,202,402,,,10,,METAR KSBA 031845Z AUTO 17007KT 10SM SCT020 SCT040 16/11 A3008,,,,,,,,,10.96,,S,101826.52,101863.19
KSBA,04/03/2019 18:50 UTC,101862.52,17,,67.79,4.12,150,,,,,,,,292,,,,10,,METAR KSBA 031850Z AUTO 15008KT 10SM SCT029 17/11 A3008,,,,,,,,,10.96,,SSE,101826.52,101863.07
KSBA,04/03/2019 18:53 UTC,101862.52,16.1,10.6,69.89,4.12,150,,101860,,,,,,292,,,,10,,METAR KSBA 031853Z 15008KT 10SM SCT029 16/11 A3008 RMK AO2 SLP186 T01610106,,,,,,,,,10.56,,SSE,101826.52,101863.18
KSBA,04/03/2019 18:55 UTC,101862.52,16,,72.23,3.6,150,,,,,,,,296,,,,10,,METAR KSBA 031855Z AUTO 15007KT 10SM FEW029 16/11 A3008,,,,,,,,,10.96,,SSE,101826.52,101863.19
KSBA,04/03/2019 19:00 UTC,101862.52,17,,67.79,3.6,150,,,,,,,,1,,,,10,,METAR KSBA 031900Z AUTO 15007KT 10SM CLR 17/11 A3008,,,,,,,,,10.96,,SSE,101826.52,101863.07
KSBA,04/03/2019 19:05 UTC,101862.52,17,,67.79,3.6,160,,,,,,,,1,,,,10,,METAR KSBA 031905Z AUTO 16007KT 10SM CLR 17/11 A3008,,,,,,,,,10.96,,SSE,101826.52,101863.07
KSBA,04/03/2019 19:10 UTC,101862.52,16,,72.23,3.09,150,,,,,,,,1,,,,10,,METAR KSBA 031910Z AUTO 15006KT 10SM CLR 16/11 A3008,,,,,,,,,10.96,,SSE,101826.52,101863.19
KSBA,04/03/2019 19:15 UTC,101862.52,17,,67.79,3.6,140,,,,,,,,1,,,,10,,METAR KSBA 031915Z AUTO 14007KT 10SM CLR 17/11 A3008,,,,,,,,,10.96,,SE,101826.52,101863.07
KSBA,04/03/2019 19:20 UTC,101862.52,17,,67.79,3.09,150,,,,,,,,1,,,,10,,METAR KSBA 031920Z AUTO 15006KT 10SM CLR 17/11 A3008,,,,,,,,,10.96,,SSE,101826.52,101863.07
KSBA,04/03/2019 19:25 UTC,101862.52,17,,67.79,4.12,160,,,,,,,,1,,,,10,,METAR KSBA 031925Z AUTO 16008KT 10SM CLR 17/11 A3008,,,,,,,,,10.96,,SSE,101826.52,101863.07
KSBA,04/03/2019 19:30 UTC,101862.52,16,,72.23,3.6,160,,,,,,,,1,,,,10,,METAR KSBA 031930Z AUTO 16007KT 10SM CLR 16/11 A3008,,,,,,,,,10.96,,SSE,101826.52,101863.19
KSBA,04/03/2019 19:35 UTC,101862.52,17,,72.42,4.63,160,,,,,,,,1,,,,10,,METAR KSBA 031935Z AUTO 16009KT 10SM CLR 17/12 A3008,,,,,,,,,11.97,,SSE,101826.52,101863.06
KSBA,04/03/2019 19:40 UTC,101862.52,16,,72.23,4.12,140,,,,,,,,1,,,,10,,METAR KSBA 031940Z AUTO 14008KT 10SM CLR 16/11 A3008,,,,,,,,,10.96,,SE,101826.52,101863.19
KSBA,04/03/2019 19:45 UTC,101862.52,17,,67.79,4.12,160,,,,,,,,1,,,,10,,METAR KSBA 031945Z AUTO 16008KT 10SM CLR 17/11 A3008,,,,,,,,,10.96,,SSE,101826.52,101863.07
KSBA,04/03/2019 19:50 UTC,101862.52,17,,67.79,3.6,160,,,,,,,,326,,,,10,,METAR KSBA 031950Z AUTO 16007KT 10SM FEW032 17/11 A3008,,,,,,,,,10.96,,SSE,101826.52,101863.07
KSBA,04/03/2019 19:53 UTC,101862.52,17.2,10.6,65.18,3.6,180,,101870,,,,,,326,,,,10,,METAR KSBA 031953Z 18007KT 10SM FEW032 17/11 A3008 RMK AO2 SLP187 T01720106,,,,,,,,,10.56,,S,101826.52,101863.04
KSBA,04/03/2019 19:55 UTC,101862.52,17,,67.79,3.6,170,,,,,,,,322,,,,10,,METAR KSBA 031955Z AUTO 17007KT 10SM SCT032 17/11 A3008,,,,,,,,,10.96,,S,101826.52,101863.07
KSBA,04/03/2019 20:00 UTC,101862.52,17,,67.79,3.6,170,,,,,,,,322,,,,10,,METAR KSBA 032000Z AUTO 17007KT 10SM SCT032 17/11 A3008,,,,,,,,,10.96,,S,101826.52,101863.07
KSBA,04/03/2019 20:05 UTC,101862.52,17,,67.79,3.6,190,,,,,,,,322,,,,10,,METAR KSBA 032005Z AUTO 19007KT 10SM SCT032 17/11 A3008,,,,,,,,,10.96,,S,101826.52,101863.07
KSBA,04/03/2019 20:10 UTC,101862.52,17,,67.79,4.12,160,,,,,,,,322,,,,10,,METAR KSBA 032010Z AUTO 16008KT 10SM SCT032 17/11 A3008,,,,,,,,,10.96,,SSE,101826.52,101863.07
KSBA,04/03/2019 20:15 UTC,101862.52,16,,72.23,4.12,170,,,,,,,,322,,,,10,,METAR KSBA 032015Z AUTO 17008KT 10SM SCT032 16/11 A3008,,,,,,,,,10.96,,S,101826.52,101863.19
KSBA,04/03/2019 20:20 UTC,101862.52,16,,72.23,3.09,180,,,,,,,,322,,,,10,,METAR KSBA 032020Z AUTO 18006KT 10SM SCT032 16/11 A3008,,,,,,,,,10.96,,S,101826.52,101863.19
KSBA,04/03/2019 20:25 UTC,101862.52,17,,67.79,3.09,170,,,,,,,,322,,,,10,,METAR KSBA 032025Z AUTO 17006KT 10SM SCT032 17/11 A3008,,,,,,,,,10.96,,S,101826.52,101863.07
KSBA,04/03/2019 20:30 UTC,101862.52,17,,67.79,3.09,180,,,,,,,,322,,,,10,,METAR KSBA 032030Z AUTO 18006KT 10SM SCT032 17/11 A3008,,,,,,,,,10.96,,S,101826.52,101863.07
KSBA,04/03/2019 20:35 UTC,101862.52,17,,63.42,2.57,170,,,,,,,,322,,,,10,,METAR KSBA 032035Z AUTO 17005KT 10SM SCT032 17/10 A3008,,,,,,,,,9.96,,S,101826.52,101863.07
KSBA,04/03/2019 20:40 UTC,101828.66,17,,63.42,3.09,140,,,,,,,,322,,,,10,,METAR KSBA 032040Z AUTO 14006KT 10SM SCT032 17/10 A3007,,,,,,,,,9.96,,SE,101792.68,101829.21
KSBA,04/03/2019 20:45 UTC,101828.66,17,,63.42,3.09,150,,,,,,,,322,,,,10,,METAR KSBA 032045Z AUTO 15006KT 10SM SCT032 17/10 A3007,,,,,,,,,9.96,,SSE,101792.68,101829.21
KSBA,04/03/2019 20:50 UTC,101828.66,17,,67.79,3.09,180,,,,,,,,292,,,,10,,METAR KSBA 032050Z AUTO 18006KT 10SM SCT029 17/11 A3007,,,,,,,,,10.96,,S,101792.68,101829.21
KSBA,04/03/2019 20:53 UTC,101828.66,16.7,10,64.63,3.09,150,,101830,,,8003,,,292,2503,,,10,,METAR KSBA 032053Z 15006KT 10SM SCT029 BKN250 17/10 A3007 RMK AO2 SLP183  T01670100 58003,,,,7620,,,,,9.95,,SSE,101792.68,101829.25
KSBA,04/03/2019 20:55 UTC,101828.66,17,,63.42,2.57,150,,,,,,,,296,,,,10,,METAR KSBA 032055Z AUTO 15005KT 10SM FEW029 17/10 A3007,,,,,,,,,9.96,,SSE,101792.68,101829.21
KSBA,04/03/2019 21:00 UTC,101828.66,17,,67.79,2.06,160,,,,,,,,316,,,,10,,METAR KSBA 032100Z AUTO 16004KT 10SM FEW031 17/11 A3007,,,,,,,,,10.96,,SSE,101792.68,101829.21
KSBA,04/03/2019 21:05 UTC,101828.66,17,,63.42,3.09,150,,,,,,,,1,,,,10,,METAR KSBA 032105Z AUTO 15006KT 10SM CLR 17/10 A3007,,,,,,,,,9.96,,SSE,101792.68,101829.21
KSBA,04/03/2019 21:10 UTC,101828.66,17,,67.79,3.09,150,,,,,,,,1,,,,10,,METAR KSBA 032110Z AUTO 15006KT 10SM CLR 17/11 A3007,,,,,,,,,10.96,,SSE,101792.68,101829.21
KSBA,04/03/2019 21:15 UTC,101828.66,17,,67.79,3.09,150,,,,,,,,1,,,,10,,METAR KSBA 032115Z AUTO 15006KT 10SM CLR 17/11 A3007,,,,,,,,,10.96,,SSE,101792.68,101829.21
KSBA,04/03/2019 21:20 UTC,101828.66,17,,67.79,2.57,160,,,,,,,,1,,,,10,,METAR KSBA 032120Z AUTO 16005KT 10SM CLR 17/11 A3007,,,,,,,,,10.96,,SSE,101792.68,101829.21
KSBA,04/03/2019 21:25 UTC,101828.66,17,,67.79,3.09,190,,,,,,,,1,,,,10,,METAR KSBA 032125Z AUTO 19006KT 10SM CLR 17/11 A3007,,,,,,,,,10.96,,S,101792.68,101829.21
KSBA,04/03/2019 21:30 UTC,101828.66,17,,67.79,3.09,170,,,,,,,,1,,,,10,,METAR KSBA 032130Z AUTO 17006KT 10SM CLR 17/11 A3007,,,,,,,,,10.96,,S,101792.68,101829.21
KSBA,04/03/2019 21:35 UTC,101828.66,17,,67.79,3.6,180,,,,,,,,326,,,,10,,METAR KSBA 032135Z AUTO 18007KT 10SM FEW032 17/11 A3007,,,,,,,,,10.96,,S,101792.68,101829.21
KSBA,04/03/2019 21:40 UTC,101794.79,18,,63.64,3.6,150,,,,,,,,322,,,,10,,METAR KSBA 032140Z AUTO 15007KT 10SM SCT032 18/11 A3006,,,,,,,,,10.96,,SSE,101758.82,101795.22
KSBA,04/03/2019 21:45 UTC,101794.79,18,,63.64,3.09,160,,,,,,,,343,,,,10,,METAR KSBA 032145Z AUTO 16006KT 10SM BKN034 18/11 A3006,,,,1036.32,,,,,10.96,,SSE,101758.82,101795.22
KSBA,04/03/2019 21:50 UTC,101794.79,17,,67.79,3.09,150,,,,,,,,343,,,,10,,METAR KSBA 032150Z AUTO 15006KT 10SM BKN034 17/11 A3006,,,,1036.32,,,,,10.96,,SSE,101758.82,101795.34
KSBA,04/03/2019 21:53 UTC,101794.79,17.2,10,62.62,2.57,180,,101790,,,,,,342,,,,10,,METAR KSBA 032153Z 18005KT 10SM SCT034 17/10 A3006 RMK AO2 SLP179 T01720100,,,,,,,,,9.96,,S,101758.82,101795.32
KSBA,04/03/2019 21:55 UTC,101794.79,17,,63.42,3.09,170,,,,,,,,342,,,,10,,METAR KSBA 032155Z AUTO 17006KT 10SM SCT034 17/10 A3006,,,,,,,,,9.96,,S,101758.82,101795.34
KSBA,04/03/2019 22:00 UTC,101794.79,17,,59.3,3.09,150,,,,,,,,342,,,,10,,METAR KSBA 032200Z AUTO 15006KT 10SM SCT034 17/09 A3006,,,,,,,,,8.95,,SSE,101758.82,101795.34
KSBA,04/03/2019 22:05 UTC,101794.79,17,,63.42,3.09,160,,,,,,,,343,,,,10,,METAR KSBA 032205Z AUTO 16006KT 10SM BKN034 17/10 A3006,,,,1036.32,,,,,9.96,,SSE,101758.82,101795.34
KSBA,04/03/2019 22:10 UTC,101794.79,17,,63.42,2.57,150,,,,,,,,363,,,,10,,METAR KSBA 032210Z AUTO 15005KT 10SM BKN036 17/10 A3006,,,,1097.28,,,,,9.96,,SSE,101758.82,101795.34
KSBA,04/03/2019 22:15 UTC,101760.93,17,,67.79,2.57,160,,,,,,,,363,,,,10,,METAR KSBA 032215Z AUTO 16005KT 10SM BKN036 17/11 A3005,,,,1097.28,,,,,10.96,,SSE,101724.97,101761.48
KSBA,04/03/2019 22:20 UTC,101760.93,17,,63.42,2.57,180,,,,,,,,383,,,,10,,METAR KSBA 032220Z AUTO 18005KT 10SM BKN038 17/10 A3005,,,,1158.24,,,,,9.96,,S,101724.97,101761.48
KSBA,04/03/2019 22:25 UTC,101760.93,17,,63.42,3.09,160,,,,,,,,383,,,,10,,METAR KSBA 032225Z AUTO 16006KT 10SM BKN038 17/10 A3005,,,,1158.24,,,,,9.96,,SSE,101724.97,101761.48
KSBA,04/03/2019 22:30 UTC,101760.93,17,,59.3,3.09,170,,,,,,,,383,,,,10,,METAR KSBA 032230Z AUTO 17006KT 10SM BKN038 17/09 A3005,,,,1158.24,,,,,8.95,,S,101724.97,101761.48
KSBA,04/03/2019 22:35 UTC,101760.93,17,,67.79,2.57,160,,,,,,,,382,,,,10,,METAR KSBA 032235Z AUTO 16005KT 10SM SCT038 17/11 A3005,,,,,,,,,10.96,,SSE,101724.97,101761.48
KSBA,04/03/2019 22:40 UTC,101760.93,17,,67.79,3.09,160,,,,,,,,382,,,,10,,METAR KSBA 032240Z AUTO 16006KT 10SM SCT038 17/11 A3005,,,,,,,,,10.96,,SSE,101724.97,101761.48
KSBA,04/03/2019 22:45 UTC,101760.93,17,,67.79,3.09,170,,,,,,,,386,,,,10,,METAR KSBA 032245Z AUTO 17006KT 10SM FEW038 17/11 A3005,,,,,,,,,10.96,,S,101724.97,101761.48
KSBA,04/03/2019 22:50 UTC,101760.93,17,,67.79,3.09,200,,,,,,,,1,,,,10,,METAR KSBA 032250Z AUTO 20006KT 10SM CLR 17/11 A3005,,,,,,,,,10.96,,SSW,101724.97,101761.48
KSBA,04/03/2019 22:53 UTC,101760.93,16.7,11.1,69.55,2.06,,,101750,,,,,,306,,,,10,,METAR KSBA 032253Z VRB04KT 10SM FEW030 17/11 A3005 RMK AO2 SLP175 T01670111,,,,,,,,,11.06,,,101724.97,101761.52
KSBA,04/03/2019 22:55 UTC,101760.93,17,,67.79,3.09,220,,,,,,,,1,,,,10,,METAR KSBA 032255Z AUTO 22006KT 10SM CLR 17/11 A3005,,,,,,,,,10.96,,SW,101724.97,101761.48
KSBA,04/03/2019 23:00 UTC,101760.93,17,,67.79,2.57,190,,,,,,,,386,,,,10,,METAR KSBA 032300Z AUTO 19005KT 10SM FEW038 17/11 A3005,,,,,,,,,10.96,,S,101724.97,101761.48
KSBA,04/03/2019 23:05 UTC,101760.93,17,,67.79,3.09,200,,,,,,,,382,,,,10,,METAR KSBA 032305Z AUTO 20006KT 10SM SCT038 17/11 A3005,,,,,,,,,10.96,,SSW,101724.97,101761.48
KSBA,04/03/2019 23:10 UTC,101760.93,17,,67.79,2.57,210,,,,,,,,383,,,,10,,METAR KSBA 032310Z AUTO 21005KT 10SM BKN038 17/11 A3005,,,,1158.24,,,,,10.96,,SSW,101724.97,101761.48
KSBA,04/03/2019 23:15 UTC,101760.93,17,,67.79,2.57,230,,,,,,,,383,,,,10,,METAR KSBA 032315Z AUTO 23005KT 10SM BKN038 17/11 A3005,,,,1158.24,,,,,10.96,,SW,101724.97,101761.48
KSBA,04/03/2019 23:20 UTC,101727.07,17,,67.79,1.54,250,,,,,,,,382,,,,10,,METAR KSBA 032320Z AUTO 25003KT 10SM SCT038 17/11 A3004,,,,,,,,,10.96,,WSW,101691.12,101727.62
KSBA,04/03/2019 23:25 UTC,101727.07,17,,67.79,2.57,250,,,,,,,,382,,,,10,,METAR KSBA 032325Z AUTO 25005KT 10SM SCT038 17/11 A3004,,,,,,,,,10.96,,WSW,101691.12,101727.62
KSBA,04/03/2019 23:30 UTC,101727.07,17,,67.79,2.06,210,,,,,,,,382,,,,10,,METAR KSBA 032330Z AUTO 21004KT 10SM SCT038 17/11 A3004,,,,,,,,,10.96,,SSW,101691.12,101727.62
KSBA,04/03/2019 23:35 UTC,101727.07,17,,67.79,3.09,210,,,,,,,,386,,,,10,,METAR KSBA 032335Z AUTO 21006KT 10SM FEW038 17/11 A3004,,,,,,,,,10.96,,SSW,101691.12,101727.62
KSBA,04/03/2019 23:40 UTC,101760.93,17,,67.79,2.06,230,,,,,,,,1,,,,10,,METAR KSBA 032340Z AUTO 23004KT 10SM CLR 17/11 A3005,,,,,,,,,10.96,,SW,101724.97,101761.48
KSBA,04/03/2019 23:45 UTC,101727.07,17,,67.79,1.54,170,,,,,,,,1,,,,10,,METAR KSBA 032345Z AUTO 17003KT 10SM CLR 17/11 A3004,,,,,,,,,10.96,,S,101691.12,101727.62
KSBA,04/03/2019 23:50 UTC,101727.07,18,,63.64,2.06,150,,,,,,,,306,,,,10,,METAR KSBA 032350Z AUTO 15004KT 10SM FEW030 18/11 A3004,,,,,,,,,10.96,,SSE,101691.12,101727.49
KSBA,04/03/2019 23:53 UTC,101727.07,17.2,10.6,65.18,2.06,160,,101730,,,6010,,,306,,,,10,,METAR KSBA 032353Z 16004KT 10SM FEW030 17/11 A3004 RMK AO2 SLP173 T01720106  10183 20156 56010,18.3,15.6,,,,,,,10.56,,SSE,101691.12,101727.59
KSBA,04/03/2019 23:55 UTC,101727.07,17,,67.79,0,0,,,,,,,,1,,,,10,,METAR KSBA 032355Z AUTO 00000KT 10SM CLR 17/11 A3004,,,,,,,,,10.96,,N,101691.12,101727.62
KSBA,04/04/2019 00:00 UTC,101727.07,17,,67.79,1.54,230,,,,,,,,1,,,,10,,METAR KSBA 040000Z AUTO 23003KT 10SM CLR 17/11 A3004,,,,,,,,,10.96,,SW,101691.12,101727.62
KSBA,04/04/2019 00:05 UTC,101727.07,17,,67.79,2.06,210,,,,,,,,1,,,,10,,METAR KSBA 040005Z AUTO 21004KT 10SM CLR 17/11 A3004,,,,,,,,,10.96,,SSW,101691.12,101727.62
KSBA,04/04/2019 00:10 UTC,101727.07,18,,63.64,1.54,240,,,,,,,,1,,,,10,,METAR KSBA 040010Z AUTO 24003KT 10SM CLR 18/11 A3004,,,,,,,,,10.96,,WSW,101691.12,101727.49
KSBA,04/04/2019 00:15 UTC,101727.07,17,,67.79,2.06,200,,,,,,,,1,,,,10,,METAR KSBA 040015Z AUTO 20004KT 10SM CLR 17/11 A3004,,,,,,,,,10.96,,SSW,101691.12,101727.62
KSBA,04/04/2019 00:20 UTC,101727.07,17,,67.79,3.09,230,,,,,,,,1,,,,10,,METAR KSBA 040020Z AUTO 23006KT 10SM CLR 17/11 A3004,,,,,,,,,10.96,,SW,101691.12,101727.62
KSBA,04/04/2019 00:25 UTC,101727.07,17,,67.79,4.12,220,,,,,,,,1,,,,10,,METAR KSBA 040025Z AUTO 22008KT 10SM CLR 17/11 A3004,,,,,,,,,10.96,,SW,101691.12,101727.62
KSBA,04/04/2019 00:30 UTC,101760.93,17,,67.79,4.12,250,,,,,,,,506,,,,10,,METAR KSBA 040030Z AUTO 25008KT 10SM FEW050 17/11 A3005,,,,,,,,,10.96,,WSW,101724.97,101761.48
KSBA,04/04/2019 00:35 UTC,101760.93,17,,67.79,3.6,230,,,,,,,,502,,,,10,,METAR KSBA 040035Z AUTO 23007KT 10SM SCT050 17/11 A3005,,,,,,,,,10.96,,SW,101724.97,101761.48
KSBA,04/04/2019 00:40 UTC,101760.93,17,,67.79,2.57,240,,,,,,,,502,,,,10,,METAR KSBA 040040Z AUTO 24005KT 10SM SCT050 17/11 A3005,,,,,,,,,10.96,,WSW,101724.97,101761.48
KSBA,04/04/2019 00:45 UTC,101760.93,16,,72.23,2.57,230,,,,,,,,502,,,,10,,METAR KSBA 040045Z AUTO 23005KT 10SM SCT050 16/11 A3005,,,,,,,,,10.96,,SW,101724.97,101761.6
KSBA,04/04/2019 00:50 UTC,101760.93,17,,67.79,3.09,250,,,,,,,,306,502,,,10,,METAR KSBA 040050Z AUTO 25006KT 10SM FEW030 SCT050 17/11 A3005,,,,,,,,,10.96,,WSW,101724.97,101761.48
KSBA,04/04/2019 00:53 UTC,101760.93,16.1,10.6,69.89,3.09,230,,101740,,,,,,306,502,,,10,,METAR KSBA 040053Z 23006KT 10SM FEW030 SCT050 16/11 A3005 RMK AO2 SLP174  T01610106,,,,,,,,,10.56,,SW,101724.97,101761.59
KSBA,04/04/2019 00:55 UTC,101760.93,16,,72.23,3.09,230,,,,,,,,503,,,,10,,METAR KSBA 040055Z AUTO 23006KT 10SM BKN050 16/11 A3005,,,,1524,,,,,10.96,,SW,101724.97,101761.6
KSBA,04/04/2019 01:00 UTC,101760.93,16,,72.23,2.06,250,,,,,,,,503,,,,10,,METAR KSBA 040100Z AUTO 25004KT 10SM BKN050 16/11 A3005,,,,1524,,,,,10.96,,WSW,101724.97,101761.6
KSBA,04/04/2019 01:05 UTC,101760.93,16,,72.23,3.09,220,,,,,,,,506,,,,10,,METAR KSBA 040105Z AUTO 22006KT 10SM FEW050 16/11 A3005,,,,,,,,,10.96,,SW,101724.97,101761.6
KSBA,04/04/2019 01:10 UTC,101760.93,16,,72.23,2.06,240,,,,,,,,482,,,,10,,METAR KSBA 040110Z AUTO 24004KT 10SM SCT048 16/11 A3005,,,,,,,,,10.96,,WSW,101724.97,101761.6
KSBA,04/04/2019 01:15 UTC,101760.93,16,,72.23,2.57,250,,,,,,,,462,,,,10,,METAR KSBA 040115Z AUTO 25005KT 10SM SCT046 16/11 A3005,,,,,,,,,10.96,,WSW,101724.97,101761.6
KSBA,04/04/2019 01:20 UTC,101760.93,16,,72.23,2.57,250,,,,,,,,433,503,,,10,,METAR KSBA 040120Z AUTO 25005KT 10SM BKN043 BKN050 16/11 A3005,,,,1310.64,,,,,10.96,,WSW,101724.97,101761.6
KSBA,04/04/2019 01:25 UTC,101760.93,16,,72.23,2.06,250,,,,,,,,433,,,,10,,METAR KSBA 040125Z AUTO 25004KT 10SM BKN043 16/11 A3005,,,,1310.64,,,,,10.96,,WSW,101724.97,101761.6
KSBA,04/04/2019 01:30 UTC,101760.93,16,,72.23,2.06,260,,,,,,,,433,,,,10,,METAR KSBA 040130Z AUTO 26004KT 10SM BKN043 16/11 A3005,,,,1310.64,,,,,10.96,,W,101724.97,101761.6
KSBA,04/04/2019 01:35 UTC,101760.93,16,,72.23,2.57,270,,,,,,,,434,,,,10,,METAR KSBA 040135Z AUTO 27005KT 10SM OVC043 16/11 A3005,,,,1310.64,,,,,10.96,,W,101724.97,101761.6
KSBA,04/04/2019 01:40 UTC,101760.93,16,,72.23,2.06,260,,,,,,,,434,,,,10,,METAR KSBA 040140Z AUTO 26004KT 10SM OVC043 16/11 A3005,,,,1310.64,,,,,10.96,,W,101724.97,101761.6
KSBA,04/04/2019 01:45 UTC,101760.93,15,,77.01,2.57,280,,,,,,,,434,,,,10,,METAR KSBA 040145Z AUTO 28005KT 10SM OVC043 15/11 A3005,,,,1310.64,,,,,10.97,,W,101724.97,101761.73
KSBA,04/04/2019 01:50 UTC,101760.93,15,,72.04,2.06,280,,,,,,,,434,,,,10,,METAR KSBA 040150Z AUTO 28004KT 10SM OVC043 15/10 A3005,,,,1310.64,,,,,9.96,,W,101724.97,101761.73
KSBA,04/04/2019 01:53 UTC,101760.93,15,10,72.04,2.57,270,,101750,,,,,,433,,,,10,,KSBA 040153Z COR 27005KT 10SM BKN043 15/10 A3005 RMK AO2 SLP175  T01500100,,,,1310.64,,,,,9.96,,W,101724.97,101761.73
KSBA,04/04/2019 01:55 UTC,101760.93,15,,72.04,1.54,260,,,,,,,,433,,,,10,,METAR KSBA 040155Z AUTO 26003KT 10SM BKN043 15/10 A3005,,,,1310.64,,,,,9.96,,W,101724.97,101761.73
KSBA,04/04/2019 02:00 UTC,101760.93,15,,72.04,2.06,270,,,,,,,,433,,,,10,,METAR KSBA 040200Z AUTO 27004KT 10SM BKN043 15/10 A3005,,,,1310.64,,,,,9.96,,W,101724.97,101761.73
KSBA,04/04/2019 02:05 UTC,101760.93,15,,72.04,2.06,260,,,,,,,,433,,,,10,,METAR KSBA 040205Z AUTO 26004KT 10SM BKN043 15/10 A3005,,,,1310.64,,,,,9.96,,W,101724.97,101761.73
KSBA,04/04/2019 02:10 UTC,101727.07,15,,72.04,1.54,240,,,,,,,,433,,,,10,,METAR KSBA 040210Z AUTO 24003KT 10SM BKN043 15/10 A3004,,,,1310.64,,,,,9.96,,WSW,101691.12,101727.87
KSBA,04/04/2019 02:15 UTC,101727.07,15,,72.04,2.06,260,,,,,,,,433,,,,10,,METAR KSBA 040215Z AUTO 26004KT 10SM BKN043 15/10 A3004,,,,1310.64,,,,,9.96,,W,101691.12,101727.87
KSBA,04/04/2019 02:20 UTC,101727.07,15,,72.04,2.06,250,,,,,,,,433,,,,10,,METAR KSBA 040220Z AUTO 25004KT 10SM BKN043 15/10 A3004,,,,1310.64,,,,,9.96,,WSW,101691.12,101727.87
KSBA,04/04/2019 02:25 UTC,101727.07,15,,72.04,2.06,230,,,,,,,,433,,,,10,,METAR KSBA 040225Z AUTO 23004KT 10SM BKN043 15/10 A3004,,,,1310.64,,,,,9.96,,SW,101691.12,101727.87
KSBA,04/04/2019 02:30 UTC,101727.07,15,,72.04,2.57,240,,,,,,,,433,,,,10,,METAR KSBA 040230Z AUTO 24005KT 10SM BKN043 15/10 A3004,,,,1310.64,,,,,9.96,,WSW,101691.12,101727.87
KSBA,04/04/2019 02:35 UTC,101727.07,15,,72.04,2.57,240,,,,,,,,433,,,,10,,METAR KSBA 040235Z AUTO 24005KT 10SM BKN043 15/10 A3004,,,,1310.64,,,,,9.96,,WSW,101691.12,101727.87
KSBA,04/04/2019 02:40 UTC,101727.07,15,,72.04,3.6,250,,,,,,,,433,,,,10,,METAR KSBA 040240Z AUTO 25007KT 10SM BKN043 15/10 A3004,,,,1310.64,,,,,9.96,,WSW,101691.12,101727.87
KSBA,04/04/2019 02:45 UTC,101727.07,14,,76.85,3.09,250,,,,,,,,433,,,,10,,METAR KSBA 040245Z AUTO 25006KT 10SM BKN043 14/10 A3004,,,,1310.64,,,,,9.97,,WSW,101691.12,101728
KSBA,04/04/2019 02:50 UTC,101727.07,14,,76.85,3.09,260,,,,,,,,433,,,,10,,METAR KSBA 040250Z AUTO 26006KT 10SM BKN043 14/10 A3004,,,,1310.64,,,,,9.97,,W,101691.12,101728
KSBA,04/04/2019 02:53 UTC,101727.07,14.4,10,74.88,3.6,250,,101720,,,8001,,,433,,,,10,,KSBA 040253Z 25007KT 10SM BKN043 14/10 A3004 RMK AO2 SLP172  T01440100 58001,,,,1310.64,,,,,9.96,,WSW,101691.12,101727.95
KSBA,04/04/2019 02:55 UTC,101727.07,14,,76.85,3.09,250,,,,,,,,434,,,,10,,METAR KSBA 040255Z AUTO 25006KT 10SM OVC043 14/10 A3004,,,,1310.64,,,,,9.97,,WSW,101691.12,101728
KSBA,04/04/2019 03:00 UTC,101727.07,14,,76.85,2.57,250,,,,,,,,434,,,,10,,METAR KSBA 040300Z AUTO 25005KT 10SM OVC043 14/10 A3004,,,,1310.64,,,,,9.97,,WSW,101691.12,101728
KSBA,04/04/2019 03:05 UTC,101727.07,14,,76.85,3.6,240,,,,,,,,424,,,,10,,METAR KSBA 040305Z AUTO 24007KT 10SM OVC042 14/10 A3004,,,,1280.16,,,,,9.97,,WSW,101691.12,101728
KSBA,04/04/2019 03:10 UTC,101727.07,14,,76.85,4.12,240,,,,,,,,424,,,,10,,METAR KSBA 040310Z AUTO 24008KT 10SM OVC042 14/10 A3004,,,,1280.16,,,,,9.97,,WSW,101691.12,101728
KSBA,04/04/2019 03:15 UTC,101760.93,14,,76.85,3.09,260,,,,,,,,424,,,,10,,METAR KSBA 040315Z AUTO 26006KT 10SM OVC042 14/10 A3005,,,,1280.16,,,,,9.97,,W,101724.97,101761.86
KSBA,04/04/2019 03:20 UTC,101760.93,14,,76.85,3.6,250,,,,,,,,424,,,,10,,METAR KSBA 040320Z AUTO 25007KT 10SM OVC042 14/10 A3005,,,,1280.16,,,,,9.97,,WSW,101724.97,101761.86
KSBA,04/04/2019 03:25 UTC,101760.93,14,,82.14,3.6,260,,,,,,,,434,,,,10,,METAR KSBA 040325Z AUTO 26007KT 10SM OVC043 14/11 A3005,,,,1310.64,,,,,10.97,,W,101724.97,101761.86
KSBA,04/04/2019 03:30 UTC,101794.79,14,,82.14,4.12,250,,,,,,,,434,,,,10,,METAR KSBA 040330Z AUTO 25008KT 10SM OVC043 14/11 A3006,,,,1310.64,,,,,10.97,,WSW,101758.82,101795.72
KSBA,04/04/2019 03:35 UTC,101794.79,14,,82.14,4.12,250,,,,,,,,424,,,,10,,METAR KSBA 040335Z AUTO 25008KT 10SM OVC042 14/11 A3006,,,,1280.16,,,,,10.97,,WSW,101758.82,101795.72
KSBA,04/04/2019 03:40 UTC,101794.79,14,,87.75,3.09,260,,,,,,,,424,,,,10,,METAR KSBA 040340Z AUTO 26006KT 10SM OVC042 14/12 A3006,,,,1280.16,,,,,11.98,,W,101758.82,101795.72
KSBA,04/04/2019 03:45 UTC,101828.66,14,,87.75,3.6,270,,,,,,,,424,,,,10,,METAR KSBA 040345Z AUTO 27007KT 10SM OVC042 14/12 A3007,,,,1280.16,,,,,11.98,,W,101792.68,101829.59
KSBA,04/04/2019 03:50 UTC,101828.66,14,,87.75,4.12,260,,,,,,,,424,,,,10,,METAR KSBA 040350Z AUTO 26008KT 10SM OVC042 14/12 A3007,,,,1280.16,,,,,11.98,,W,101792.68,101829.59
KSBA,04/04/2019 03:53 UTC,101828.66,13.9,11.7,86.6,3.6,270,,101810,,,,,,424,,,,10,,METAR KSBA 040353Z 27007KT 10SM OVC042 14/12 A3007 RMK AO2 SLP181 T01390117,,,,1280.16,,,,,11.68,,W,101792.68,101829.61
KSBA,04/04/2019 03:55 UTC,101828.66,14,,87.75,3.6,270,,,,,,,,424,,,,10,,METAR KSBA 040355Z AUTO 27007KT 10SM OVC042 14/12 A3007,,,,1280.16,,,,,11.98,,W,101792.68,101829.59
KSBA,04/04/2019 04:00 UTC,101828.66,14,,87.75,3.6,270,,,,,,,,424,,,,10,,METAR KSBA 040400Z AUTO 27007KT 10SM OVC042 14/12 A3007,,,,1280.16,,,,,11.98,,W,101792.68,101829.59
KSBA,04/04/2019 04:05 UTC,101828.66,14,,87.75,3.6,260,,,,,,,,424,,,,10,,METAR KSBA 040405Z AUTO 26007KT 10SM OVC042 14/12 A3007,,,,1280.16,,,,,11.98,,W,101792.68,101829.59
KSBA,04/04/2019 04:10 UTC,101828.66,14,,87.75,3.09,270,,,,,,,,434,,,,10,,METAR KSBA 040410Z AUTO 27006KT 10SM OVC043 14/12 A3007,,,,1310.64,,,,,11.98,,W,101792.68,101829.59
KSBA,04/04/2019 04:15 UTC,101828.66,14,,82.14,3.09,260,,,,,,,,434,,,,10,,METAR KSBA 040415Z AUTO 26006KT 10SM OVC043 14/11 A3007,,,,1310.64,,,,,10.97,,W,101792.68,101829.59
KSBA,04/04/2019 04:20 UTC,101862.52,14,,87.75,3.09,250,,,,,,,,434,,,,10,,METAR KSBA 040420Z AUTO 25006KT 10SM OVC043 14/12 A3008,,,,1310.64,,,,,11.98,,WSW,101826.52,101863.45
KSBA,04/04/2019 04:25 UTC,101862.52,14,,87.75,3.09,260,,,,,,,,424,,,,10,,METAR KSBA 040425Z AUTO 26006KT 10SM OVC042 14/12 A3008,,,,1280.16,,,,,11.98,,W,101826.52,101863.45
KSBA,04/04/2019 04:30 UTC,101862.52,14,,87.75,3.6,260,,,,,,,,424,,,,10,,METAR KSBA 040430Z AUTO 26007KT 10SM OVC042 14/12 A3008,,,,1280.16,,,,,11.98,,W,101826.52,101863.45
KSBA,04/04/2019 04:35 UTC,101862.52,14,,87.75,4.63,260,,,,,,,,424,,,,10,,METAR KSBA 040435Z AUTO 26009KT 10SM OVC042 14/12 A3008,,,,1280.16,,,,,11.98,,W,101826.52,101863.45
KSBA,04/04/2019 04:40 UTC,101862.52,14,,87.75,3.6,260,,,,,,,,424,,,,10,,METAR KSBA 040440Z AUTO 26007KT 10SM OVC042 14/12 A3008,,,,1280.16,,,,,11.98,,W,101826.52,101863.45
KSBA,04/04/2019 04:45 UTC,101862.52,14,,82.14,3.6,270,,,,,,,,444,,,,10,,METAR KSBA 040445Z AUTO 27007KT 10SM OVC044 14/11 A3008,,,,1341.12,,,,,10.97,,W,101826.52,101863.45
KSBA,04/04/2019 04:50 UTC,101862.52,14,,82.14,3.09,270,,,,,,,,444,,,,10,,METAR KSBA 040450Z AUTO 27006KT 10SM OVC044 14/11 A3008,,,,1341.12,,,,,10.97,,W,101826.52,101863.45
KSBA,04/04/2019 04:53 UTC,101862.52,13.9,11.1,83.23,2.57,270,,101840,,,,,,444,,,,10,,METAR KSBA 040453Z 27005KT 10SM OVC044 14/11 A3008 RMK AO2 SLP184 T01390111,,,,1341.12,,,,,11.08,,W,101826.52,101863.46
KSBA,04/04/2019 04:55 UTC,101862.52,14,,82.14,2.57,270,,,,,,,,444,,,,10,,METAR KSBA 040455Z AUTO 27005KT 10SM OVC044 14/11 A3008,,,,1341.12,,,,,10.97,,W,101826.52,101863.45
KSBA,04/04/2019 05:00 UTC,101862.52,14,,87.75,2.57,280,,,,,,,,444,,,,10,,METAR KSBA 040500Z AUTO 28005KT 10SM OVC044 14/12 A3008,,,,1341.12,,,,,11.98,,W,101826.52,101863.45
KSBA,04/04/2019 05:05 UTC,101828.66,14,,87.75,2.57,270,,,,,,,,444,,,,10,,METAR KSBA 040505Z AUTO 27005KT 10SM OVC044 14/12 A3007,,,,1341.12,,,,,11.98,,W,101792.68,101829.59
KSBA,04/04/2019 05:10 UTC,101828.66,14,,82.14,3.09,260,,,,,,,,464,,,,10,,METAR KSBA 040510Z AUTO 26006KT 10SM OVC046 14/11 A3007,,,,1402.08,,,,,10.97,,W,101792.68,101829.59
KSBA,04/04/2019 05:15 UTC,101828.66,14,,82.14,2.06,260,,,,,,,,464,,,,10,,METAR KSBA 040515Z AUTO 26004KT 10SM OVC046 14/11 A3007,,,,1402.08,,,,,10.97,,W,101792.68,101829.59
KSBA,04/04/2019 05:20 UTC,101828.66,14,,82.14,2.57,260,,,,,,,,464,,,,10,,METAR KSBA 040520Z AUTO 26005KT 10SM OVC046 14/11 A3007,,,,1402.08,,,,,10.97,,W,101792.68,101829.59
KSBA,04/04/2019 05:25 UTC,101828.66,13,,87.66,2.57,250,,,,,,,,463,,,,10,,METAR KSBA 040525Z AUTO 25005KT 10SM BKN046 13/11 A3007,,,,1402.08,,,,,10.98,,WSW,101792.68,101829.72
KSBA,04/04/2019 05:30 UTC,101828.66,13,,87.66,2.57,250,,,,,,,,463,,,,10,,METAR KSBA 040530Z AUTO 25005KT 10SM BKN046 13/11 A3007,,,,1402.08,,,,,10.98,,WSW,101792.68,101829.72
KSBA,04/04/2019 05:35 UTC,101828.66,13,,87.66,2.57,250,,,,,,,,462,,,,10,,METAR KSBA 040535Z AUTO 25005KT 10SM SCT046 13/11 A3007,,,,,,,,,10.98,,WSW,101792.68,101829.72
KSBA,04/04/2019 05:40 UTC,101828.66,13,,87.66,1.54,250,,,,,,,,462,,,,10,,METAR KSBA 040540Z AUTO 25003KT 10SM SCT046 13/11 A3007,,,,,,,,,10.98,,WSW,101792.68,101829.72
KSBA,04/04/2019 05:45 UTC,101828.66,13,,87.66,2.06,250,,,,,,,,466,,,,10,,METAR KSBA 040545Z AUTO 25004KT 10SM FEW046 13/11 A3007,,,,,,,,,10.98,,WSW,101792.68,101829.72
KSBA,04/04/2019 05:50 UTC,101828.66,13,,87.66,2.57,250,,,,,,,,1,,,,10,,METAR KSBA 040550Z AUTO 25005KT 10SM CLR 13/11 A3007,,,,,,,,,10.98,,WSW,101792.68,101829.72
KSBA,04/04/2019 05:53 UTC,101828.66,13.3,11.1,86.54,2.57,250,,101810,,,8,,,1,,,,10,,METAR KSBA 040553Z 25005KT 10SM CLR 13/11 A3007 RMK AO2 SLP181 T01330111  10178 20133 50008,17.8,13.3,,,,,,,11.08,,WSW,101792.68,101829.68
KSBA,04/04/2019 05:55 UTC,101828.66,13,,87.66,2.06,250,,,,,,,,1,,,,10,,METAR KSBA 040555Z AUTO 25004KT 10SM CLR 13/11 A3007,,,,,,,,,10.98,,WSW,101792.68,101829.72
KSBA,04/04/2019 06:00 UTC,101828.66,13,,87.66,2.57,250,,,,,,,,1,,,,10,,METAR KSBA 040600Z AUTO 25005KT 10SM CLR 13/11 A3007,,,,,,,,,10.98,,WSW,101792.68,101829.72
KSBA,04/04/2019 06:05 UTC,101828.66,13,,87.66,2.57,260,,,,,,,,1,,,,10,,METAR KSBA 040605Z AUTO 26005KT 10SM CLR 13/11 A3007,,,,,,,,,10.98,,W,101792.68,101829.72
KSBA,04/04/2019 06:10 UTC,101828.66,13,,87.66,2.57,250,,,,,,,,1,,,,10,,METAR KSBA 040610Z AUTO 25005KT 10SM CLR 13/11 A3007,,,,,,,,,10.98,,WSW,101792.68,101829.72
KSBA,04/04/2019 06:15 UTC,101828.66,13,,87.66,2.57,260,,,,,,,,1,,,,10,,METAR KSBA 040615Z AUTO 26005KT 10SM CLR 13/11 A3007,,,,,,,,,10.98,,W,101792.68,101829.72
KSBA,04/04/2019 06:20 UTC,101828.66,13,,87.66,2.57,260,,,,,,,,1,,,,10,,METAR KSBA 040620Z AUTO 26005KT 10SM CLR 13/11 A3007,,,,,,,,,10.98,,W,101792.68,101829.72
KSBA,04/04/2019 06:25 UTC,101828.66,13,,87.66,2.06,270,,,,,,,,1,,,,10,,METAR KSBA 040625Z AUTO 27004KT 10SM CLR 13/11 A3007,,,,,,,,,10.98,,W,101792.68,101829.72
KSBA,04/04/2019 06:30 UTC,101828.66,13,,87.66,2.06,260,,,,,,,,1,,,,10,,METAR KSBA 040630Z AUTO 26004KT 10SM CLR 13/11 A3007,,,,,,,,,10.98,,W,101792.68,101829.72
KSBA,04/04/2019 06:35 UTC,101794.79,13,,87.66,2.06,260,,,,,,,,1,,,,10,,METAR KSBA 040635Z AUTO 26004KT 10SM CLR 13/11 A3006,,,,,,,,,10.98,,W,101758.82,101795.85
KSBA,04/04/2019 06:40 UTC,101794.79,13,,87.66,2.06,270,,,,,,,,1,,,,10,,METAR KSBA 040640Z AUTO 27004KT 10SM CLR 13/11 A3006,,,,,,,,,10.98,,W,101758.82,101795.85
KSBA,04/04/2019 06:45 UTC,101794.79,13,,87.66,2.06,270,,,,,,,,1,,,,10,,METAR KSBA 040645Z AUTO 27004KT 10SM CLR 13/11 A3006,,,,,,,,,10.98,,W,101758.82,101795.85
KSBA,04/04/2019 06:50 UTC,101828.66,13,,87.66,2.57,250,,,,,,,,1,,,,10,,METAR KSBA 040650Z AUTO 25005KT 10SM CLR 13/11 A3007,,,,,,,,,10.98,,WSW,101792.68,101829.72
KSBA,04/04/2019 06:53 UTC,101794.79,13.3,11.1,86.54,2.06,250,,101800,,,,,,1,,,,10,,KSBA 040653Z 25004KT 10SM CLR 13/11 A3006 RMK AO2 SLP180  T01330111,,,,,,,,,11.08,,WSW,101758.82,101795.81
KSBA,04/04/2019 06:55 UTC,101794.79,13,,87.66,2.06,250,,,,,,,,1,,,,10,,METAR KSBA 040655Z AUTO 25004KT 10SM CLR 13/11 A3006,,,,,,,,,10.98,,WSW,101758.82,101795.85
KSBA,04/04/2019 07:00 UTC,101828.66,13,,87.66,2.57,250,,,,,,,,1,,,,10,,METAR KSBA 040700Z AUTO 25005KT 10SM CLR 13/11 A3007,,,,,,,,,10.98,,WSW,101792.68,101829.72
KSBA,04/04/2019 07:05 UTC,101828.66,13,,87.66,2.57,250,,,,,,,,506,,,,10,,METAR KSBA 040705Z AUTO 25005KT 10SM FEW050 13/11 A3007,,,,,,,,,10.98,,WSW,101792.68,101829.72
KSBA,04/04/2019 07:10 UTC,101828.66,13,,87.66,3.6,240,,,,,,,,236,502,,,10,,METAR KSBA 040710Z AUTO 24007KT 10SM FEW023 SCT050 13/11 A3007,,,,,,,,,10.98,,WSW,101792.68,101829.72
KSBA,04/04/2019 07:15 UTC,101828.66,13,,87.66,3.09,250,,,,,,,,232,503,,,10,,METAR KSBA 040715Z AUTO 25006KT 10SM SCT023 BKN050 13/11 A3007,,,,1524,,,,,10.98,,WSW,101792.68,101829.72
KSBA,04/04/2019 07:20 UTC,101828.66,13,,87.66,2.57,250,,,,,,,,232,503,,,10,,METAR KSBA 040720Z AUTO 25005KT 10SM SCT023 BKN050 13/11 A3007,,,,1524,,,,,10.98,,WSW,101792.68,101829.72
KSBA,04/04/2019 07:25 UTC,101794.79,13,,87.66,2.06,290,,,,,,,,232,503,,,10,,METAR KSBA 040725Z AUTO 29004KT 10SM SCT023 BKN050 13/11 A3006,,,,1524,,,,,10.98,,WNW,101758.82,101795.85
KSBA,04/04/2019 07:30 UTC,101828.66,13,,87.66,3.09,270,,,,,,,,232,503,,,10,,METAR KSBA 040730Z AUTO 27006KT 10SM SCT023 BKN050 13/11 A3007,,,,1524,,,,,10.98,,W,101792.68,101829.72
KSBA,04/04/2019 07:35 UTC,101794.79,13,,87.66,2.06,270,,,,,,,,233,503,,,10,,METAR KSBA 040735Z AUTO 27004KT 10SM BKN023 BKN050 13/11 A3006,,,,701.04,,,,,10.98,,W,101758.82,101795.85
KSBA,04/04/2019 07:39 UTC,101794.79,13.3,11.1,86.54,2.06,270,,,,,,,,223,504,,,10,,KSBA 040739Z 27004KT 10SM BKN022 OVC050 13/11 A3006 RMK AO2  T01330111,,,,670.56,,,,,11.08,,W,101758.82,101795.81
KSBA,04/04/2019 07:40 UTC,101794.79,13,,87.66,1.54,270,,,,,,,,223,504,,,10,,METAR KSBA 040740Z AUTO 27003KT 10SM BKN022 OVC050 13/11 A3006,,,,670.56,,,,,10.98,,W,101758.82,101795.85
KSBA,04/04/2019 07:45 UTC,101794.79,13,,87.66,2.57,280,,,,,,,,223,503,,,10,,METAR KSBA 040745Z AUTO 28005KT 10SM BKN022 BKN050 13/11 A3006,,,,670.56,,,,,10.98,,W,101758.82,101795.85
KSBA,04/04/2019 07:50 UTC,101794.79,13,,87.66,2.57,260,,,,,,,,223,503,,,10,,METAR KSBA 040750Z AUTO 26005KT 10SM BKN022 BKN050 13/11 A3006,,,,670.56,,,,,10.98,,W,101758.82,101795.85
KSBA,04/04/2019 07:53 UTC,101794.79,13.3,11.1,86.54,2.06,260,,101800,,,,,,223,,,,10,,METAR KSBA 040753Z 26004KT 10SM BKN022 13/11 A3006 RMK AO2 SLP180 T01330111  401830078,,,,670.56,,18.3,7.8,,11.08,,W,101758.82,101795.81
KSBA,04/04/2019 07:55 UTC,101794.79,13,,87.66,2.06,260,,,,,,,,224,,,,10,,METAR KSBA 040755Z AUTO 26004KT 10SM OVC022 13/11 A3006,,,,670.56,,,,,10.98,,W,101758.82,101795.85
KSBA,04/04/2019 08:00 UTC,101794.79,13,,87.66,2.06,270,,,,,,,,224,,,,10,,METAR KSBA 040800Z AUTO 27004KT 10SM OVC022 13/11 A3006,,,,670.56,,,,,10.98,,W,101758.82,101795.85
KSBA,04/04/2019 08:05 UTC,101794.79,13,,87.66,2.06,280,,,,,,,,224,,,,10,,METAR KSBA 040805Z AUTO 28004KT 10SM OVC022 13/11 A3006,,,,670.56,,,,,10.98,,W,101758.82,101795.85
KSBA,04/04/2019 08:10 UTC,101828.66,13,,87.66,2.06,270,,,,,,,,244,,,,10,,METAR KSBA 040810Z AUTO 27004KT 10SM OVC024 13/11 A3007,,,,731.52,,,,,10.98,,W,101792.68,101829.72
KSBA,04/04/2019 08:15 UTC,101794.79,13,,87.66,2.06,270,,,,,,,,244,,,,10,,METAR KSBA 040815Z AUTO 27004KT 10SM OVC024 13/11 A3006,,,,731.52,,,,,10.98,,W,101758.82,101795.85
KSBA,04/04/2019 08:20 UTC,101828.66,13,,87.66,2.57,260,,,,,,,,244,,,,10,,METAR KSBA 040820Z AUTO 26005KT 10SM OVC024 13/11 A3007,,,,731.52,,,,,10.98,,W,101792.68,101829.72
KSBA,04/04/2019 08:25 UTC,101794.79,13,,87.66,2.06,280,,,,,,,,244,,,,10,,METAR KSBA 040825Z AUTO 28004KT 10SM OVC024 13/11 A3006,,,,731.52,,,,,10.98,,W,101758.82,101795.85
KSBA,04/04/2019 08:30 UTC,101794.79,13,,87.66,2.57,280,,,,,,,,244,,,,10,,METAR KSBA 040830Z AUTO 28005KT 10SM OVC024 13/11 A3006,,,,731.52,,,,,10.98,,W,101758.82,101795.85
KSBA,04/04/2019 08:35 UTC,101794.79,13,,87.66,2.57,270,,,,,,,,244,,,,10,,METAR KSBA 040835Z AUTO 27005KT 10SM OVC024 13/11 A3006,,,,731.52,,,,,10.98,,W,101758.82,101795.85
KSBA,04/04/2019 08:40 UTC,101794.79,13,,87.66,2.57,280,,,,,,,,254,,,,10,,METAR KSBA 040840Z AUTO 28005KT 10SM OVC025 13/11 A3006,,,,762,,,,,10.98,,W,101758.82,101795.85
KSBA,04/04/2019 08:45 UTC,101794.79,13,,87.66,2.57,290,,,,,,,,254,,,,10,,METAR KSBA 040845Z AUTO 29005KT 10SM OVC025 13/11 A3006,,,,762,,,,,10.98,,WNW,101758.82,101795.85
KSBA,04/04/2019 08:50 UTC,101794.79,13,,87.66,2.06,280,,,,,,,,254,,,,10,,METAR KSBA 040850Z AUTO 28004KT 10SM OVC025 13/11 A3006,,,,762,,,,,10.98,,W,101758.82,101795.85
KSBA,04/04/2019 08:53 UTC,101794.79,12.8,11.1,89.41,2.06,280,,101780,,,8003,,,254,,,,10,,METAR KSBA 040853Z 28004KT 10SM OVC025 13/11 A3006 RMK AO2 SLP178 T01280111  58003,,,,762,,,,,11.08,,W,101758.82,101795.88
KSBA,04/04/2019 08:55 UTC,101794.79,13,,87.66,2.06,270,,,,,,,,254,,,,10,,METAR KSBA 040855Z AUTO 27004KT 10SM OVC025 13/11 A3006,,,,762,,,,,10.98,,W,101758.82,101795.85
KSBA,04/04/2019 09:00 UTC,101794.79,13,,87.66,2.06,280,,,,,,,,254,,,,10,,METAR KSBA 040900Z AUTO 28004KT 10SM OVC025 13/11 A3006,,,,762,,,,,10.98,,W,101758.82,101795.85
KSBA,04/04/2019 09:05 UTC,101794.79,13,,87.66,2.06,280,,,,,,,,254,,,,10,,METAR KSBA 040905Z AUTO 28004KT 10SM OVC025 13/11 A3006,,,,762,,,,,10.98,,W,101758.82,101795.85
KSBA,04/04/2019 09:10 UTC,101794.79,13,,87.66,2.06,260,,,,,,,,264,,,,10,,METAR KSBA 040910Z AUTO 26004KT 10SM OVC026 13/11 A3006,,,,792.48,,,,,10.98,,W,101758.82,101795.85
KSBA,04/04/2019 09:15 UTC,101794.79,13,,87.66,2.06,270,,,,,,,,264,,,,10,,METAR KSBA 040915Z AUTO 27004KT 10SM OVC026 13/11 A3006,,,,792.48,,,,,10.98,,W,101758.82,101795.85
KSBA,04/04/2019 09:20 UTC,101794.79,13,,87.66,2.06,280,,,,,,,,264,,,,10,,METAR KSBA 040920Z AUTO 28004KT 10SM OVC026 13/11 A3006,,,,792.48,,,,,10.98,,W,101758.82,101795.85
KSBA,04/04/2019 09:25 UTC,101794.79,13,,87.66,1.54,290,,,,,,,,264,,,,10,,METAR KSBA 040925Z AUTO 29003KT 10SM OVC026 13/11 A3006,,,,792.48,,,,,10.98,,WNW,101758.82,101795.85
KSBA,04/04/2019 09:30 UTC,101794.79,13,,87.66,1.54,280,,,,,,,,264,,,,10,,METAR KSBA 040930Z AUTO 28003KT 10SM OVC026 13/11 A3006,,,,792.48,,,,,10.98,,W,101758.82,101795.85
KSBA,04/04/2019 09:35 UTC,101760.93,13,,87.66,1.54,290,,,,,,,,274,,,,10,,METAR KSBA 040935Z AUTO 29003KT 10SM OVC027 13/11 A3005,,,,822.96,,,,,10.98,,WNW,101724.97,101761.99
KSBA,04/04/2019 09:40 UTC,101760.93,13,,87.66,1.54,280,,,,,,,,274,,,,10,,METAR KSBA 040940Z AUTO 28003KT 10SM OVC027 13/11 A3005,,,,822.96,,,,,10.98,,W,101724.97,101761.99
KSBA,04/04/2019 09:45 UTC,101760.93,13,,87.66,2.06,280,,,,,,,,274,,,,10,,METAR KSBA 040945Z AUTO 28004KT 10SM OVC027 13/11 A3005,,,,822.96,,,,,10.98,,W,101724.97,101761.99
KSBA,04/04/2019 09:50 UTC,101760.93,13,,87.66,2.06,270,,,,,,,,274,,,,10,,METAR KSBA 040950Z AUTO 27004KT 10SM OVC027 13/11 A3005,,,,822.96,,,,,10.98,,W,101724.97,101761.99
KSBA,04/04/2019 09:53 UTC,101794.79,12.8,11.1,89.41,2.06,280,,101770,,,,,,274,,,,10,,METAR KSBA 040953Z 28004KT 10SM OVC027 13/11 A3006 RMK AO2 SLP177 T01280111,,,,822.96,,,,,11.08,,W,101758.82,101795.88
KSBA,04/04/2019 09:55 UTC,101794.79,13,,87.66,2.06,270,,,,,,,,274,,,,10,,METAR KSBA 040955Z AUTO 27004KT 10SM OVC027 13/11 A3006,,,,822.96,,,,,10.98,,W,101758.82,101795.85
KSBA,04/04/2019 10:00 UTC,101760.93,13,,87.66,1.54,280,,,,,,,,274,,,,10,,METAR KSBA 041000Z AUTO 28003KT 10SM OVC027 13/11 A3005,,,,822.96,,,,,10.98,,W,101724.97,101761.99
KSBA,04/04/2019 10:05 UTC,101760.93,13,,87.66,2.06,270,,,,,,,,274,,,,10,,METAR KSBA 041005Z AUTO 27004KT 10SM OVC027 13/11 A3005,,,,822.96,,,,,10.98,,W,101724.97,101761.99
KSBA,04/04/2019 10:10 UTC,101760.93,13,,87.66,2.06,270,,,,,,,,274,,,,10,,METAR KSBA 041010Z AUTO 27004KT 10SM OVC027 13/11 A3005,,,,822.96,,,,,10.98,,W,101724.97,101761.99
KSBA,04/04/2019 10:15 UTC,101760.93,13,,87.66,2.06,270,,,,,,,,274,,,,10,,METAR KSBA 041015Z AUTO 27004KT 10SM OVC027 13/11 A3005,,,,822.96,,,,,10.98,,W,101724.97,101761.99
KSBA,04/04/2019 10:20 UTC,101794.79,13,,87.66,2.06,260,,,,,,,,274,,,,10,,METAR KSBA 041020Z AUTO 26004KT 10SM OVC027 13/11 A3006,,,,822.96,,,,,10.98,,W,101758.82,101795.85
KSBA,04/04/2019 10:25 UTC,101760.93,13,,87.66,2.06,260,,,,,,,,274,,,,10,,METAR KSBA 041025Z AUTO 26004KT 10SM OVC027 13/11 A3005,,,,822.96,,,,,10.98,,W,101724.97,101761.99
KSBA,04/04/2019 10:30 UTC,101760.93,13,,87.66,2.06,270,,,,,,,,274,,,,10,,METAR KSBA 041030Z AUTO 27004KT 10SM OVC027 13/11 A3005,,,,822.96,,,,,10.98,,W,101724.97,101761.99
KSBA,04/04/2019 10:35 UTC,101760.93,13,,87.66,2.06,280,,,,,,,,264,,,,10,,METAR KSBA 041035Z AUTO 28004KT 10SM OVC026 13/11 A3005,,,,792.48,,,,,10.98,,W,101724.97,101761.99
KSBA,04/04/2019 10:40 UTC,101760.93,13,,87.66,2.57,270,,,,,,,,264,,,,10,,METAR KSBA 041040Z AUTO 27005KT 10SM OVC026 13/11 A3005,,,,792.48,,,,,10.98,,W,101724.97,101761.99
KSBA,04/04/2019 10:45 UTC,101760.93,13,,87.66,3.09,270,,,,,,,,264,,,,10,,METAR KSBA 041045Z AUTO 27006KT 10SM OVC026 13/11 A3005,,,,792.48,,,,,10.98,,W,101724.97,101761.99
KSBA,04/04/2019 10:50 UTC,101760.93,13,,87.66,2.06,270,,,,,,,,264,,,,10,,METAR KSBA 041050Z AUTO 27004KT 10SM OVC026 13/11 A3005,,,,792.48,,,,,10.98,,W,101724.97,101761.99
KSBA,04/04/2019 10:53 UTC,101760.93,13.3,11.1,86.54,2.06,280,,101760,,,,,,264,,,,10,,METAR KSBA 041053Z 28004KT 10SM OVC026 13/11 A3005 RMK AO2 SLP176 T01330111,,,,792.48,,,,,11.08,,W,101724.97,101761.95
KSBA,04/04/2019 10:55 UTC,101760.93,13,,87.66,2.06,280,,,,,,,,264,,,,10,,METAR KSBA 041055Z AUTO 28004KT 10SM OVC026 13/11 A3005,,,,792.48,,,,,10.98,,W,101724.97,101761.99
KSBA,04/04/2019 11:00 UTC,101760.93,13,,87.66,2.06,280,,,,,,,,264,,,,10,,METAR KSBA 041100Z AUTO 28004KT 10SM OVC026 13/11 A3005,,,,792.48,,,,,10.98,,W,101724.97,101761.99
KSBA,04/04/2019 11:05 UTC,101760.93,13,,87.66,2.06,280,,,,,,,,264,,,,10,,METAR KSBA 041105Z AUTO 28004KT 10SM OVC026 13/11 A3005,,,,792.48,,,,,10.98,,W,101724.97,101761.99
KSBA,04/04/2019 11:10 UTC,101760.93,13,,87.66,2.06,270,,,,,,,,264,,,,10,,METAR KSBA 041110Z AUTO 27004KT 10SM OVC026 13/11 A3005,,,,792.48,,,,,10.98,,W,101724.97,101761.99
KSBA,04/04/2019 11:15 UTC,101760.93,13,,87.66,2.06,260,,,,,,,,264,,,,10,,METAR KSBA 041115Z AUTO 26004KT 10SM OVC026 13/11 A3005,,,,792.48,,,,,10.98,,W,101724.97,101761.99
KSBA,04/04/2019 11:20 UTC,101760.93,13,,87.66,2.06,260,,,,,,,,264,,,,10,,METAR KSBA 041120Z AUTO 26004KT 10SM OVC026 13/11 A3005,,,,792.48,,,,,10.98,,W,101724.97,101761.99
KSBA,04/04/2019 11:25 UTC,101760.93,13,,87.66,2.57,250,,,,,,,,264,,,,10,,METAR KSBA 041125Z AUTO 25005KT 10SM OVC026 13/11 A3005,,,,792.48,,,,,10.98,,WSW,101724.97,101761.99
KSBA,04/04/2019 11:30 UTC,101760.93,13,,87.66,2.06,250,,,,,,,,264,,,,10,,METAR KSBA 041130Z AUTO 25004KT 10SM OVC026 13/11 A3005,,,,792.48,,,,,10.98,,WSW,101724.97,101761.99
KSBA,04/04/2019 11:35 UTC,101760.93,13,,87.66,2.06,270,,,,,,,,264,,,,10,,METAR KSBA 041135Z AUTO 27004KT 10SM OVC026 13/11 A3005,,,,792.48,,,,,10.98,,W,101724.97,101761.99
KSBA,04/04/2019 11:40 UTC,101760.93,13,,87.66,2.06,270,,,,,,,,264,,,,10,,METAR KSBA 041140Z AUTO 27004KT 10SM OVC026 13/11 A3005,,,,792.48,,,,,10.98,,W,101724.97,101761.99
KSBA,04/04/2019 11:45 UTC,101760.93,13,,87.66,3.09,270,,,,,,,,264,,,,10,,METAR KSBA 041145Z AUTO 27006KT 10SM OVC026 13/11 A3005,,,,792.48,,,,,10.98,,W,101724.97,101761.99
KSBA,04/04/2019 11:50 UTC,101760.93,13,,87.66,3.09,260,,,,,,,,264,,,,10,,METAR KSBA 041150Z AUTO 26006KT 10SM OVC026 13/11 A3005,,,,792.48,,,,,10.98,,W,101724.97,101761.99
KSBA,04/04/2019 11:53 UTC,101760.93,13.3,10.6,83.71,2.06,270,,101760,,,6002,,,264,,,,10,,METAR KSBA 041153Z 27004KT 10SM OVC026 13/11 A3005 RMK AO2 SLP176 T01330106  10133 20128 56002,13.3,12.8,,792.48,,,,,10.57,,W,101724.97,101761.95
KSBA,04/04/2019 11:55 UTC,101760.93,13,,87.66,2.06,260,,,,,,,,264,,,,10,,METAR KSBA 041155Z AUTO 26004KT 10SM OVC026 13/11 A3005,,,,792.48,,,,,10.98,,W,101724.97,101761.99
KSBA,04/04/2019 12:00 UTC,101760.93,13,,87.66,2.06,270,,,,,,,,264,,,,10,,METAR KSBA 041200Z AUTO 27004KT 10SM OVC026 13/11 A3005,,,,792.48,,,,,10.98,,W,101724.97,101761.99
KSBA,04/04/2019 12:05 UTC,101794.79,13,,87.66,0,0,,,,,,,,264,,,,10,,METAR KSBA 041205Z AUTO 00000KT 10SM OVC026 13/11 A3006,,,,792.48,,,,,10.98,,N,101758.82,101795.85
KSBA,04/04/2019 12:10 UTC,101794.79,13,,87.66,1.54,260,,,,,,,,264,,,,10,,METAR KSBA 041210Z AUTO 26003KT 10SM OVC026 13/11 A3006,,,,792.48,,,,,10.98,,W,101758.82,101795.85
KSBA,04/04/2019 12:15 UTC,101794.79,13,,87.66,2.06,260,,,,,,,,264,,,,10,,METAR KSBA 041215Z AUTO 26004KT 10SM OVC026 13/11 A3006,,,,792.48,,,,,10.98,,W,101758.82,101795.85
KSBA,04/04/2019 12:20 UTC,101794.79,13,,87.66,1.54,280,,,,,,,,264,,,,10,,METAR KSBA 041220Z AUTO 28003KT 10SM OVC026 13/11 A3006,,,,792.48,,,,,10.98,,W,101758.82,101795.85
KSBA,04/04/2019 12:25 UTC,101794.79,13,,87.66,2.06,260,,,,,,,,264,,,,10,,METAR KSBA 041225Z AUTO 26004KT 10SM OVC026 13/11 A3006,,,,792.48,,,,,10.98,,W,101758.82,101795.85
KSBA,04/04/2019 12:30 UTC,101794.79,13,,87.66,0,0,,,,,,,,264,,,,10,,METAR KSBA 041230Z AUTO 00000KT 10SM OVC026 13/11 A3006,,,,792.48,,,,,10.98,,N,101758.82,101795.85
KSBA,04/04/2019 12:35 UTC,101794.79,13,,87.66,0,0,,,,,,,,264,,,,10,,METAR KSBA 041235Z AUTO 00000KT 10SM OVC026 13/11 A3006,,,,792.48,,,,,10.98,,N,101758.82,101795.85
KSBA,04/04/2019 12:40 UTC,101794.79,13,,87.66,0,0,,,,,,,,264,,,,10,,METAR KSBA 041240Z AUTO 00000KT 10SM OVC026 13/11 A3006,,,,792.48,,,,,10.98,,N,101758.82,101795.85
KSBA,04/04/2019 12:45 UTC,101794.79,13,,87.66,0,0,,,,,,,,244,,,,10,,METAR KSBA 041245Z AUTO 00000KT 10SM OVC024 13/11 A3006,,,,731.52,,,,,10.98,,N,101758.82,101795.85
KSBA,04/04/2019 12:50 UTC,101760.93,13,,87.66,0,0,,,,,,,,244,,,,10,,METAR KSBA 041250Z AUTO 00000KT 10SM OVC024 13/11 A3005,,,,731.52,,,,,10.98,,N,101724.97,101761.99
KSBA,04/04/2019 12:53 UTC,101794.79,13.3,11.1,86.54,0,0,,101770,,,,,,244,,,,10,,METAR KSBA 041253Z 00000KT 10SM OVC024 13/11 A3006 RMK AO2 SLP177 T01330111,,,,731.52,,,,,11.08,,N,101758.82,101795.81
KSBA,04/04/2019 12:55 UTC,101794.79,13,,87.66,0,0,,,,,,,,254,,,,10,,METAR KSBA 041255Z AUTO 00000KT 10SM OVC025 13/11 A3006,,,,762,,,,,10.98,,N,101758.82,101795.85
KSBA,04/04/2019 13:00 UTC,101794.79,13,,87.66,0,0,,,,,,,,254,,,,10,,METAR KSBA 041300Z AUTO 00000KT 10SM OVC025 13/11 A3006,,,,762,,,,,10.98,,N,101758.82,101795.85
KSBA,04/04/2019 13:05 UTC,101794.79,13,,87.66,1.54,30,,,,,,,,274,,,,10,,METAR KSBA 041305Z AUTO 03003KT 10SM OVC027 13/11 A3006,,,,822.96,,,,,10.98,,NNE,101758.82,101795.85
KSBA,04/04/2019 13:10 UTC,101760.93,13,,87.66,0,0,,,,,,,,294,,,,10,,METAR KSBA 041310Z AUTO 00000KT 10SM OVC029 13/11 A3005,,,,883.92,,,,,10.98,,N,101724.97,101761.99
KSBA,04/04/2019 13:15 UTC,101760.93,13,,87.66,0,0,,,,,,,,294,,,,10,,METAR KSBA 041315Z AUTO 00000KT 10SM OVC029 13/11 A3005,,,,883.92,,,,,10.98,,N,101724.97,101761.99
KSBA,04/04/2019 13:20 UTC,101794.79,13,,87.66,0,0,,,,,,,,294,,,,10,,METAR KSBA 041320Z AUTO 00000KT 10SM OVC029 13/11 A3006,,,,883.92,,,,,10.98,,N,101758.82,101795.85
KSBA,04/04/2019 13:25 UTC,101794.79,13,,87.66,1.54,50,,,,,,,,294,,,,10,,METAR KSBA 041325Z AUTO 05003KT 10SM OVC029 13/11 A3006,,,,883.92,,,,,10.98,,NE,101758.82,101795.85
KSBA,04/04/2019 13:30 UTC,101794.79,13,,87.66,0,0,,,,,,,,284,,,,10,,METAR KSBA 041330Z AUTO 00000KT 10SM OVC028 13/11 A3006,,,,853.44,,,,,10.98,,N,101758.82,101795.85
KSBA,04/04/2019 13:35 UTC,101794.79,13,,87.66,1.54,50,,,,,,,,284,,,,10,,METAR KSBA 041335Z AUTO 05003KT 10SM OVC028 13/11 A3006,,,,853.44,,,,,10.98,,NE,101758.82,101795.85
KSBA,04/04/2019 13:40 UTC,101794.79,13,,87.66,1.54,40,,,,,,,,284,,,,10,,METAR KSBA 041340Z AUTO 04003KT 10SM OVC028 13/11 A3006,,,,853.44,,,,,10.98,,NE,101758.82,101795.85
KSBA,04/04/2019 13:45 UTC,101794.79,13,,87.66,1.54,40,,,,,,,,284,,,,10,,METAR KSBA 041345Z AUTO 04003KT 10SM OVC028 13/11 A3006,,,,853.44,,,,,10.98,,NE,101758.82,101795.85
KSBA,04/04/2019 13:50 UTC,101794.79,13,,87.66,1.54,50,,,,,,,,284,,,,10,,METAR KSBA 041350Z AUTO 05003KT 10SM OVC028 13/11 A3006,,,,853.44,,,,,10.98,,NE,101758.82,101795.85
KSBA,04/04/2019 13:53 UTC,101794.79,13.3,10.6,83.71,2.06,50,,101790,,,,,,304,,,,10,,METAR KSBA 041353Z 05004KT 10SM OVC030 13/11 A3006 RMK AO2 SLP179 T01330106,,,,914.4,,,,,10.57,,NE,101758.82,101795.81
KSBA,04/04/2019 13:55 UTC,101794.79,13,,87.66,2.06,50,,,,,,,,306,434,,,10,,METAR KSBA 041355Z AUTO 05004KT 10SM FEW030 OVC043 13/11 A3006,,,,1310.64,,,,,10.98,,NE,101758.82,101795.85
KSBA,04/04/2019 14:00 UTC,101828.66,13,,87.66,1.54,60,,,,,,,,292,434,,,10,,METAR KSBA 041400Z AUTO 06003KT 10SM SCT029 OVC043 13/11 A3007,,,,1310.64,,,,,10.98,,ENE,101792.68,101829.72
KSBA,04/04/2019 14:05 UTC,101828.66,13,,87.66,2.06,80,,,,,,,,292,434,,,10,,METAR KSBA 041405Z AUTO 08004KT 10SM SCT029 OVC043 13/11 A3007,,,,1310.64,,,,,10.98,,E,101792.68,101829.72
KSBA,04/04/2019 14:10 UTC,101828.66,13,,87.66,1.54,70,,,,,,,,292,434,,,10,,METAR KSBA 041410Z AUTO 07003KT 10SM SCT029 OVC043 13/11 A3007,,,,1310.64,,,,,10.98,,ENE,101792.68,101829.72
KSBA,04/04/2019 14:15 UTC,101828.66,13,,87.66,2.06,90,,,,,,,,292,434,,,10,,METAR KSBA 041415Z AUTO 09004KT 10SM SCT029 OVC043 13/11 A3007,,,,1310.64,,,,,10.98,,E,101792.68,101829.72
KSBA,04/04/2019 14:20 UTC,101828.66,13,,87.66,2.06,90,,,,,,,,292,434,,,10,,METAR KSBA 041420Z AUTO 09004KT 10SM SCT029 OVC043 13/11 A3007,,,,1310.64,,,,,10.98,,E,101792.68,101829.72
KSBA,04/04/2019 14:25 UTC,101862.52,13,,87.66,2.06,90,,,,,,,,292,434,,,10,,METAR KSBA 041425Z AUTO 09004KT 10SM SCT029 OVC043 13/11 A3008,,,,1310.64,,,,,10.98,,E,101826.52,101863.58
KSBA,04/04/2019 14:30 UTC,101862.52,13,,87.66,1.54,100,,,,,,,,292,434,,,10,,METAR KSBA 041430Z AUTO 10003KT 10SM SCT029 OVC043 13/11 A3008,,,,1310.64,,,,,10.98,,E,101826.52,101863.58
KSBA,04/04/2019 14:35 UTC,101862.52,13,,87.66,1.54,90,,,,,,,,292,434,,,10,,METAR KSBA 041435Z AUTO 09003KT 10SM SCT029 OVC043 13/11 A3008,,,,1310.64,,,,,10.98,,E,101826.52,101863.58
KSBA,04/04/2019 14:40 UTC,101862.52,13,,87.66,1.54,90,,,,,,,,292,434,,,10,,METAR KSBA 041440Z AUTO 09003KT 10SM SCT029 OVC043 13/11 A3008,,,,1310.64,,,,,10.98,,E,101826.52,101863.58
KSBA,04/04/2019 14:45 UTC,101862.52,14,,82.14,1.54,100,,,,,,,,292,434,,,10,,METAR KSBA 041445Z AUTO 10003KT 10SM SCT029 OVC043 14/11 A3008,,,,1310.64,,,,,10.97,,E,101826.52,101863.45
KSBA,04/04/2019 14:50 UTC,101862.52,14,,82.14,1.54,110,,,,,,,,292,434,,,10,,METAR KSBA 041450Z AUTO 11003KT 10SM SCT029 OVC043 14/11 A3008,,,,1310.64,,,,,10.97,,ESE,101826.52,101863.45
KSBA,04/04/2019 14:53 UTC,101896.38,13.3,10.6,83.71,0,0,,101880,,,3012,,,292,434,,,10,,METAR KSBA 041453Z 00000KT 10SM SCT029 OVC043 13/11 A3009 RMK AO2 SLP188  T01330106 53012,,,,1310.64,,,,,10.57,,N,101860.37,101897.4
KSBA,04/04/2019 14:55 UTC,101896.38,13,,87.66,1.54,140,,,,,,,,323,414,,,10,,METAR KSBA 041455Z AUTO 14003KT 10SM BKN032 OVC041 13/11 A3009,,,,975.36,,,,,10.98,,SE,101860.37,101897.44
KSBA,04/04/2019 15:00 UTC,101896.38,13,,87.66,0,0,,,,,,,,323,414,,,10,,METAR KSBA 041500Z AUTO 00000KT 10SM BKN032 OVC041 13/11 A3009,,,,975.36,,,,,10.98,,N,101860.37,101897.44
KSBA,04/04/2019 15:05 UTC,101896.38,14,,82.14,0,0,,,,,,,,323,434,,,10,,METAR KSBA 041505Z AUTO 00000KT 10SM BKN032 OVC043 14/11 A3009,,,,975.36,,,,,10.97,,N,101860.37,101897.31
KSBA,04/04/2019 15:10 UTC,101896.38,14,,76.85,0,0,,,,,,,,323,434,,,10,,METAR KSBA 041510Z AUTO 00000KT 10SM BKN032 OVC043 14/10 A3009,,,,975.36,,,,,9.97,,N,101860.37,101897.31
KSBA,04/04/2019 15:15 UTC,101896.38,14,,82.14,0,0,,,,,,,,323,454,,,10,,METAR KSBA 041515Z AUTO 00000KT 10SM BKN032 OVC045 14/11 A3009,,,,975.36,,,,,10.97,,N,101860.37,101897.31
KSBA,04/04/2019 15:20 UTC,101896.38,14,,76.85,0,0,,,,,,,,323,454,,,10,,METAR KSBA 041520Z AUTO 00000KT 10SM BKN032 OVC045 14/10 A3009,,,,975.36,,,,,9.97,,N,101860.37,101897.31
KSBA,04/04/2019 15:25 UTC,101896.38,14,,76.85,0,0,,,,,,,,333,454,,,10,,METAR KSBA 041525Z AUTO 00000KT 10SM BKN033 OVC045 14/10 A3009,,,,1005.84,,,,,9.97,,N,101860.37,101897.31
KSBA,04/04/2019 15:30 UTC,101896.38,14,,76.85,0,0,,,,,,,,333,454,,,10,,METAR KSBA 041530Z AUTO 00000KT 10SM BKN033 OVC045 14/10 A3009,,,,1005.84,,,,,9.97,,N,101860.37,101897.31
KSBA,04/04/2019 15:35 UTC,101896.38,14,,76.85,1.54,130,,,,,,,,333,454,,,10,,METAR KSBA 041535Z AUTO 13003KT 10SM BKN033 OVC045 14/10 A3009,,,,1005.84,,,,,9.97,,SE,101860.37,101897.31
KSBA,04/04/2019 15:40 UTC,101930.25,14,,82.14,1.54,130,,,,,,,,334,,,,10,,METAR KSBA 041540Z AUTO 13003KT 10SM OVC033 14/11 A3010,,,,1005.84,,,,,10.97,,SE,101894.23,101931.18
KSBA,04/04/2019 15:45 UTC,101930.25,14,,82.14,1.54,130,,,,,,,,334,,,,10,,METAR KSBA 041545Z AUTO 13003KT 10SM OVC033 14/11 A3010,,,,1005.84,,,,,10.97,,SE,101894.23,101931.18
KSBA,04/04/2019 15:50 UTC,101930.25,14,,82.14,2.57,140,,,,,,,,202,314,,,10,,METAR KSBA 041550Z AUTO 14005KT 10SM SCT020 OVC031 14/11 A3010,,,,944.88,,,,,10.97,,SE,101894.23,101931.18
KSBA,04/04/2019 15:53 UTC,101930.25,13.9,10.6,80.51,2.06,140,,101920,,,,,,202,314,,,10,,METAR KSBA 041553Z 14004KT 10SM SCT020 OVC031 14/11 A3010 RMK AO2 SLP192  T01390106,,,,944.88,,,,,10.57,,SE,101894.23,101931.19
KSBA,04/04/2019 15:55 UTC,101930.25,14,,82.14,2.06,130,,,,,,,,314,,,,10,,METAR KSBA 041555Z AUTO 13004KT 10SM OVC031 14/11 A3010,,,,944.88,,,,,10.97,,SE,101894.23,101931.18
KSBA,04/04/2019 16:00 UTC,101930.25,14,,82.14,2.06,140,,,,,,,,314,,,,10,,METAR KSBA 041600Z AUTO 14004KT 10SM OVC031 14/11 A3010,,,,944.88,,,,,10.97,,SE,101894.23,101931.18
KSBA,04/04/2019 16:05 UTC,101930.25,14,,82.14,2.57,140,,,,,,,,314,,,,10,,METAR KSBA 041605Z AUTO 14005KT 10SM OVC031 14/11 A3010,,,,944.88,,,,,10.97,,SE,101894.23,101931.18
KSBA,04/04/2019 16:10 UTC,101930.25,14,,82.14,2.06,130,,,,,,,,314,,,,10,,METAR KSBA 041610Z AUTO 13004KT 10SM OVC031 14/11 A3010,,,,944.88,,,,,10.97,,SE,101894.23,101931.18
KSBA,04/04/2019 16:15 UTC,101930.25,14,,82.14,1.54,130,,,,,,,,314,,,,10,,METAR KSBA 041615Z AUTO 13003KT 10SM OVC031 14/11 A3010,,,,944.88,,,,,10.97,,SE,101894.23,101931.18
KSBA,04/04/2019 16:20 UTC,101930.25,14,,82.14,1.54,110,,,,,,,,314,,,,10,,METAR KSBA 041620Z AUTO 11003KT 10SM OVC031 14/11 A3010,,,,944.88,,,,,10.97,,ESE,101894.23,101931.18
KSBA,04/04/2019 16:25 UTC,101930.25,14,,82.14,1.54,140,,,,,,,,334,,,,10,,METAR KSBA 041625Z AUTO 14003KT 10SM OVC033 14/11 A3010,,,,1005.84,,,,,10.97,,SE,101894.23,101931.18
KSBA,04/04/2019 16:30 UTC,101964.11,14,,82.14,1.54,120,,,,,,,,334,,,,10,,METAR KSBA 041630Z AUTO 12003KT 10SM OVC033 14/11 A3011,,,,1005.84,,,,,10.97,,ESE,101928.08,101965.04
KSBA,04/04/2019 16:35 UTC,101930.25,14,,82.14,2.06,140,,,,,,,,334,,,,10,,METAR KSBA 041635Z AUTO 14004KT 10SM OVC033 14/11 A3010,,,,1005.84,,,,,10.97,,SE,101894.23,101931.18
KSBA,04/04/2019 16:40 UTC,101930.25,14,,82.14,2.06,150,,,,,,,,354,,,,10,,METAR KSBA 041640Z AUTO 15004KT 10SM OVC035 14/11 A3010,,,,1066.8,,,,,10.97,,SSE,101894.23,101931.18
KSBA,04/04/2019 16:45 UTC,101930.25,14,,82.14,2.57,160,,,,,,,,354,,,,10,,METAR KSBA 041645Z AUTO 16005KT 10SM OVC035 14/11 A3010,,,,1066.8,,,,,10.97,,SSE,101894.23,101931.18
KSBA,04/04/2019 16:50 UTC,101930.25,14,,82.14,2.06,140,,,,,,,,354,,,,10,,METAR KSBA 041650Z AUTO 14004KT 10SM OVC035 14/11 A3010,,,,1066.8,,,,,10.97,,SE,101894.23,101931.18
KSBA,04/04/2019 16:53 UTC,101930.25,13.9,11.1,83.23,2.57,140,,101930,,,,,,202,354,,,10,,KSBA 041653Z 14005KT 10SM SCT020 OVC035 14/11 A3010 RMK AO2 SLP193  T01390111,,,,1066.8,,,,,11.08,,SE,101894.23,101931.19
KSBA,04/04/2019 16:55 UTC,101930.25,14,,82.14,2.57,130,,,,,,,,354,,,,10,,METAR KSBA 041655Z AUTO 13005KT 10SM OVC035 14/11 A3010,,,,1066.8,,,,,10.97,,SE,101894.23,101931.18
KSBA,04/04/2019 17:00 UTC,101930.25,14,,82.14,2.57,130,,,,,,,,394,,,,10,,METAR KSBA 041700Z AUTO 13005KT 10SM OVC039 14/11 A3010,,,,1188.72,,,,,10.97,,SE,101894.23,101931.18
KSBA,04/04/2019 17:05 UTC,101930.25,14,,82.14,2.57,130,,,,,,,,394,,,,10,,METAR KSBA 041705Z AUTO 13005KT 10SM OVC039 14/11 A3010,,,,1188.72,,,,,10.97,,SE,101894.23,101931.18
KSBA,04/04/2019 17:10 UTC,101930.25,14,,82.14,2.57,150,,,,,,,,394,,,,10,,METAR KSBA 041710Z AUTO 15005KT 10SM OVC039 14/11 A3010,,,,1188.72,,,,,10.97,,SSE,101894.23,101931.18
KSBA,04/04/2019 17:15 UTC,101930.25,14,,82.14,2.06,150,,,,,,,,394,,,,10,,METAR KSBA 041715Z AUTO 15004KT 10SM OVC039 14/11 A3010,,,,1188.72,,,,,10.97,,SSE,101894.23,101931.18
KSBA,04/04/2019 17:20 UTC,101930.25,14,,82.14,2.57,140,,,,,,,,394,,,,10,,METAR KSBA 041720Z AUTO 14005KT 10SM OVC039 14/11 A3010,,,,1188.72,,,,,10.97,,SE,101894.23,101931.18
KSBA,04/04/2019 17:25 UTC,101930.25,14,,82.14,2.57,160,,,,,,,,394,,,,10,,METAR KSBA 041725Z AUTO 16005KT 10SM OVC039 14/11 A3010,,,,1188.72,,,,,10.97,,SSE,101894.23,101931.18
KSBA,04/04/2019 17:30 UTC,101930.25,14,,82.14,2.57,150,,,,,,,,374,,,,10,,METAR KSBA 041730Z AUTO 15005KT 10SM OVC037 14/11 A3010,,,,1127.76,,,,,10.97,,SSE,101894.23,101931.18
KSBA,04/04/2019 17:35 UTC,101930.25,14,,82.14,2.57,160,,,,,,,,394,,,,10,,METAR KSBA 041735Z AUTO 16005KT 10SM OVC039 14/11 A3010,,,,1188.72,,,,,10.97,,SSE,101894.23,101931.18
KSBA,04/04/2019 17:40 UTC,101964.11,14,,82.14,2.57,140,,,,,,,,373,454,,,10,,METAR KSBA 041740Z AUTO 14005KT 10SM BKN037 OVC045 14/11 A3011,,,,1127.76,,,,,10.97,,SE,101928.08,101965.04
KSBA,04/04/2019 17:45 UTC,101964.11,14,,82.14,2.06,140,,,,,,,,373,454,,,10,,METAR KSBA 041745Z AUTO 14004KT 10SM BKN037 OVC045 14/11 A3011,,,,1127.76,,,,,10.97,,SE,101928.08,101965.04
KSBA,04/04/2019 17:50 UTC,101930.25,14,,82.14,2.57,130,,,,504,,,,372,453,,,10,,METAR KSBA 041750Z AUTO 13005KT 10SM SCT037 BKN045 OVC050 14/11 A3010,,,,1371.6,,,,,10.97,,SE,101894.23,101931.18
KSBA,04/04/2019 17:53 UTC,101930.25,14.4,11.1,80.58,1.54,130,,101940,,,1006,,,372,484,,,10,,METAR KSBA 041753Z 13003KT 10SM SCT037 OVC048 14/11 A3010 RMK AO2 SLP194  T01440111 10144 20133 51006,14.4,13.3,,1463.04,,,,,11.07,,SE,101894.23,101931.13
KSBA,04/04/2019 17:55 UTC,101930.25,14,,82.14,2.06,120,,,,,,,,372,484,,,10,,METAR KSBA 041755Z AUTO 12004KT 10SM SCT037 OVC048 14/11 A3010,,,,1463.04,,,,,10.97,,ESE,101894.23,101931.18
KSBA,04/04/2019 18:00 UTC,101930.25,15,,77.01,2.06,140,,,,,,,,376,484,,,10,,METAR KSBA 041800Z AUTO 14004KT 10SM FEW037 OVC048 15/11 A3010,,,,1463.04,,,,,10.97,,SE,101894.23,101931.05
KSBA,04/04/2019 18:05 UTC,101930.25,16,,72.23,2.06,110,,,,,,,,453,504,,,10,,METAR KSBA 041805Z AUTO 11004KT 10SM BKN045 OVC050 16/11 A3010,,,,1371.6,,,,,10.96,,ESE,101894.23,101930.93
KSBA,04/04/2019 18:10 UTC,101930.25,16,,72.23,2.57,90,,,,,,,,453,504,,,10,,METAR KSBA 041810Z AUTO 09005KT 10SM BKN045 OVC050 16/11 A3010,,,,1371.6,,,,,10.96,,E,101894.23,101930.93
KSBA,04/04/2019 18:15 UTC,101930.25,16,,63.18,0,0,,,,,,,,453,504,,,10,,METAR KSBA 041815Z AUTO 00000KT 10SM BKN045 OVC050 16/09 A3010,,,,1371.6,,,,,8.95,,N,101894.23,101930.93
KSBA,04/04/2019 18:20 UTC,101930.25,17,,59.3,2.06,80,,,,,,,,453,504,,,10,,METAR KSBA 041820Z AUTO 08004KT 10SM BKN045 OVC050 17/09 A3010,,,,1371.6,,,,,8.95,,E,101894.23,101930.8
KSBA,04/04/2019 18:25 UTC,101896.38,17,,59.3,3.09,80,,,,,,,,453,503,,,10,,METAR KSBA 041825Z AUTO 08006KT 10SM BKN045 BKN050 17/09 A3009,,,,1371.6,,,,,8.95,,E,101860.37,101896.93
KSBA,04/04/2019 18:30 UTC,101896.38,17,,63.42,3.09,110,,,,,,,,443,,,,10,,METAR KSBA 041830Z AUTO 11006KT 10SM BKN044 17/10 A3009,,,,1341.12,,,,,9.96,,ESE,101860.37,101896.93
KSBA,04/04/2019 18:35 UTC,101896.38,17,,63.42,4.12,150,,,,,,,,376,443,,,10,,METAR KSBA 041835Z AUTO 15008KT 10SM FEW037 BKN044 17/10 A3009,,,,1341.12,,,,,9.96,,SSE,101860.37,101896.93
KSBA,04/04/2019 18:40 UTC,101896.38,16,,63.18,3.6,150,,,,,,,,352,443,,,10,,METAR KSBA 041840Z AUTO 15007KT 10SM SCT035 BKN044 16/09 A3009,,,,1341.12,,,,,8.95,,SSE,101860.37,101897.05
KSBA,04/04/2019 18:45 UTC,101896.38,16,,63.18,4.12,160,,,,443,,,,302,353,,,10,,METAR KSBA 041845Z AUTO 16008KT 10SM SCT030 BKN035 BKN044 16/09 A3009,,,,1066.8,,,,,8.95,,SSE,101860.37,101897.05
KSBA,04/04/2019 18:50 UTC,101896.38,16,,67.57,3.6,160,,,,443,,,,302,352,,,10,,METAR KSBA 041850Z AUTO 16007KT 10SM SCT030 SCT035 BKN044 16/10 A3009,,,,1341.12,,,,,9.96,,SSE,101860.37,101897.05
KSBA,04/04/2019 18:53 UTC,101896.38,16.1,10.6,69.89,4.12,160,,101890,,,,,,352,,,,10,,METAR KSBA 041853Z 16008KT 10SM SCT035 16/11 A3009 RMK AO2 SLP189 T01610106,,,,,,,,,10.56,,SSE,101860.37,101897.04
KSBA,04/04/2019 18:55 UTC,101896.38,16,,67.57,4.12,160,,,,464,,,,306,352,,,10,,METAR KSBA 041855Z AUTO 16008KT 10SM FEW030 SCT035 OVC046 16/10 A3009,,,,1402.08,,,,,9.96,,SSE,101860.37,101897.05
KSBA,04/04/2019 19:00 UTC,101896.38,16,,67.57,4.12,160,,,,464,,,,306,352,,,10,,METAR KSBA 041900Z AUTO 16008KT 10SM FEW030 SCT035 OVC046 16/10 A3009,,,,1402.08,,,,,9.96,,SSE,101860.37,101897.05
KSBA,04/04/2019 19:05 UTC,101896.38,16,,63.18,3.6,160,,,,,,,,306,474,,,10,,METAR KSBA 041905Z AUTO 16007KT 10SM FEW030 OVC047 16/09 A3009,,,,1432.56,,,,,8.95,,SSE,101860.37,101897.05
KSBA,04/04/2019 19:10 UTC,101896.38,16,,63.18,4.63,170,,,,,,,,306,454,,,10,,METAR KSBA 041910Z AUTO 17009KT 10SM FEW030 OVC045 16/09 A3009,,,,1371.6,,,,,8.95,,S,101860.37,101897.05
KSBA,04/04/2019 19:15 UTC,101896.38,16,,67.57,4.63,170,,,,,,,,454,,,,10,,METAR KSBA 041915Z AUTO 17009KT 10SM OVC045 16/10 A3009,,,,1371.6,,,,,9.96,,S,101860.37,101897.05
KSBA,04/04/2019 19:20 UTC,101862.52,16,,67.57,4.63,170,,,,,,,,454,,,,10,,METAR KSBA 041920Z AUTO 17009KT 10SM OVC045 16/10 A3008,,,,1371.6,,,,,9.96,,S,101826.52,101863.19
KSBA,04/04/2019 19:25 UTC,101862.52,16,,72.23,4.12,170,,,,,,,,434,,,,10,,METAR KSBA 041925Z AUTO 17008KT 10SM OVC043 16/11 A3008,,,,1310.64,,,,,10.96,,S,101826.52,101863.19
KSBA,04/04/2019 19:30 UTC,101862.52,16,,72.23,4.63,160,,,,,,,,454,,,,10,,METAR KSBA 041930Z AUTO 16009KT 10SM OVC045 16/11 A3008,,,,1371.6,,,,,10.96,,SSE,101826.52,101863.19
KSBA,04/04/2019 19:35 UTC,101862.52,16,,67.57,5.14,160,,,,,,,,454,,,,10,,METAR KSBA 041935Z AUTO 16010KT 10SM OVC045 16/10 A3008,,,,1371.6,,,,,9.96,,SSE,101826.52,101863.19
KSBA,04/04/2019 19:40 UTC,101862.52,16,,72.23,4.63,160,,,,,,,,454,,,,10,,METAR KSBA 041940Z AUTO 16009KT 10SM OVC045 16/11 A3008,,,,1371.6,,,,,10.96,,SSE,101826.52,101863.19
KSBA,04/04/2019 19:45 UTC,101862.52,16,,72.23,4.63,140,,,,,,,,474,,,,10,,METAR KSBA 041945Z AUTO 14009KT 10SM OVC047 16/11 A3008,,,,1432.56,,,,,10.96,,SE,101826.52,101863.19
KSBA,04/04/2019 19:50 UTC,101828.66,16,,72.23,4.12,140,,,,,,,,352,,,,10,,METAR KSBA 041950Z AUTO 14008KT 10SM SCT035 16/11 A3007,,,,,,,,,10.96,,SE,101792.68,101829.34
KSBA,04/04/2019 19:53 UTC,101828.66,16.1,10.6,69.89,3.6,160,,101840,,,,,,352,,,,10,,METAR KSBA 041953Z 16007KT 10SM SCT035 16/11 A3007 RMK AO2 SLP184 T01610106,,,,,,,,,10.56,,SSE,101792.68,101829.33
KSBA,04/04/2019 19:55 UTC,101828.66,16,,72.23,3.6,160,,,,,,,,483,,,,10,,METAR KSBA 041955Z AUTO 16007KT 10SM BKN048 16/11 A3007,,,,1463.04,,,,,10.96,,SSE,101792.68,101829.34
KSBA,04/04/2019 20:00 UTC,101828.66,16,,67.57,4.12,150,,,,,,,,483,,,,10,,METAR KSBA 042000Z AUTO 15008KT 10SM BKN048 16/10 A3007,,,,1463.04,,,,,9.96,,SSE,101792.68,101829.34
KSBA,04/04/2019 20:05 UTC,101828.66,16,,72.23,4.12,140,,,,,,,,483,,,,10,,METAR KSBA 042005Z AUTO 14008KT 10SM BKN048 16/11 A3007,,,,1463.04,,,,,10.96,,SE,101792.68,101829.34
KSBA,04/04/2019 20:10 UTC,101828.66,16,,72.23,3.09,150,,,,,,,,463,,,,10,,METAR KSBA 042010Z AUTO 15006KT 10SM BKN046 16/11 A3007,,,,1402.08,,,,,10.96,,SSE,101792.68,101829.34
KSBA,04/04/2019 20:15 UTC,101828.66,16,,72.23,3.6,160,,,,,,,,444,,,,10,,METAR KSBA 042015Z AUTO 16007KT 10SM OVC044 16/11 A3007,,,,1341.12,,,,,10.96,,SSE,101792.68,101829.34
KSBA,04/04/2019 20:20 UTC,101828.66,16,,63.18,3.09,160,,,,,,,,444,,,,10,,METAR KSBA 042020Z AUTO 16006KT 10SM OVC044 16/09 A3007,,,,1341.12,,,,,8.95,,SSE,101792.68,101829.34
KSBA,04/04/2019 20:25 UTC,101828.66,16,,67.57,3.09,160,,,,,,,,444,,,,10,,METAR KSBA 042025Z AUTO 16006KT 10SM OVC044 16/10 A3007,,,,1341.12,,,,,9.96,,SSE,101792.68,101829.34
KSBA,04/04/2019 20:30 UTC,101828.66,16,,67.57,3.6,150,,,,,,,,424,,,,10,,METAR KSBA 042030Z AUTO 15007KT 10SM OVC042 16/10 A3007,,,,1280.16,,,,,9.96,,SSE,101792.68,101829.34
KSBA,04/04/2019 20:35 UTC,101828.66,16,,67.57,3.6,160,,,,,,,,424,,,,10,,METAR KSBA 042035Z AUTO 16007KT 10SM OVC042 16/10 A3007,,,,1280.16,,,,,9.96,,SSE,101792.68,101829.34
KSBA,04/04/2019 20:40 UTC,101828.66,16,,67.57,4.12,170,,,,,,,,424,,,,10,,METAR KSBA 042040Z AUTO 17008KT 10SM OVC042 16/10 A3007,,,,1280.16,,,,,9.96,,S,101792.68,101829.34
KSBA,04/04/2019 20:45 UTC,101828.66,16,,67.57,3.09,170,,,,,,,,424,,,,10,,METAR KSBA 042045Z AUTO 17006KT 10SM OVC042 16/10 A3007,,,,1280.16,,,,,9.96,,S,101792.68,101829.34
KSBA,04/04/2019 20:50 UTC,101828.66,16,,63.18,3.6,180,,,,,,,,402,,,,10,,METAR KSBA 042050Z AUTO 18007KT 10SM SCT040 16/09 A3007,,,,,,,,,8.95,,S,101792.68,101829.34
KSBA,04/04/2019 20:53 UTC,101828.66,15.6,9.4,66.59,3.6,170,,101800,,,6013,,,402,,,,10,,METAR KSBA 042053Z 17007KT 10SM SCT040 16/09 A3007 RMK AO2 SLP180 T01560094  56013,,,,,,,,,9.35,,S,101792.68,101829.39
KSBA,04/04/2019 20:55 UTC,101794.79,16,,63.18,2.57,180,,,,,,,,433,504,,,10,,METAR KSBA 042055Z AUTO 18005KT 10SM BKN043 OVC050 16/09 A3006,,,,1310.64,,,,,8.95,,S,101758.82,101795.47
KSBA,04/04/2019 21:00 UTC,101794.79,16,,63.18,3.6,180,,,,,,,,433,504,,,10,,METAR KSBA 042100Z AUTO 18007KT 10SM BKN043 OVC050 16/09 A3006,,,,1310.64,,,,,8.95,,S,101758.82,101795.47
KSBA,04/04/2019 21:05 UTC,101794.79,16,,63.18,3.09,150,,,,,,,,464,,,,10,,METAR KSBA 042105Z AUTO 15006KT 10SM OVC046 16/09 A3006,,,,1402.08,,,,,8.95,,SSE,101758.82,101795.47
KSBA,04/04/2019 21:10 UTC,101794.79,16,,63.18,3.09,150,,,,,,,,484,,,,10,,METAR KSBA 042110Z AUTO 15006KT 10SM OVC048 16/09 A3006,,,,1463.04,,,,,8.95,,SSE,101758.82,101795.47
KSBA,04/04/2019 21:15 UTC,101794.79,15,,67.36,2.57,150,,,,,,,,484,,,,10,,METAR KSBA 042115Z AUTO 15005KT 10SM OVC048 15/09 A3006,,,,1463.04,,,,,8.95,,SSE,101758.82,101795.59
KSBA,04/04/2019 21:20 UTC,101794.79,15,,67.36,2.57,140,,,,,,,,484,,,,10,,METAR KSBA 042120Z AUTO 14005KT 10SM OVC048 15/09 A3006,,,,1463.04,,,,,8.95,,SE,101758.82,101795.59
KSBA,04/04/2019 21:25 UTC,101760.93,16,,63.18,2.06,150,,,,,,,,494,,,,10,,METAR KSBA 042125Z AUTO 15004KT 10SM OVC049 16/09 A3005,,,,1493.52,,,,,8.95,,SSE,101724.97,101761.61
KSBA,04/04/2019 21:30 UTC,101760.93,16,,63.18,2.57,140,,,,,,,,474,,,,10,,METAR KSBA 042130Z AUTO 14005KT 10SM OVC047 16/09 A3005,,,,1432.56,,,,,8.95,,SE,101724.97,101761.61
KSBA,04/04/2019 21:35 UTC,101760.93,15,,67.36,2.57,140,,,,,,,,474,,,,10,,METAR KSBA 042135Z AUTO 14005KT 10SM OVC047 15/09 A3005,,,,1432.56,,,,,8.95,,SE,101724.97,101761.73
KSBA,04/04/2019 21:40 UTC,101760.93,15,,67.36,2.57,140,,,,,,,,454,,,,10,,METAR KSBA 042140Z AUTO 14005KT 10SM OVC045 15/09 A3005,,,,1371.6,,,,,8.95,,SE,101724.97,101761.73
KSBA,04/04/2019 21:45 UTC,101760.93,15,,62.95,1.54,160,,,,,,,,454,,,,10,,METAR KSBA 042145Z AUTO 16003KT 10SM OVC045 15/08 A3005,,,,1371.6,,,,,7.95,,SSE,101724.97,101761.73
KSBA,04/04/2019 21:50 UTC,101760.93,16,,59.05,2.06,150,,,,,,,,434,,,,10,,METAR KSBA 042150Z AUTO 15004KT 10SM OVC043 16/08 A3005,,,,1310.64,,,,,7.94,,SSE,101724.97,101761.61
KSBA,04/04/2019 21:53 UTC,101760.93,15.6,8.9,64.38,2.06,160,,101760,,,,,,306,432,,,10,,METAR KSBA 042153Z 16004KT 10SM FEW030 SCT043 16/09 A3005 RMK AO2 SLP176  T01560089,,,,,,,,,8.85,,SSE,101724.97,101761.66
KSBA,04/04/2019 21:55 UTC,101760.93,16,,63.18,2.06,160,,,,,,,,434,,,,10,,METAR KSBA 042155Z AUTO 16004KT 10SM OVC043 16/09 A3005,,,,1310.64,,,,,8.95,,SSE,101724.97,101761.61
KSBA,04/04/2019 22:00 UTC,101760.93,16,,63.18,2.57,170,,,,,,,,434,,,,10,,METAR KSBA 042200Z AUTO 17005KT 10SM OVC043 16/09 A3005,,,,1310.64,,,,,8.95,,S,101724.97,101761.61
KSBA,04/04/2019 22:05 UTC,101760.93,16,,59.05,2.57,160,,,,,,,,454,,,,10,,METAR KSBA 042205Z AUTO 16005KT 10SM OVC045 16/08 A3005,,,,1371.6,,,,,7.94,,SSE,101724.97,101761.61
KSBA,04/04/2019 22:10 UTC,101760.93,16,,63.18,2.57,170,,,,,,,,474,,,,10,,METAR KSBA 042210Z AUTO 17005KT 10SM OVC047 16/09 A3005,,,,1432.56,,,,,8.95,,S,101724.97,101761.61
KSBA,04/04/2019 22:15 UTC,101760.93,16,,63.18,3.09,140,,,,,,,,473,1004,,,10,,METAR KSBA 042215Z AUTO 14006KT 10SM BKN047 OVC100 16/09 A3005,,,,1432.56,,,,,8.95,,SE,101724.97,101761.61
KSBA,04/04/2019 22:20 UTC,101760.93,16,,63.18,3.09,150,,,,1004,,,,462,553,,,10,,METAR KSBA 042220Z AUTO 15006KT 10SM SCT046 BKN055 OVC100 16/09 A3005,,,,1676.4,,,,,8.95,,SSE,101724.97,101761.61
KSBA,04/04/2019 22:25 UTC,101760.93,16,,63.18,3.09,150,,,,,,,,482,1004,,,10,,METAR KSBA 042225Z AUTO 15006KT 10SM SCT048 OVC100 16/09 A3005,,,,3048,,,,,8.95,,SSE,101724.97,101761.61
KSBA,04/04/2019 22:30 UTC,101760.93,16,,63.18,2.57,130,,,,,,,,502,1004,,,10,,METAR KSBA 042230Z AUTO 13005KT 10SM SCT050 OVC100 16/09 A3005,,,,3048,,,,,8.95,,SE,101724.97,101761.61
KSBA,04/04/2019 22:35 UTC,101727.07,16,,63.18,2.57,120,,,,,,,,506,1004,,,10,,METAR KSBA 042235Z AUTO 12005KT 10SM FEW050 OVC100 16/09 A3004,,,,3048,,,,,8.95,,ESE,101691.12,101727.74
KSBA,04/04/2019 22:40 UTC,101727.07,16,,63.18,1.54,150,,,,,,,,1004,,,,10,,METAR KSBA 042240Z AUTO 15003KT 10SM OVC100 16/09 A3004,,,,3048,,,,,8.95,,SSE,101691.12,101727.74
KSBA,04/04/2019 22:45 UTC,101727.07,16,,63.18,2.57,140,,,,,,,,306,1003,,,10,,METAR KSBA 042245Z AUTO 14005KT 10SM FEW030 BKN100 16/09 A3004,,,,3048,,,,,8.95,,SE,101691.12,101727.74
KSBA,04/04/2019 22:50 UTC,101727.07,16,,63.18,2.06,180,,,,,,,,306,1003,,,10,,METAR KSBA 042250Z AUTO 18004KT 10SM FEW030 BKN100 16/09 A3004,,,,3048,,,,,8.95,,S,101691.12,101727.74
KSBA,04/04/2019 22:53 UTC,101727.07,15.6,9.4,66.59,2.57,160,,101720,,,,,,306,1003,,,10,,METAR KSBA 042253Z 16005KT 10SM FEW030 BKN100 16/09 A3004 RMK AO2 SLP172  T01560094,,,,3048,,,,,9.35,,SSE,101691.12,101727.79
KSBA,04/04/2019 22:55 UTC,101727.07,16,,63.18,2.57,150,,,,,,,,1003,,,,10,,METAR KSBA 042255Z AUTO 15005KT 10SM BKN100 16/09 A3004,,,,3048,,,,,8.95,,SSE,101691.12,101727.74
KSBA,04/04/2019 23:00 UTC,101727.07,16,,63.18,2.57,160,,,,,,,,1003,,,,10,,METAR KSBA 042300Z AUTO 16005KT 10SM BKN100 16/09 A3004,,,,3048,,,,,8.95,,SSE,101691.12,101727.74
